{
  "type": "FeatureCollection",
  "features": [
    {
      "type": "Feature",
      "id": "ecf3d0f8-de5d-418a-9cd3-531256b90ce5",
      "geometry": {
        "type": "Polygon",
        "coordinates": [
          [
            [
              46592.0,
              10685.0
            ],
            [
              47083.0,
              10685.0
            ],
            [
              47083.0,
              11212.0
            ],
            [
              46592.0,
              11212.0
            ],
            [
              46592.0,
              10685.0
            ]
          ]
        ]
      },
      "properties": {
        "objectType": "annotation",
        "classification": {
          "name": "A | Ulcer/ erosion",
          "color": [
            255,
            0,
            0
          ]
        },
        "case_key": "2224413",
        "source": "A",
        "orig_class": "Ulcer/ erosion",
        "match": {
          "status": "component_tp",
          "component_id": "Ulcer/ erosion:comp_0",
          "class": "Ulcer/ erosion",
          "nA": 1,
          "nB": 1,
          "cas_union": 0.604378520944637,
          "oc_union": 0.6286979675912149,
          "ar_union": 1.7537998972008486,
          "area_a_union": 258757.0,
          "area_b_union": 453808.0,
          "area_intersection_union": 162680.0
        }
      }
    },
    {
      "type": "Feature",
      "id": "d308957e-38b8-4b02-9902-8995c3dd375a",
      "geometry": {
        "type": "Polygon",
        "coordinates": [
          [
            [
              38415.0,
              3098.0
            ],
            [
              38905.0,
              3098.0
            ],
            [
              38905.0,
              3491.0
            ],
            [
              38415.0,
              3491.0
            ],
            [
              38415.0,
              3098.0
            ]
          ]
        ]
      },
      "properties": {
        "objectType": "annotation",
        "classification": {
          "name": "A | Ulcer/ erosion",
          "color": [
            255,
            0,
            0
          ]
        },
        "case_key": "2224413",
        "source": "A",
        "orig_class": "Ulcer/ erosion",
        "match": {
          "status": "component_tp",
          "component_id": "Ulcer/ erosion:comp_6",
          "class": "Ulcer/ erosion",
          "nA": 1,
          "nB": 1,
          "cas_union": 0.9630435599644777,
          "oc_union": 0.9734693877551021,
          "ar_union": 1.341112322791712,
          "area_a_union": 192570.0,
          "area_b_union": 258258.0,
          "area_intersection_union": 187461.0
        }
      }
    },
    {
      "type": "Feature",
      "id": "8b666f34-e4e2-4f13-913a-1164434cf328",
      "geometry": {
        "type": "Polygon",
        "coordinates": [
          [
            [
              39869.0,
              3825.0
            ],
            [
              40495.0,
              3825.0
            ],
            [
              40495.0,
              4126.0
            ],
            [
              39869.0,
              4126.0
            ],
            [
              39869.0,
              3825.0
            ]
          ]
        ]
      },
      "properties": {
        "objectType": "annotation",
        "classification": {
          "name": "A | Ulcer/ erosion",
          "color": [
            255,
            0,
            0
          ]
        },
        "case_key": "2224413",
        "source": "A",
        "orig_class": "Ulcer/ erosion",
        "match": {
          "status": "component_tp",
          "component_id": "Ulcer/ erosion:comp_8",
          "class": "Ulcer/ erosion",
          "nA": 1,
          "nB": 1,
          "cas_union": 0.40652099571635253,
          "oc_union": 0.4077144343137359,
          "ar_union": 1.1654867162705784,
          "area_a_union": 188426.0,
          "area_b_union": 219608.0,
          "area_intersection_union": 76824.0
        }
      }
    },
    {
      "type": "Feature",
      "id": "753c1544-a88e-40d6-8e73-e27bafa99f62",
      "geometry": {
        "type": "Polygon",
        "coordinates": [
          [
            [
              38982.0,
              5084.0
            ],
            [
              40038.0,
              5084.0
            ],
            [
              40038.0,
              6140.0
            ],
            [
              38982.0,
              6140.0
            ],
            [
              38982.0,
              5084.0
            ]
          ]
        ]
      },
      "properties": {
        "objectType": "annotation",
        "classification": {
          "name": "A | Moderate to marked mononuclear cell infiltrate",
          "color": [
            21,
            11,
            49
          ]
        },
        "case_key": "2224413",
        "source": "A",
        "orig_class": "Moderate to marked mononuclear cell infiltrate",
        "match": {
          "status": "component_tp",
          "component_id": "Moderate to marked mononuclear cell infiltrate:comp_0",
          "class": "Moderate to marked mononuclear cell infiltrate",
          "nA": 1,
          "nB": 1,
          "cas_union": 0.6283901610745207,
          "oc_union": 0.6551312649164678,
          "ar_union": 1.781407251919372,
          "area_a_union": 1115136.0,
          "area_b_union": 625986.0,
          "area_intersection_union": 410103.0
        }
      }
    },
    {
      "type": "Feature",
      "id": "25f7f7d9-fd6a-45b8-906f-3e78557b177b",
      "geometry": {
        "type": "Polygon",
        "coordinates": [
          [
            [
              37478.0,
              9868.0
            ],
            [
              38838.0,
              9868.0
            ],
            [
              38838.0,
              10428.0
            ],
            [
              37478.0,
              10428.0
            ],
            [
              37478.0,
              9868.0
            ]
          ]
        ]
      },
      "properties": {
        "objectType": "annotation",
        "classification": {
          "name": "A | Moderate to marked mononuclear cell infiltrate",
          "color": [
            21,
            11,
            49
          ]
        },
        "case_key": "2224413",
        "source": "A",
        "orig_class": "Moderate to marked mononuclear cell infiltrate",
        "match": {
          "status": "component_tp",
          "component_id": "Moderate to marked mononuclear cell infiltrate:comp_1",
          "class": "Moderate to marked mononuclear cell infiltrate",
          "nA": 1,
          "nB": 2,
          "cas_union": 0.6283636332740734,
          "oc_union": 0.6452279351948752,
          "ar_union": 1.5845506313443922,
          "area_a_union": 761600.0,
          "area_b_union": 480641.0,
          "area_intersection_union": 310123.0
        }
      }
    },
    {
      "type": "Feature",
      "id": "ca40d91c-2e89-42c1-a66a-01dbf618e281",
      "geometry": {
        "type": "Polygon",
        "coordinates": [
          [
            [
              36246.0,
              8780.0
            ],
            [
              36902.0,
              8780.0
            ],
            [
              36902.0,
              9372.0
            ],
            [
              36246.0,
              9372.0
            ],
            [
              36246.0,
              8780.0
            ]
          ]
        ]
      },
      "properties": {
        "objectType": "annotation",
        "classification": {
          "name": "A | Moderate to marked mononuclear cell infiltrate",
          "color": [
            21,
            11,
            49
          ]
        },
        "case_key": "2224413",
        "source": "A",
        "orig_class": "Moderate to marked mononuclear cell infiltrate",
        "match": {
          "status": "component_tp",
          "component_id": "Moderate to marked mononuclear cell infiltrate:comp_2",
          "class": "Moderate to marked mononuclear cell infiltrate",
          "nA": 1,
          "nB": 1,
          "cas_union": 0.9163480368618255,
          "oc_union": 1.0,
          "ar_union": 2.3070872690548327,
          "area_a_union": 388352.0,
          "area_b_union": 168330.0,
          "area_intersection_union": 168330.0
        }
      }
    },
    {
      "type": "Feature",
      "id": "78c89473-8962-4bde-aeb8-11b845752bd5",
      "geometry": {
        "type": "Polygon",
        "coordinates": [
          [
            [
              38694.0,
              6508.0
            ],
            [
              39414.0,
              6508.0
            ],
            [
              39414.0,
              7100.0
            ],
            [
              38694.0,
              7100.0
            ],
            [
              38694.0,
              6508.0
            ]
          ]
        ]
      },
      "properties": {
        "objectType": "annotation",
        "classification": {
          "name": "A | Moderate to marked mononuclear cell infiltrate",
          "color": [
            21,
            11,
            49
          ]
        },
        "case_key": "2224413",
        "source": "A",
        "orig_class": "Moderate to marked mononuclear cell infiltrate",
        "match": {
          "status": "component_tp",
          "component_id": "Moderate to marked mononuclear cell infiltrate:comp_6",
          "class": "Moderate to marked mononuclear cell infiltrate",
          "nA": 1,
          "nB": 1,
          "cas_union": 0.8551245339486118,
          "oc_union": 0.8666666666666667,
          "ar_union": 1.3875,
          "area_a_union": 426240.0,
          "area_b_union": 307200.0,
          "area_intersection_union": 266240.0
        }
      }
    },
    {
      "type": "Feature",
      "id": "d5592ca2-d1e0-4fc4-818d-7a6c573607d0",
      "geometry": {
        "type": "Polygon",
        "coordinates": [
          [
            [
              36214.0,
              9996.0
            ],
            [
              36966.0,
              9996.0
            ],
            [
              36966.0,
              10396.0
            ],
            [
              36214.0,
              10396.0
            ],
            [
              36214.0,
              9996.0
            ]
          ]
        ]
      },
      "properties": {
        "objectType": "annotation",
        "classification": {
          "name": "A | Moderate to marked mononuclear cell infiltrate",
          "color": [
            21,
            11,
            49
          ]
        },
        "case_key": "2224413",
        "source": "A",
        "orig_class": "Moderate to marked mononuclear cell infiltrate",
        "match": {
          "status": "component_tp",
          "component_id": "Moderate to marked mononuclear cell infiltrate:comp_8",
          "class": "Moderate to marked mononuclear cell infiltrate",
          "nA": 1,
          "nB": 1,
          "cas_union": 0.7087772816893121,
          "oc_union": 0.792230422304223,
          "ar_union": 2.5693590269236024,
          "area_a_union": 300800.0,
          "area_b_union": 117072.0,
          "area_intersection_union": 92748.0
        }
      }
    },
    {
      "type": "Feature",
      "id": "951a98e9-11ed-4c34-a3b5-575cf7d282ca",
      "geometry": {
        "type": "Polygon",
        "coordinates": [
          [
            [
              36438.0,
              2092.0
            ],
            [
              36806.0,
              2092.0
            ],
            [
              36806.0,
              2652.0
            ],
            [
              36438.0,
              2652.0
            ],
            [
              36438.0,
              2092.0
            ]
          ]
        ]
      },
      "properties": {
        "objectType": "annotation",
        "classification": {
          "name": "A | Moderate to marked mononuclear cell infiltrate",
          "color": [
            21,
            11,
            49
          ]
        },
        "case_key": "2224413",
        "source": "A",
        "orig_class": "Moderate to marked mononuclear cell infiltrate",
        "match": {
          "status": "component_tp",
          "component_id": "Moderate to marked mononuclear cell infiltrate:comp_10",
          "class": "Moderate to marked mononuclear cell infiltrate",
          "nA": 1,
          "nB": 1,
          "cas_union": 0.7892745043006588,
          "oc_union": 0.8529697204968945,
          "ar_union": 2.1989033385093166,
          "area_a_union": 206080.0,
          "area_b_union": 453150.0,
          "area_intersection_union": 175780.0
        }
      }
    },
    {
      "type": "Feature",
      "id": "bacb68db-023f-4b08-9ab7-4a8ce45fc997",
      "geometry": {
        "type": "Polygon",
        "coordinates": [
          [
            [
              42262.0,
              17868.0
            ],
            [
              42902.0,
              17868.0
            ],
            [
              42902.0,
              18316.0
            ],
            [
              42262.0,
              18316.0
            ],
            [
              42262.0,
              17868.0
            ]
          ]
        ]
      },
      "properties": {
        "objectType": "annotation",
        "classification": {
          "name": "A | Moderate to marked mononuclear cell infiltrate",
          "color": [
            21,
            11,
            49
          ]
        },
        "case_key": "2224413",
        "source": "A",
        "orig_class": "Moderate to marked mononuclear cell infiltrate",
        "match": {
          "status": "component_tp",
          "component_id": "Moderate to marked mononuclear cell infiltrate:comp_15",
          "class": "Moderate to marked mononuclear cell infiltrate",
          "nA": 1,
          "nB": 1,
          "cas_union": 0.8474535954852339,
          "oc_union": 0.8492871690427699,
          "ar_union": 1.140529531568228,
          "area_a_union": 286720.0,
          "area_b_union": 251392.0,
          "area_intersection_union": 213504.0
        }
      }
    },
    {
      "type": "Feature",
      "id": "055f9af6-6229-4040-a0d4-e479d5b6acf3",
      "geometry": {
        "type": "Polygon",
        "coordinates": [
          [
            [
              40790.0,
              17484.0
            ],
            [
              41158.0,
              17484.0
            ],
            [
              41158.0,
              17900.0
            ],
            [
              40790.0,
              17900.0
            ],
            [
              40790.0,
              17484.0
            ]
          ]
        ]
      },
      "properties": {
        "objectType": "annotation",
        "classification": {
          "name": "A | Moderate to marked mononuclear cell infiltrate",
          "color": [
            21,
            11,
            49
          ]
        },
        "case_key": "2224413",
        "source": "A",
        "orig_class": "Moderate to marked mononuclear cell infiltrate",
        "match": {
          "status": "component_tp",
          "component_id": "Moderate to marked mononuclear cell infiltrate:comp_16",
          "class": "Moderate to marked mononuclear cell infiltrate",
          "nA": 1,
          "nB": 1,
          "cas_union": 0.6741846370611217,
          "oc_union": 0.7058619878762542,
          "ar_union": 1.833220108695652,
          "area_a_union": 153088.0,
          "area_b_union": 280644.0,
          "area_intersection_union": 108059.0
        }
      }
    },
    {
      "type": "Feature",
      "id": "492c6fab-ef0a-4963-a684-e6ca74525bf1",
      "geometry": {
        "type": "Polygon",
        "coordinates": [
          [
            [
              43238.0,
              18460.0
            ],
            [
              44134.0,
              18460.0
            ],
            [
              44134.0,
              19052.0
            ],
            [
              43238.0,
              19052.0
            ],
            [
              43238.0,
              18460.0
            ]
          ]
        ]
      },
      "properties": {
        "objectType": "annotation",
        "classification": {
          "name": "A | Moderate to marked mononuclear cell infiltrate",
          "color": [
            21,
            11,
            49
          ]
        },
        "case_key": "2224413",
        "source": "A",
        "orig_class": "Moderate to marked mononuclear cell infiltrate",
        "match": {
          "status": "component_tp",
          "component_id": "Moderate to marked mononuclear cell infiltrate:comp_17",
          "class": "Moderate to marked mononuclear cell infiltrate",
          "nA": 1,
          "nB": 1,
          "cas_union": 0.9178778898595693,
          "oc_union": 0.9929178470254958,
          "ar_union": 2.20976503916014,
          "area_a_union": 530432.0,
          "area_b_union": 240040.0,
          "area_intersection_union": 238340.0
        }
      }
    },
    {
      "type": "Feature",
      "id": "a65a4aa1-166c-4239-9a93-4dadca35f238",
      "geometry": {
        "type": "Polygon",
        "coordinates": [
          [
            [
              44662.0,
              16892.0
            ],
            [
              45190.0,
              16892.0
            ],
            [
              45190.0,
              17596.0
            ],
            [
              44662.0,
              17596.0
            ],
            [
              44662.0,
              16892.0
            ]
          ]
        ]
      },
      "properties": {
        "objectType": "annotation",
        "classification": {
          "name": "A | Moderate to marked mononuclear cell infiltrate",
          "color": [
            21,
            11,
            49
          ]
        },
        "case_key": "2224413",
        "source": "A",
        "orig_class": "Moderate to marked mononuclear cell infiltrate",
        "match": {
          "status": "component_tp",
          "component_id": "Moderate to marked mononuclear cell infiltrate:comp_19",
          "class": "Moderate to marked mononuclear cell infiltrate",
          "nA": 1,
          "nB": 1,
          "cas_union": 0.9359481814213068,
          "oc_union": 0.9602272727272727,
          "ar_union": 1.5724512525826446,
          "area_a_union": 371712.0,
          "area_b_union": 584499.0,
          "area_intersection_union": 356928.0
        }
      }
    },
    {
      "type": "Feature",
      "id": "09e2c28d-ab3e-474c-bd7e-0c6c031dfcc2",
      "geometry": {
        "type": "Polygon",
        "coordinates": [
          [
            [
              41862.0,
              18124.0
            ],
            [
              42246.0,
              18124.0
            ],
            [
              42246.0,
              18636.0
            ],
            [
              41862.0,
              18636.0
            ],
            [
              41862.0,
              18124.0
            ]
          ]
        ]
      },
      "properties": {
        "objectType": "annotation",
        "classification": {
          "name": "A | Moderate to marked mononuclear cell infiltrate",
          "color": [
            21,
            11,
            49
          ]
        },
        "case_key": "2224413",
        "source": "A",
        "orig_class": "Moderate to marked mononuclear cell infiltrate",
        "match": {
          "status": "component_tp",
          "component_id": "Moderate to marked mononuclear cell infiltrate:comp_24",
          "class": "Moderate to marked mononuclear cell infiltrate",
          "nA": 1,
          "nB": 1,
          "cas_union": 0.923724341504859,
          "oc_union": 0.93359375,
          "ar_union": 1.3385467529296875,
          "area_a_union": 196608.0,
          "area_b_union": 263169.0,
          "area_intersection_union": 183552.0
        }
      }
    },
    {
      "type": "Feature",
      "id": "6123af46-3da3-4c0e-bb33-2b2d7ddd22a6",
      "geometry": {
        "type": "Polygon",
        "coordinates": [
          [
            [
              40710.0,
              12380.0
            ],
            [
              41238.0,
              12380.0
            ],
            [
              41238.0,
              12748.0
            ],
            [
              40710.0,
              12748.0
            ],
            [
              40710.0,
              12380.0
            ]
          ]
        ]
      },
      "properties": {
        "objectType": "annotation",
        "classification": {
          "name": "A | Moderate to marked mononuclear cell infiltrate",
          "color": [
            21,
            11,
            49
          ]
        },
        "case_key": "2224413",
        "source": "A",
        "orig_class": "Moderate to marked mononuclear cell infiltrate",
        "match": {
          "status": "component_tp",
          "component_id": "Moderate to marked mononuclear cell infiltrate:comp_36",
          "class": "Moderate to marked mononuclear cell infiltrate",
          "nA": 1,
          "nB": 1,
          "cas_union": 0.7913656594744917,
          "oc_union": 0.8428030303030303,
          "ar_union": 2.0335402256258233,
          "area_a_union": 194304.0,
          "area_b_union": 395125.0,
          "area_intersection_union": 163760.0
        }
      }
    },
    {
      "type": "Feature",
      "id": "48f4e2bd-e5c4-47af-bb54-217d6e13f13b",
      "geometry": {
        "type": "Polygon",
        "coordinates": [
          [
            [
              34886.0,
              6540.0
            ],
            [
              40678.0,
              6540.0
            ],
            [
              40678.0,
              9324.0
            ],
            [
              34886.0,
              9324.0
            ],
            [
              34886.0,
              6540.0
            ]
          ]
        ]
      },
      "properties": {
        "objectType": "annotation",
        "classification": {
          "name": "A | Focal (<50%) crypt distortion",
          "color": [
            0,
            255,
            0
          ]
        },
        "case_key": "2224413",
        "source": "A",
        "orig_class": "Focal (<50%) crypt distortion",
        "match": {
          "status": "component_tp",
          "component_id": "Focal (<50%) crypt distortion:comp_0",
          "class": "Focal (<50%) crypt distortion",
          "nA": 1,
          "nB": 1,
          "cas_union": 0.8268555198034588,
          "oc_union": 0.8358381502890173,
          "ar_union": 1.3417933678914278,
          "area_a_union": 16124928.0,
          "area_b_union": 12017445.0,
          "area_intersection_union": 10044639.0
        }
      }
    },
    {
      "type": "Feature",
      "id": "1fd7f4af-fab8-4c65-bc31-56e72a764d1c",
      "geometry": {
        "type": "Polygon",
        "coordinates": [
          [
            [
              33318.0,
              9548.0
            ],
            [
              35702.0,
              9548.0
            ],
            [
              35702.0,
              12364.0
            ],
            [
              33318.0,
              12364.0
            ],
            [
              33318.0,
              9548.0
            ]
          ]
        ]
      },
      "properties": {
        "objectType": "annotation",
        "classification": {
          "name": "A | Focal (<50%) crypt distortion",
          "color": [
            0,
            255,
            0
          ]
        },
        "case_key": "2224413",
        "source": "A",
        "orig_class": "Focal (<50%) crypt distortion",
        "match": {
          "status": "component_tp",
          "component_id": "Focal (<50%) crypt distortion:comp_1",
          "class": "Focal (<50%) crypt distortion",
          "nA": 1,
          "nB": 1,
          "cas_union": 0.7080018391553579,
          "oc_union": 0.7680941122635754,
          "ar_union": 2.241834769676632,
          "area_a_union": 6713344.0,
          "area_b_union": 15050208.0,
          "area_intersection_union": 5156480.0
        }
      }
    },
    {
      "type": "Feature",
      "id": "4d62e55a-5ed3-4fd6-a537-b3b9ce867a15",
      "geometry": {
        "type": "Polygon",
        "coordinates": [
          [
            [
              42294.0,
              3612.0
            ],
            [
              44358.0,
              3612.0
            ],
            [
              44358.0,
              5308.0
            ],
            [
              42294.0,
              5308.0
            ],
            [
              42294.0,
              3612.0
            ]
          ]
        ]
      },
      "properties": {
        "objectType": "annotation",
        "classification": {
          "name": "A | Focal (<50%) crypt distortion",
          "color": [
            0,
            255,
            0
          ]
        },
        "case_key": "2224413",
        "source": "A",
        "orig_class": "Focal (<50%) crypt distortion",
        "match": {
          "status": "component_tp",
          "component_id": "Focal (<50%) crypt distortion:comp_3",
          "class": "Focal (<50%) crypt distortion",
          "nA": 1,
          "nB": 1,
          "cas_union": 0.566406341814121,
          "oc_union": 0.6206463909609478,
          "ar_union": 2.35216240675735,
          "area_a_union": 3500544.0,
          "area_b_union": 8233848.0,
          "area_intersection_union": 2172600.0
        }
      }
    },
    {
      "type": "Feature",
      "id": "629d8f7f-2f79-405b-a5c6-efda4b46b894",
      "geometry": {
        "type": "Polygon",
        "coordinates": [
          [
            [
              38454.0,
              11836.0
            ],
            [
              40102.0,
              11836.0
            ],
            [
              40102.0,
              14028.0
            ],
            [
              38454.0,
              14028.0
            ],
            [
              38454.0,
              11836.0
            ]
          ]
        ]
      },
      "properties": {
        "objectType": "annotation",
        "classification": {
          "name": "A | Focal (<50%) crypt distortion",
          "color": [
            0,
            255,
            0
          ]
        },
        "case_key": "2224413",
        "source": "A",
        "orig_class": "Focal (<50%) crypt distortion",
        "match": {
          "status": "component_tp",
          "component_id": "Focal (<50%) crypt distortion:comp_4",
          "class": "Focal (<50%) crypt distortion",
          "nA": 2,
          "nB": 1,
          "cas_union": 0.6504464197761203,
          "oc_union": 0.6577548339422801,
          "ar_union": 1.3484774621289872,
          "area_a_union": 6235904.0,
          "area_b_union": 8408976.0,
          "area_intersection_union": 4101696.0
        }
      }
    },
    {
      "type": "Feature",
      "id": "26ce5354-3d28-4046-b8a8-63d4f897f82e",
      "geometry": {
        "type": "Polygon",
        "coordinates": [
          [
            [
              39766.0,
              13916.0
            ],
            [
              41350.0,
              13916.0
            ],
            [
              41350.0,
              15596.0
            ],
            [
              39766.0,
              15596.0
            ],
            [
              39766.0,
              13916.0
            ]
          ]
        ]
      },
      "properties": {
        "objectType": "annotation",
        "classification": {
          "name": "A | Focal (<50%) crypt distortion",
          "color": [
            0,
            255,
            0
          ]
        },
        "case_key": "2224413",
        "source": "A",
        "orig_class": "Focal (<50%) crypt distortion",
        "match": {
          "status": "component_tp",
          "component_id": "Focal (<50%) crypt distortion:comp_4",
          "class": "Focal (<50%) crypt distortion",
          "nA": 2,
          "nB": 1,
          "cas_union": 0.6504464197761203,
          "oc_union": 0.6577548339422801,
          "ar_union": 1.3484774621289872,
          "area_a_union": 6235904.0,
          "area_b_union": 8408976.0,
          "area_intersection_union": 4101696.0
        }
      }
    },
    {
      "type": "Feature",
      "id": "a686dbf5-5bae-4058-9f7f-4f7fce7f2bb0",
      "geometry": {
        "type": "Polygon",
        "coordinates": [
          [
            [
              44166.0,
              10940.0
            ],
            [
              48182.0,
              10940.0
            ],
            [
              48182.0,
              15036.0
            ],
            [
              44166.0,
              15036.0
            ],
            [
              44166.0,
              10940.0
            ]
          ]
        ]
      },
      "properties": {
        "objectType": "annotation",
        "classification": {
          "name": "A | Marked (>50%) crypt distortion",
          "color": [
            0,
            51,
            0
          ]
        },
        "case_key": "2224413",
        "source": "A",
        "orig_class": "Marked (>50%) crypt distortion",
        "match": {
          "status": "component_tp",
          "component_id": "Marked (>50%) crypt distortion:comp_0",
          "class": "Marked (>50%) crypt distortion",
          "nA": 1,
          "nB": 1,
          "cas_union": 0.7425536372187111,
          "oc_union": 0.7444686293263225,
          "ar_union": 1.1543575348936337,
          "area_a_union": 16449536.0,
          "area_b_union": 14249949.0,
          "area_intersection_union": 10608640.0
        }
      }
    },
    {
      "type": "Feature",
      "id": "1aea83ea-553e-416d-9988-a63e0e66e50f",
      "geometry": {
        "type": "Polygon",
        "coordinates": [
          [
            [
              39606.0,
              16332.0
            ],
            [
              43446.0,
              16332.0
            ],
            [
              43446.0,
              17740.0
            ],
            [
              39606.0,
              17740.0
            ],
            [
              39606.0,
              16332.0
            ]
          ]
        ]
      },
      "properties": {
        "objectType": "annotation",
        "classification": {
          "name": "A | Focal (<50%) crypt distortion",
          "color": [
            0,
            255,
            0
          ]
        },
        "case_key": "2224413",
        "source": "A",
        "orig_class": "Focal (<50%) crypt distortion",
        "match": {
          "status": "component_tp",
          "component_id": "Focal (<50%) crypt distortion:comp_6",
          "class": "Focal (<50%) crypt distortion",
          "nA": 1,
          "nB": 1,
          "cas_union": 0.37176222989476765,
          "oc_union": 0.4794034090909091,
          "ar_union": 4.163225578539299,
          "area_a_union": 5406720.0,
          "area_b_union": 22509395.0,
          "area_intersection_union": 2592000.0
        }
      }
    },
    {
      "type": "Feature",
      "id": "9a01487f-5a26-4755-817c-6b8822ae8fc9",
      "geometry": {
        "type": "Polygon",
        "coordinates": [
          [
            [
              40630.0,
              8716.0
            ],
            [
              42902.0,
              8716.0
            ],
            [
              42902.0,
              12796.0
            ],
            [
              40630.0,
              12796.0
            ],
            [
              40630.0,
              8716.0
            ]
          ]
        ]
      },
      "properties": {
        "objectType": "annotation",
        "classification": {
          "name": "A | Architecture normal",
          "color": [
            0,
            255,
            255
          ]
        },
        "case_key": "2224413",
        "source": "A",
        "orig_class": "Architecture normal",
        "match": {
          "status": "component_tp",
          "component_id": "Architecture normal:comp_1",
          "class": "Architecture normal",
          "nA": 1,
          "nB": 1,
          "cas_union": 0.7946396126799637,
          "oc_union": 0.9273455377574371,
          "ar_union": 3.0390065109203808,
          "area_a_union": 9269760.0,
          "area_b_union": 3050260.0,
          "area_intersection_union": 2828645.0
        }
      }
    },
    {
      "type": "Feature",
      "id": "2f61d677-29bd-43c5-b8d9-3cc63202443c",
      "geometry": {
        "type": "Polygon",
        "coordinates": [
          [
            [
              44102.0,
              5244.0
            ],
            [
              46982.0,
              5244.0
            ],
            [
              46982.0,
              9148.0
            ],
            [
              44102.0,
              9148.0
            ],
            [
              44102.0,
              5244.0
            ]
          ]
        ]
      },
      "properties": {
        "objectType": "annotation",
        "classification": {
          "name": "A | Architecture normal",
          "color": [
            0,
            255,
            255
          ]
        },
        "case_key": "2224413",
        "source": "A",
        "orig_class": "Architecture normal",
        "match": {
          "status": "component_tp",
          "component_id": "Architecture normal:comp_2",
          "class": "Architecture normal",
          "nA": 1,
          "nB": 1,
          "cas_union": 0.9673641398183689,
          "oc_union": 1.0,
          "ar_union": 1.673991560899998,
          "area_a_union": 11243520.0,
          "area_b_union": 6716593.0,
          "area_intersection_union": 6716593.0
        }
      }
    },
    {
      "type": "Feature",
      "id": "449309ae-c60f-4d4b-8e79-dbe58a64e7f8",
      "geometry": {
        "type": "Polygon",
        "coordinates": [
          [
            [
              36566.0,
              3788.0
            ],
            [
              39350.0,
              3788.0
            ],
            [
              39350.0,
              6428.0
            ],
            [
              36566.0,
              6428.0
            ],
            [
              36566.0,
              3788.0
            ]
          ]
        ]
      },
      "properties": {
        "objectType": "annotation",
        "classification": {
          "name": "A | Architecture normal",
          "color": [
            0,
            255,
            255
          ]
        },
        "case_key": "2224413",
        "source": "A",
        "orig_class": "Architecture normal",
        "match": {
          "status": "component_tp",
          "component_id": "Architecture normal:comp_4",
          "class": "Architecture normal",
          "nA": 1,
          "nB": 1,
          "cas_union": 0.8527069804784968,
          "oc_union": 1.0,
          "ar_union": 3.0926629960256933,
          "area_a_union": 7349760.0,
          "area_b_union": 2376515.0,
          "area_intersection_union": 2376515.0
        }
      }
    },
    {
      "type": "Feature",
      "id": "03456087-99ce-423e-845f-e00d1af2118a",
      "geometry": {
        "type": "Polygon",
        "coordinates": [
          [
            [
              38428.0,
              3054.0
            ],
            [
              38428.0,
              3527.0
            ],
            [
              38974.0,
              3527.0
            ],
            [
              38974.0,
              3054.0
            ],
            [
              38428.0,
              3054.0
            ]
          ]
        ]
      },
      "properties": {
        "objectType": "annotation",
        "classification": {
          "name": "B | Ulcer/ erosion",
          "color": [
            255,
            0,
            0
          ]
        },
        "isLocked": true,
        "case_key": "2224413",
        "source": "B",
        "orig_class": "Ulcer/ erosion",
        "match": {
          "status": "component_tp",
          "component_id": "Ulcer/ erosion:comp_6",
          "class": "Ulcer/ erosion",
          "nA": 1,
          "nB": 1,
          "cas_union": 0.9630435599644777,
          "oc_union": 0.9734693877551021,
          "ar_union": 1.341112322791712,
          "area_a_union": 192570.0,
          "area_b_union": 258258.0,
          "area_intersection_union": 187461.0
        }
      }
    },
    {
      "type": "Feature",
      "id": "ad012100-0348-4dd9-a571-c734a38dd1c1",
      "geometry": {
        "type": "Polygon",
        "coordinates": [
          [
            [
              40017.0,
              3928.0
            ],
            [
              40017.0,
              4494.0
            ],
            [
              40405.0,
              4494.0
            ],
            [
              40405.0,
              3928.0
            ],
            [
              40017.0,
              3928.0
            ]
          ]
        ]
      },
      "properties": {
        "objectType": "annotation",
        "classification": {
          "name": "B | Ulcer/ erosion",
          "color": [
            255,
            0,
            0
          ]
        },
        "isLocked": true,
        "case_key": "2224413",
        "source": "B",
        "orig_class": "Ulcer/ erosion",
        "match": {
          "status": "component_tp",
          "component_id": "Ulcer/ erosion:comp_8",
          "class": "Ulcer/ erosion",
          "nA": 1,
          "nB": 1,
          "cas_union": 0.40652099571635253,
          "oc_union": 0.4077144343137359,
          "ar_union": 1.1654867162705784,
          "area_a_union": 188426.0,
          "area_b_union": 219608.0,
          "area_intersection_union": 76824.0
        }
      }
    },
    {
      "type": "Feature",
      "id": "f380ab3d-3621-42a3-84d3-d83d60f0cb77",
      "geometry": {
        "type": "Polygon",
        "coordinates": [
          [
            [
              46103.0,
              10820.0
            ],
            [
              46103.0,
              11322.0
            ],
            [
              47007.0,
              11322.0
            ],
            [
              47007.0,
              10820.0
            ],
            [
              46103.0,
              10820.0
            ]
          ]
        ]
      },
      "properties": {
        "objectType": "annotation",
        "classification": {
          "name": "B | Ulcer/ erosion",
          "color": [
            255,
            0,
            0
          ]
        },
        "isLocked": true,
        "case_key": "2224413",
        "source": "B",
        "orig_class": "Ulcer/ erosion",
        "match": {
          "status": "component_tp",
          "component_id": "Ulcer/ erosion:comp_0",
          "class": "Ulcer/ erosion",
          "nA": 1,
          "nB": 1,
          "cas_union": 0.604378520944637,
          "oc_union": 0.6286979675912149,
          "ar_union": 1.7537998972008486,
          "area_a_union": 258757.0,
          "area_b_union": 453808.0,
          "area_intersection_union": 162680.0
        }
      }
    },
    {
      "type": "Feature",
      "id": "1ae1332d-7b7e-4aa1-ad57-c07634eb9398",
      "geometry": {
        "type": "Polygon",
        "coordinates": [
          [
            [
              42329.0,
              17794.0
            ],
            [
              42329.0,
              18285.0
            ],
            [
              42841.0,
              18285.0
            ],
            [
              42841.0,
              17794.0
            ],
            [
              42329.0,
              17794.0
            ]
          ]
        ]
      },
      "properties": {
        "objectType": "annotation",
        "classification": {
          "name": "B | Moderate to marked mononuclear cell infiltrate",
          "color": [
            21,
            11,
            49
          ]
        },
        "isLocked": true,
        "case_key": "2224413",
        "source": "B",
        "orig_class": "Moderate to marked mononuclear cell infiltrate",
        "match": {
          "status": "component_tp",
          "component_id": "Moderate to marked mononuclear cell infiltrate:comp_15",
          "class": "Moderate to marked mononuclear cell infiltrate",
          "nA": 1,
          "nB": 1,
          "cas_union": 0.8474535954852339,
          "oc_union": 0.8492871690427699,
          "ar_union": 1.140529531568228,
          "area_a_union": 286720.0,
          "area_b_union": 251392.0,
          "area_intersection_union": 213504.0
        }
      }
    },
    {
      "type": "Feature",
      "id": "2d4177f4-caf6-46cd-8698-15e6d2a3b712",
      "geometry": {
        "type": "Polygon",
        "coordinates": [
          [
            [
              36476.0,
              8801.0
            ],
            [
              36476.0,
              9266.0
            ],
            [
              36838.0,
              9266.0
            ],
            [
              36838.0,
              8801.0
            ],
            [
              36476.0,
              8801.0
            ]
          ]
        ]
      },
      "properties": {
        "objectType": "annotation",
        "classification": {
          "name": "B | Moderate to marked mononuclear cell infiltrate",
          "color": [
            21,
            11,
            49
          ]
        },
        "isLocked": true,
        "case_key": "2224413",
        "source": "B",
        "orig_class": "Moderate to marked mononuclear cell infiltrate",
        "match": {
          "status": "component_tp",
          "component_id": "Moderate to marked mononuclear cell infiltrate:comp_2",
          "class": "Moderate to marked mononuclear cell infiltrate",
          "nA": 1,
          "nB": 1,
          "cas_union": 0.9163480368618255,
          "oc_union": 1.0,
          "ar_union": 2.3070872690548327,
          "area_a_union": 388352.0,
          "area_b_union": 168330.0,
          "area_intersection_union": 168330.0
        }
      }
    },
    {
      "type": "Feature",
      "id": "015b988c-cf78-4982-bca1-a052f8d3931c",
      "geometry": {
        "type": "Polygon",
        "coordinates": [
          [
            [
              38498.0,
              9767.0
            ],
            [
              38498.0,
              10264.0
            ],
            [
              39112.0,
              10264.0
            ],
            [
              39112.0,
              9767.0
            ],
            [
              38498.0,
              9767.0
            ]
          ]
        ]
      },
      "properties": {
        "objectType": "annotation",
        "classification": {
          "name": "B | Moderate to marked mononuclear cell infiltrate",
          "color": [
            21,
            11,
            49
          ]
        },
        "isLocked": true,
        "case_key": "2224413",
        "source": "B",
        "orig_class": "Moderate to marked mononuclear cell infiltrate",
        "match": {
          "status": "component_tp",
          "component_id": "Moderate to marked mononuclear cell infiltrate:comp_1",
          "class": "Moderate to marked mononuclear cell infiltrate",
          "nA": 1,
          "nB": 2,
          "cas_union": 0.6283636332740734,
          "oc_union": 0.6452279351948752,
          "ar_union": 1.5845506313443922,
          "area_a_union": 761600.0,
          "area_b_union": 480641.0,
          "area_intersection_union": 310123.0
        }
      }
    },
    {
      "type": "Feature",
      "id": "ae801687-38ee-4f6d-9387-67ea6b154f2d",
      "geometry": {
        "type": "Polygon",
        "coordinates": [
          [
            [
              37752.0,
              10008.0
            ],
            [
              37752.0,
              10309.0
            ],
            [
              38335.0,
              10309.0
            ],
            [
              38335.0,
              10008.0
            ],
            [
              37752.0,
              10008.0
            ]
          ]
        ]
      },
      "properties": {
        "objectType": "annotation",
        "classification": {
          "name": "B | Moderate to marked mononuclear cell infiltrate",
          "color": [
            21,
            11,
            49
          ]
        },
        "isLocked": true,
        "case_key": "2224413",
        "source": "B",
        "orig_class": "Moderate to marked mononuclear cell infiltrate",
        "match": {
          "status": "component_tp",
          "component_id": "Moderate to marked mononuclear cell infiltrate:comp_1",
          "class": "Moderate to marked mononuclear cell infiltrate",
          "nA": 1,
          "nB": 2,
          "cas_union": 0.6283636332740734,
          "oc_union": 0.6452279351948752,
          "ar_union": 1.5845506313443922,
          "area_a_union": 761600.0,
          "area_b_union": 480641.0,
          "area_intersection_union": 310123.0
        }
      }
    },
    {
      "type": "Feature",
      "id": "3af3dcba-fb4a-4294-ba2d-a3ec9355a494",
      "geometry": {
        "type": "Polygon",
        "coordinates": [
          [
            [
              36612.0,
              10134.0
            ],
            [
              36612.0,
              10405.0
            ],
            [
              37044.0,
              10405.0
            ],
            [
              37044.0,
              10134.0
            ],
            [
              36612.0,
              10134.0
            ]
          ]
        ]
      },
      "properties": {
        "objectType": "annotation",
        "classification": {
          "name": "B | Moderate to marked mononuclear cell infiltrate",
          "color": [
            21,
            11,
            49
          ]
        },
        "isLocked": true,
        "case_key": "2224413",
        "source": "B",
        "orig_class": "Moderate to marked mononuclear cell infiltrate",
        "match": {
          "status": "component_tp",
          "component_id": "Moderate to marked mononuclear cell infiltrate:comp_8",
          "class": "Moderate to marked mononuclear cell infiltrate",
          "nA": 1,
          "nB": 1,
          "cas_union": 0.7087772816893121,
          "oc_union": 0.792230422304223,
          "ar_union": 2.5693590269236024,
          "area_a_union": 300800.0,
          "area_b_union": 117072.0,
          "area_intersection_union": 92748.0
        }
      }
    },
    {
      "type": "Feature",
      "id": "db246aff-2f0b-4dac-8c54-5146e1ba4e9b",
      "geometry": {
        "type": "Polygon",
        "coordinates": [
          [
            [
              43233.0,
              18625.0
            ],
            [
              43233.0,
              18965.0
            ],
            [
              43939.0,
              18965.0
            ],
            [
              43939.0,
              18625.0
            ],
            [
              43233.0,
              18625.0
            ]
          ]
        ]
      },
      "properties": {
        "objectType": "annotation",
        "classification": {
          "name": "B | Moderate to marked mononuclear cell infiltrate",
          "color": [
            21,
            11,
            49
          ]
        },
        "isLocked": true,
        "case_key": "2224413",
        "source": "B",
        "orig_class": "Moderate to marked mononuclear cell infiltrate",
        "match": {
          "status": "component_tp",
          "component_id": "Moderate to marked mononuclear cell infiltrate:comp_17",
          "class": "Moderate to marked mononuclear cell infiltrate",
          "nA": 1,
          "nB": 1,
          "cas_union": 0.9178778898595693,
          "oc_union": 0.9929178470254958,
          "ar_union": 2.20976503916014,
          "area_a_union": 530432.0,
          "area_b_union": 240040.0,
          "area_intersection_union": 238340.0
        }
      }
    },
    {
      "type": "Feature",
      "id": "ec2ae14a-7e79-434e-b7e5-f33ed778172f",
      "geometry": {
        "type": "Polygon",
        "coordinates": [
          [
            [
              44605.0,
              16920.0
            ],
            [
              44605.0,
              17909.0
            ],
            [
              45196.0,
              17909.0
            ],
            [
              45196.0,
              16920.0
            ],
            [
              44605.0,
              16920.0
            ]
          ]
        ]
      },
      "properties": {
        "objectType": "annotation",
        "classification": {
          "name": "B | Moderate to marked mononuclear cell infiltrate",
          "color": [
            21,
            11,
            49
          ]
        },
        "isLocked": true,
        "case_key": "2224413",
        "source": "B",
        "orig_class": "Moderate to marked mononuclear cell infiltrate",
        "match": {
          "status": "component_tp",
          "component_id": "Moderate to marked mononuclear cell infiltrate:comp_19",
          "class": "Moderate to marked mononuclear cell infiltrate",
          "nA": 1,
          "nB": 1,
          "cas_union": 0.9359481814213068,
          "oc_union": 0.9602272727272727,
          "ar_union": 1.5724512525826446,
          "area_a_union": 371712.0,
          "area_b_union": 584499.0,
          "area_intersection_union": 356928.0
        }
      }
    },
    {
      "type": "Feature",
      "id": "212a1464-af17-4f38-a440-4958cc1697ba",
      "geometry": {
        "type": "Polygon",
        "coordinates": [
          [
            [
              41848.0,
              18089.0
            ],
            [
              41848.0,
              18602.0
            ],
            [
              42361.0,
              18602.0
            ],
            [
              42361.0,
              18089.0
            ],
            [
              41848.0,
              18089.0
            ]
          ]
        ]
      },
      "properties": {
        "objectType": "annotation",
        "classification": {
          "name": "B | Moderate to marked mononuclear cell infiltrate",
          "color": [
            21,
            11,
            49
          ]
        },
        "isLocked": true,
        "case_key": "2224413",
        "source": "B",
        "orig_class": "Moderate to marked mononuclear cell infiltrate",
        "match": {
          "status": "component_tp",
          "component_id": "Moderate to marked mononuclear cell infiltrate:comp_24",
          "class": "Moderate to marked mononuclear cell infiltrate",
          "nA": 1,
          "nB": 1,
          "cas_union": 0.923724341504859,
          "oc_union": 0.93359375,
          "ar_union": 1.3385467529296875,
          "area_a_union": 196608.0,
          "area_b_union": 263169.0,
          "area_intersection_union": 183552.0
        }
      }
    },
    {
      "type": "Feature",
      "id": "59ca848b-81fd-4e26-9fb2-e886d8a724b4",
      "geometry": {
        "type": "Polygon",
        "coordinates": [
          [
            [
              40857.0,
              17541.0
            ],
            [
              40857.0,
              18087.0
            ],
            [
              41371.0,
              18087.0
            ],
            [
              41371.0,
              17541.0
            ],
            [
              40857.0,
              17541.0
            ]
          ]
        ]
      },
      "properties": {
        "objectType": "annotation",
        "classification": {
          "name": "B | Moderate to marked mononuclear cell infiltrate",
          "color": [
            21,
            11,
            49
          ]
        },
        "isLocked": true,
        "case_key": "2224413",
        "source": "B",
        "orig_class": "Moderate to marked mononuclear cell infiltrate",
        "match": {
          "status": "component_tp",
          "component_id": "Moderate to marked mononuclear cell infiltrate:comp_16",
          "class": "Moderate to marked mononuclear cell infiltrate",
          "nA": 1,
          "nB": 1,
          "cas_union": 0.6741846370611217,
          "oc_union": 0.7058619878762542,
          "ar_union": 1.833220108695652,
          "area_a_union": 153088.0,
          "area_b_union": 280644.0,
          "area_intersection_union": 108059.0
        }
      }
    },
    {
      "type": "Feature",
      "id": "4ee95820-0cf7-4812-a6db-ce7513254e91",
      "geometry": {
        "type": "Polygon",
        "coordinates": [
          [
            [
              40793.0,
              12353.0
            ],
            [
              40793.0,
              13078.0
            ],
            [
              41338.0,
              13078.0
            ],
            [
              41338.0,
              12353.0
            ],
            [
              40793.0,
              12353.0
            ]
          ]
        ]
      },
      "properties": {
        "objectType": "annotation",
        "classification": {
          "name": "B | Moderate to marked mononuclear cell infiltrate",
          "color": [
            21,
            11,
            49
          ]
        },
        "isLocked": true,
        "case_key": "2224413",
        "source": "B",
        "orig_class": "Moderate to marked mononuclear cell infiltrate",
        "match": {
          "status": "component_tp",
          "component_id": "Moderate to marked mononuclear cell infiltrate:comp_36",
          "class": "Moderate to marked mononuclear cell infiltrate",
          "nA": 1,
          "nB": 1,
          "cas_union": 0.7913656594744917,
          "oc_union": 0.8428030303030303,
          "ar_union": 2.0335402256258233,
          "area_a_union": 194304.0,
          "area_b_union": 395125.0,
          "area_intersection_union": 163760.0
        }
      }
    },
    {
      "type": "Feature",
      "id": "a3fd6aa6-8e27-4eaf-beff-b1305de5ee3e",
      "geometry": {
        "type": "Polygon",
        "coordinates": [
          [
            [
              38894.0,
              6527.0
            ],
            [
              38894.0,
              7039.0
            ],
            [
              39494.0,
              7039.0
            ],
            [
              39494.0,
              6527.0
            ],
            [
              38894.0,
              6527.0
            ]
          ]
        ]
      },
      "properties": {
        "objectType": "annotation",
        "classification": {
          "name": "B | Moderate to marked mononuclear cell infiltrate",
          "color": [
            21,
            11,
            49
          ]
        },
        "isLocked": true,
        "case_key": "2224413",
        "source": "B",
        "orig_class": "Moderate to marked mononuclear cell infiltrate",
        "match": {
          "status": "component_tp",
          "component_id": "Moderate to marked mononuclear cell infiltrate:comp_6",
          "class": "Moderate to marked mononuclear cell infiltrate",
          "nA": 1,
          "nB": 1,
          "cas_union": 0.8551245339486118,
          "oc_union": 0.8666666666666667,
          "ar_union": 1.3875,
          "area_a_union": 426240.0,
          "area_b_union": 307200.0,
          "area_intersection_union": 266240.0
        }
      }
    },
    {
      "type": "Feature",
      "id": "37bfe107-13a9-4343-b7db-3be9d5e5c498",
      "geometry": {
        "type": "Polygon",
        "coordinates": [
          [
            [
              41890.0,
              4033.0
            ],
            [
              41890.0,
              7939.0
            ],
            [
              43998.0,
              7939.0
            ],
            [
              43998.0,
              4033.0
            ],
            [
              41890.0,
              4033.0
            ]
          ]
        ]
      },
      "properties": {
        "objectType": "annotation",
        "classification": {
          "name": "B | Focal (<50%) crypt distortion",
          "color": [
            0,
            255,
            0
          ]
        },
        "isLocked": true,
        "case_key": "2224413",
        "source": "B",
        "orig_class": "Focal (<50%) crypt distortion",
        "match": {
          "status": "component_tp",
          "component_id": "Focal (<50%) crypt distortion:comp_3",
          "class": "Focal (<50%) crypt distortion",
          "nA": 1,
          "nB": 1,
          "cas_union": 0.566406341814121,
          "oc_union": 0.6206463909609478,
          "ar_union": 2.35216240675735,
          "area_a_union": 3500544.0,
          "area_b_union": 8233848.0,
          "area_intersection_union": 2172600.0
        }
      }
    },
    {
      "type": "Feature",
      "id": "83905e88-b1a5-4cf5-871b-6c54a9f2a4dd",
      "geometry": {
        "type": "Polygon",
        "coordinates": [
          [
            [
              43333.0,
              10884.0
            ],
            [
              43333.0,
              15047.0
            ],
            [
              46756.0,
              15047.0
            ],
            [
              46756.0,
              10884.0
            ],
            [
              43333.0,
              10884.0
            ]
          ]
        ]
      },
      "properties": {
        "objectType": "annotation",
        "classification": {
          "name": "B | Marked (>50%) crypt distortion",
          "color": [
            0,
            51,
            0
          ]
        },
        "isLocked": true,
        "case_key": "2224413",
        "source": "B",
        "orig_class": "Marked (>50%) crypt distortion",
        "match": {
          "status": "component_tp",
          "component_id": "Marked (>50%) crypt distortion:comp_0",
          "class": "Marked (>50%) crypt distortion",
          "nA": 1,
          "nB": 1,
          "cas_union": 0.7425536372187111,
          "oc_union": 0.7444686293263225,
          "ar_union": 1.1543575348936337,
          "area_a_union": 16449536.0,
          "area_b_union": 14249949.0,
          "area_intersection_union": 10608640.0
        }
      }
    },
    {
      "type": "Feature",
      "id": "4caae61c-7b39-4389-a9ba-acf45be89369",
      "geometry": {
        "type": "Polygon",
        "coordinates": [
          [
            [
              39358.0,
              17065.0
            ],
            [
              39358.0,
              20850.0
            ],
            [
              45305.0,
              20850.0
            ],
            [
              45305.0,
              17065.0
            ],
            [
              39358.0,
              17065.0
            ]
          ]
        ]
      },
      "properties": {
        "objectType": "annotation",
        "classification": {
          "name": "B | Focal (<50%) crypt distortion",
          "color": [
            0,
            255,
            0
          ]
        },
        "isLocked": true,
        "case_key": "2224413",
        "source": "B",
        "orig_class": "Focal (<50%) crypt distortion",
        "match": {
          "status": "component_tp",
          "component_id": "Focal (<50%) crypt distortion:comp_6",
          "class": "Focal (<50%) crypt distortion",
          "nA": 1,
          "nB": 1,
          "cas_union": 0.37176222989476765,
          "oc_union": 0.4794034090909091,
          "ar_union": 4.163225578539299,
          "area_a_union": 5406720.0,
          "area_b_union": 22509395.0,
          "area_intersection_union": 2592000.0
        }
      }
    },
    {
      "type": "Feature",
      "id": "efa0db75-2b53-4b3d-a987-80e473752a7f",
      "geometry": {
        "type": "Polygon",
        "coordinates": [
          [
            [
              39111.0,
              11366.0
            ],
            [
              39111.0,
              15190.0
            ],
            [
              41310.0,
              15190.0
            ],
            [
              41310.0,
              11366.0
            ],
            [
              39111.0,
              11366.0
            ]
          ]
        ]
      },
      "properties": {
        "objectType": "annotation",
        "classification": {
          "name": "B | Focal (<50%) crypt distortion",
          "color": [
            0,
            255,
            0
          ]
        },
        "isLocked": true,
        "case_key": "2224413",
        "source": "B",
        "orig_class": "Focal (<50%) crypt distortion",
        "match": {
          "status": "component_tp",
          "component_id": "Focal (<50%) crypt distortion:comp_4",
          "class": "Focal (<50%) crypt distortion",
          "nA": 2,
          "nB": 1,
          "cas_union": 0.6504464197761203,
          "oc_union": 0.6577548339422801,
          "ar_union": 1.3484774621289872,
          "area_a_union": 6235904.0,
          "area_b_union": 8408976.0,
          "area_intersection_union": 4101696.0
        }
      }
    },
    {
      "type": "Feature",
      "id": "447319b6-804b-463d-8837-b6a8bf445734",
      "geometry": {
        "type": "Polygon",
        "coordinates": [
          [
            [
              41281.0,
              9378.0
            ],
            [
              41281.0,
              11123.0
            ],
            [
              43029.0,
              11123.0
            ],
            [
              43029.0,
              9378.0
            ],
            [
              41281.0,
              9378.0
            ]
          ]
        ]
      },
      "properties": {
        "objectType": "annotation",
        "classification": {
          "name": "B | Architecture normal",
          "color": [
            0,
            255,
            255
          ]
        },
        "isLocked": true,
        "case_key": "2224413",
        "source": "B",
        "orig_class": "Architecture normal",
        "match": {
          "status": "component_tp",
          "component_id": "Architecture normal:comp_1",
          "class": "Architecture normal",
          "nA": 1,
          "nB": 1,
          "cas_union": 0.7946396126799637,
          "oc_union": 0.9273455377574371,
          "ar_union": 3.0390065109203808,
          "area_a_union": 9269760.0,
          "area_b_union": 3050260.0,
          "area_intersection_union": 2828645.0
        }
      }
    },
    {
      "type": "Feature",
      "id": "5d311086-f44e-43cc-bec7-9022cdb76831",
      "geometry": {
        "type": "Polygon",
        "coordinates": [
          [
            [
              33462.0,
              8878.0
            ],
            [
              33462.0,
              11850.0
            ],
            [
              38526.0,
              11850.0
            ],
            [
              38526.0,
              8878.0
            ],
            [
              33462.0,
              8878.0
            ]
          ]
        ]
      },
      "properties": {
        "objectType": "annotation",
        "classification": {
          "name": "B | Focal (<50%) crypt distortion",
          "color": [
            0,
            255,
            0
          ]
        },
        "isLocked": true,
        "case_key": "2224413",
        "source": "B",
        "orig_class": "Focal (<50%) crypt distortion",
        "match": {
          "status": "component_tp",
          "component_id": "Focal (<50%) crypt distortion:comp_1",
          "class": "Focal (<50%) crypt distortion",
          "nA": 1,
          "nB": 1,
          "cas_union": 0.7080018391553579,
          "oc_union": 0.7680941122635754,
          "ar_union": 2.241834769676632,
          "area_a_union": 6713344.0,
          "area_b_union": 15050208.0,
          "area_intersection_union": 5156480.0
        }
      }
    },
    {
      "type": "Feature",
      "id": "63e8a24a-29d8-4576-886c-76e2fc3ca0c1",
      "geometry": {
        "type": "Polygon",
        "coordinates": [
          [
            [
              37421.0,
              4360.0
            ],
            [
              37421.0,
              5601.0
            ],
            [
              39336.0,
              5601.0
            ],
            [
              39336.0,
              4360.0
            ],
            [
              37421.0,
              4360.0
            ]
          ]
        ]
      },
      "properties": {
        "objectType": "annotation",
        "classification": {
          "name": "B | Architecture normal",
          "color": [
            0,
            255,
            255
          ]
        },
        "isLocked": true,
        "case_key": "2224413",
        "source": "B",
        "orig_class": "Architecture normal",
        "match": {
          "status": "component_tp",
          "component_id": "Architecture normal:comp_4",
          "class": "Architecture normal",
          "nA": 1,
          "nB": 1,
          "cas_union": 0.8527069804784968,
          "oc_union": 1.0,
          "ar_union": 3.0926629960256933,
          "area_a_union": 7349760.0,
          "area_b_union": 2376515.0,
          "area_intersection_union": 2376515.0
        }
      }
    },
    {
      "type": "Feature",
      "id": "ff15e1ef-8e08-4510-9bcb-ac4e098533f6",
      "geometry": {
        "type": "Polygon",
        "coordinates": [
          [
            [
              36012.0,
              6114.0
            ],
            [
              36012.0,
              8709.0
            ],
            [
              40643.0,
              8709.0
            ],
            [
              40643.0,
              6114.0
            ],
            [
              36012.0,
              6114.0
            ]
          ]
        ]
      },
      "properties": {
        "objectType": "annotation",
        "classification": {
          "name": "B | Focal (<50%) crypt distortion",
          "color": [
            0,
            255,
            0
          ]
        },
        "isLocked": true,
        "case_key": "2224413",
        "source": "B",
        "orig_class": "Focal (<50%) crypt distortion",
        "match": {
          "status": "component_tp",
          "component_id": "Focal (<50%) crypt distortion:comp_0",
          "class": "Focal (<50%) crypt distortion",
          "nA": 1,
          "nB": 1,
          "cas_union": 0.8268555198034588,
          "oc_union": 0.8358381502890173,
          "ar_union": 1.3417933678914278,
          "area_a_union": 16124928.0,
          "area_b_union": 12017445.0,
          "area_intersection_union": 10044639.0
        }
      }
    },
    {
      "type": "Feature",
      "id": "68a0ff0f-2186-482a-b736-024b02b9dc44",
      "geometry": {
        "type": "Polygon",
        "coordinates": [
          [
            [
              44226.0,
              6111.0
            ],
            [
              44226.0,
              8620.0
            ],
            [
              46903.0,
              8620.0
            ],
            [
              46903.0,
              6111.0
            ],
            [
              44226.0,
              6111.0
            ]
          ]
        ]
      },
      "properties": {
        "objectType": "annotation",
        "classification": {
          "name": "B | Architecture normal",
          "color": [
            0,
            255,
            255
          ]
        },
        "isLocked": true,
        "case_key": "2224413",
        "source": "B",
        "orig_class": "Architecture normal",
        "match": {
          "status": "component_tp",
          "component_id": "Architecture normal:comp_2",
          "class": "Architecture normal",
          "nA": 1,
          "nB": 1,
          "cas_union": 0.9673641398183689,
          "oc_union": 1.0,
          "ar_union": 1.673991560899998,
          "area_a_union": 11243520.0,
          "area_b_union": 6716593.0,
          "area_intersection_union": 6716593.0
        }
      }
    },
    {
      "type": "Feature",
      "id": "c10ba934-bdac-44fb-a921-42f5b5d44923",
      "geometry": {
        "type": "Polygon",
        "coordinates": [
          [
            [
              39489.0,
              5391.0
            ],
            [
              39489.0,
              6138.0
            ],
            [
              40327.0,
              6138.0
            ],
            [
              40327.0,
              5391.0
            ],
            [
              39489.0,
              5391.0
            ]
          ]
        ]
      },
      "properties": {
        "objectType": "annotation",
        "classification": {
          "name": "B | Moderate to marked mononuclear cell infiltrate",
          "color": [
            21,
            11,
            49
          ]
        },
        "isLocked": true,
        "case_key": "2224413",
        "source": "B",
        "orig_class": "Moderate to marked mononuclear cell infiltrate",
        "match": {
          "status": "component_tp",
          "component_id": "Moderate to marked mononuclear cell infiltrate:comp_0",
          "class": "Moderate to marked mononuclear cell infiltrate",
          "nA": 1,
          "nB": 1,
          "cas_union": 0.6283901610745207,
          "oc_union": 0.6551312649164678,
          "ar_union": 1.781407251919372,
          "area_a_union": 1115136.0,
          "area_b_union": 625986.0,
          "area_intersection_union": 410103.0
        }
      }
    },
    {
      "type": "Feature",
      "id": "a3c7f40a-72c7-4c60-a37b-8ed1feb92641",
      "geometry": {
        "type": "Polygon",
        "coordinates": [
          [
            [
              36466.0,
              2135.0
            ],
            [
              36466.0,
              3142.0
            ],
            [
              36916.0,
              3142.0
            ],
            [
              36916.0,
              2135.0
            ],
            [
              36466.0,
              2135.0
            ]
          ]
        ]
      },
      "properties": {
        "objectType": "annotation",
        "classification": {
          "name": "B | Moderate to marked mononuclear cell infiltrate",
          "color": [
            21,
            11,
            49
          ]
        },
        "isLocked": true,
        "case_key": "2224413",
        "source": "B",
        "orig_class": "Moderate to marked mononuclear cell infiltrate",
        "match": {
          "status": "component_tp",
          "component_id": "Moderate to marked mononuclear cell infiltrate:comp_10",
          "class": "Moderate to marked mononuclear cell infiltrate",
          "nA": 1,
          "nB": 1,
          "cas_union": 0.7892745043006588,
          "oc_union": 0.8529697204968945,
          "ar_union": 2.1989033385093166,
          "area_a_union": 206080.0,
          "area_b_union": 453150.0,
          "area_intersection_union": 175780.0
        }
      }
    }
  ]
}