{
  "type": "FeatureCollection",
  "features": [
    {
      "type": "Feature",
      "id": "d15525c6-8457-4b7f-9b47-cc553f0184a4",
      "geometry": {
        "type": "Polygon",
        "coordinates": [
          [
            [
              23858.0,
              25436.0
            ],
            [
              23858.0,
              25913.0
            ],
            [
              24421.0,
              25913.0
            ],
            [
              24421.0,
              25436.0
            ],
            [
              23858.0,
              25436.0
            ]
          ]
        ]
      },
      "properties": {
        "objectType": "annotation",
        "classification": {
          "name": "B | Basal lymphoid aggregates",
          "color": [
            0,
            0,
            255
          ]
        },
        "isLocked": true,
        "case_key": "2346175",
        "source": "B",
        "orig_class": "Basal lymphoid aggregates",
        "match": {
          "status": "component_tp",
          "component_id": "Basal lymphoid aggregates:comp_3",
          "class": "Basal lymphoid aggregates",
          "nA": 1,
          "nB": 1,
          "cas_union": 0.8367899721430461,
          "oc_union": 0.8385744234800838,
          "ar_union": 1.1394483729347498,
          "area_a_union": 268551.0,
          "area_b_union": 306000.0,
          "area_intersection_union": 225200.0
        }
      }
    },
    {
      "type": "Feature",
      "id": "bed3f9c0-723b-465f-86b4-4b8c558ef7d0",
      "geometry": {
        "type": "Polygon",
        "coordinates": [
          [
            [
              23825.0,
              25459.0
            ],
            [
              23825.0,
              25859.0
            ],
            [
              24590.0,
              25859.0
            ],
            [
              24590.0,
              25459.0
            ],
            [
              23825.0,
              25459.0
            ]
          ]
        ]
      },
      "properties": {
        "objectType": "annotation",
        "classification": {
          "name": "C | Basal lymphoid aggregates",
          "color": [
            0,
            0,
            255
          ]
        },
        "case_key": "2346175",
        "source": "C",
        "orig_class": "Basal lymphoid aggregates",
        "match": {
          "status": "component_tp",
          "component_id": "Basal lymphoid aggregates:comp_3",
          "class": "Basal lymphoid aggregates",
          "nA": 1,
          "nB": 1,
          "cas_union": 0.8367899721430461,
          "oc_union": 0.8385744234800838,
          "ar_union": 1.1394483729347498,
          "area_a_union": 268551.0,
          "area_b_union": 306000.0,
          "area_intersection_union": 225200.0
        }
      }
    }
  ]
}