{
  "type": "FeatureCollection",
  "features": [
    {
      "type": "Feature",
      "id": "da360470-0ea6-46da-b9bd-58e05bb73c36",
      "geometry": {
        "type": "Polygon",
        "coordinates": [
          [
            [
              11584.0,
              29808.0
            ],
            [
              12672.0,
              29808.0
            ],
            [
              12672.0,
              30288.0
            ],
            [
              11584.0,
              30288.0
            ],
            [
              11584.0,
              29808.0
            ]
          ]
        ]
      },
      "properties": {
        "objectType": "annotation",
        "classification": {
          "name": "A | Ulcer/ erosion",
          "color": [
            255,
            0,
            0
          ]
        },
        "case_key": "2346048",
        "source": "A",
        "orig_class": "Ulcer/ erosion",
        "match": {
          "status": "matched",
          "pair_id": "Ulcer/ erosion:pair_0",
          "cas": 0.9520978715001199,
          "oc": 1.0,
          "ar": 1.871345029239766,
          "other_source": "B",
          "other_uid": "2346048|0:B:4d83ebce-1e34-4425-abcf-176bf6c3326a"
        }
      }
    },
    {
      "type": "Feature",
      "id": "eea4e72c-4167-4d3a-9ab5-03bc44fa5cd3",
      "geometry": {
        "type": "Polygon",
        "coordinates": [
          [
            [
              15224.0,
              30256.0
            ],
            [
              17672.0,
              30256.0
            ],
            [
              17672.0,
              31264.0
            ],
            [
              15224.0,
              31264.0
            ],
            [
              15224.0,
              30256.0
            ]
          ]
        ]
      },
      "properties": {
        "objectType": "annotation",
        "classification": {
          "name": "A | Moderate to marked mononuclear cell infiltrate",
          "color": [
            21,
            11,
            49
          ]
        },
        "case_key": "2346048",
        "source": "A",
        "orig_class": "Moderate to marked mononuclear cell infiltrate",
        "match": {
          "status": "matched",
          "pair_id": "Moderate to marked mononuclear cell infiltrate:pair_3",
          "cas": 0.7044161823414432,
          "oc": 1.0,
          "ar": 5.334751724763979,
          "other_source": "B",
          "other_uid": "2346048|0:B:b0441e67-2233-4960-99a4-9ed3c308f303"
        }
      }
    },
    {
      "type": "Feature",
      "id": "8efa6b01-5922-4837-889f-ec9ecb0892d5",
      "geometry": {
        "type": "Polygon",
        "coordinates": [
          [
            [
              15352.0,
              29024.0
            ],
            [
              16248.0,
              29024.0
            ],
            [
              16248.0,
              29856.0
            ],
            [
              15352.0,
              29856.0
            ],
            [
              15352.0,
              29024.0
            ]
          ]
        ]
      },
      "properties": {
        "objectType": "annotation",
        "classification": {
          "name": "A | Moderate to marked mononuclear cell infiltrate",
          "color": [
            21,
            11,
            49
          ]
        },
        "case_key": "2346048",
        "source": "A",
        "orig_class": "Moderate to marked mononuclear cell infiltrate",
        "match": {
          "status": "matched",
          "pair_id": "Moderate to marked mononuclear cell infiltrate:pair_0",
          "cas": 0.9035395380193109,
          "oc": 0.9402560455192034,
          "ar": 1.758566107348511,
          "other_source": "B",
          "other_uid": "2346048|0:B:e1f0bad2-2170-44c0-b8c8-ce8e1c718525"
        }
      }
    },
    {
      "type": "Feature",
      "id": "9f9097b5-e39d-4b37-ad2b-494bddfe0832",
      "geometry": {
        "type": "Polygon",
        "coordinates": [
          [
            [
              13368.0,
              29792.0
            ],
            [
              14152.0,
              29792.0
            ],
            [
              14152.0,
              30464.0
            ],
            [
              13368.0,
              30464.0
            ],
            [
              13368.0,
              29792.0
            ]
          ]
        ]
      },
      "properties": {
        "objectType": "annotation",
        "classification": {
          "name": "A | Moderate to marked mononuclear cell infiltrate",
          "color": [
            21,
            11,
            49
          ]
        },
        "case_key": "2346048",
        "source": "A",
        "orig_class": "Moderate to marked mononuclear cell infiltrate",
        "match": {
          "status": "matched",
          "pair_id": "Moderate to marked mononuclear cell infiltrate:pair_2",
          "cas": 0.900414735922295,
          "oc": 0.9076549210206561,
          "ar": 1.288039292865333,
          "other_source": "B",
          "other_uid": "2346048|0:B:583bfd18-1c91-43a1-ad46-0a99e3b8acf8"
        }
      }
    },
    {
      "type": "Feature",
      "id": "5f96502b-b631-4c56-a507-b197e5a70e5c",
      "geometry": {
        "type": "Polygon",
        "coordinates": [
          [
            [
              12584.0,
              30688.0
            ],
            [
              13752.0,
              30688.0
            ],
            [
              13752.0,
              31312.0
            ],
            [
              12584.0,
              31312.0
            ],
            [
              12584.0,
              30688.0
            ]
          ]
        ]
      },
      "properties": {
        "objectType": "annotation",
        "classification": {
          "name": "A | Moderate to marked mononuclear cell infiltrate",
          "color": [
            21,
            11,
            49
          ]
        },
        "case_key": "2346048",
        "source": "A",
        "orig_class": "Moderate to marked mononuclear cell infiltrate",
        "match": {
          "status": "matched",
          "pair_id": "Moderate to marked mononuclear cell infiltrate:pair_1",
          "cas": 0.9024946216616262,
          "oc": 0.925513698630137,
          "ar": 1.5665503161222338,
          "other_source": "B",
          "other_uid": "2346048|0:B:a1d477f6-f0bd-4c99-a001-51d2e6fafed2"
        }
      }
    },
    {
      "type": "Feature",
      "id": "a1d477f6-f0bd-4c99-a001-51d2e6fafed2",
      "geometry": {
        "type": "Polygon",
        "coordinates": [
          [
            [
              12671.0,
              30615.0
            ],
            [
              12671.0,
              31457.0
            ],
            [
              14027.0,
              31457.0
            ],
            [
              14027.0,
              30615.0
            ],
            [
              12671.0,
              30615.0
            ]
          ]
        ]
      },
      "properties": {
        "objectType": "annotation",
        "classification": {
          "name": "B | Moderate to marked mononuclear cell infiltrate",
          "color": [
            21,
            11,
            49
          ]
        },
        "isLocked": true,
        "case_key": "2346048",
        "source": "B",
        "orig_class": "Moderate to marked mononuclear cell infiltrate",
        "match": {
          "status": "matched",
          "pair_id": "Moderate to marked mononuclear cell infiltrate:pair_1",
          "cas": 0.9024946216616262,
          "oc": 0.925513698630137,
          "ar": 1.5665503161222338,
          "other_source": "A",
          "other_uid": "2346048|0:A:5f96502b-b631-4c56-a507-b197e5a70e5c"
        }
      }
    },
    {
      "type": "Feature",
      "id": "e1f0bad2-2170-44c0-b8c8-ce8e1c718525",
      "geometry": {
        "type": "Polygon",
        "coordinates": [
          [
            [
              15553.0,
              28982.0
            ],
            [
              15553.0,
              29685.0
            ],
            [
              16156.0,
              29685.0
            ],
            [
              16156.0,
              28982.0
            ],
            [
              15553.0,
              28982.0
            ]
          ]
        ]
      },
      "properties": {
        "objectType": "annotation",
        "classification": {
          "name": "B | Moderate to marked mononuclear cell infiltrate",
          "color": [
            21,
            11,
            49
          ]
        },
        "isLocked": true,
        "case_key": "2346048",
        "source": "B",
        "orig_class": "Moderate to marked mononuclear cell infiltrate",
        "match": {
          "status": "matched",
          "pair_id": "Moderate to marked mononuclear cell infiltrate:pair_0",
          "cas": 0.9035395380193109,
          "oc": 0.9402560455192034,
          "ar": 1.758566107348511,
          "other_source": "A",
          "other_uid": "2346048|0:A:8efa6b01-5922-4837-889f-ec9ecb0892d5"
        }
      }
    },
    {
      "type": "Feature",
      "id": "583bfd18-1c91-43a1-ad46-0a99e3b8acf8",
      "geometry": {
        "type": "Polygon",
        "coordinates": [
          [
            [
              13292.0,
              29942.0
            ],
            [
              13292.0,
              30439.0
            ],
            [
              14115.0,
              30439.0
            ],
            [
              14115.0,
              29942.0
            ],
            [
              13292.0,
              29942.0
            ]
          ]
        ]
      },
      "properties": {
        "objectType": "annotation",
        "classification": {
          "name": "B | Moderate to marked mononuclear cell infiltrate",
          "color": [
            21,
            11,
            49
          ]
        },
        "isLocked": true,
        "case_key": "2346048",
        "source": "B",
        "orig_class": "Moderate to marked mononuclear cell infiltrate",
        "match": {
          "status": "matched",
          "pair_id": "Moderate to marked mononuclear cell infiltrate:pair_2",
          "cas": 0.900414735922295,
          "oc": 0.9076549210206561,
          "ar": 1.288039292865333,
          "other_source": "A",
          "other_uid": "2346048|0:A:9f9097b5-e39d-4b37-ad2b-494bddfe0832"
        }
      }
    },
    {
      "type": "Feature",
      "id": "4d83ebce-1e34-4425-abcf-176bf6c3326a",
      "geometry": {
        "type": "Polygon",
        "coordinates": [
          [
            [
              11675.0,
              29854.0
            ],
            [
              11675.0,
              30158.0
            ],
            [
              12593.0,
              30158.0
            ],
            [
              12593.0,
              29854.0
            ],
            [
              11675.0,
              29854.0
            ]
          ]
        ]
      },
      "properties": {
        "objectType": "annotation",
        "classification": {
          "name": "B | Ulcer/ erosion",
          "color": [
            255,
            0,
            0
          ]
        },
        "isLocked": true,
        "case_key": "2346048",
        "source": "B",
        "orig_class": "Ulcer/ erosion",
        "match": {
          "status": "matched",
          "pair_id": "Ulcer/ erosion:pair_0",
          "cas": 0.9520978715001199,
          "oc": 1.0,
          "ar": 1.871345029239766,
          "other_source": "A",
          "other_uid": "2346048|0:A:da360470-0ea6-46da-b9bd-58e05bb73c36"
        }
      }
    },
    {
      "type": "Feature",
      "id": "b0441e67-2233-4960-99a4-9ed3c308f303",
      "geometry": {
        "type": "Polygon",
        "coordinates": [
          [
            [
              13344.0,
              29025.0
            ],
            [
              13344.0,
              31883.0
            ],
            [
              17950.0,
              31883.0
            ],
            [
              17950.0,
              29025.0
            ],
            [
              13344.0,
              29025.0
            ]
          ]
        ]
      },
      "properties": {
        "objectType": "annotation",
        "classification": {
          "name": "B | Moderate to marked mononuclear cell infiltrate",
          "color": [
            21,
            11,
            49
          ]
        },
        "isLocked": true,
        "case_key": "2346048",
        "source": "B",
        "orig_class": "Moderate to marked mononuclear cell infiltrate",
        "match": {
          "status": "matched",
          "pair_id": "Moderate to marked mononuclear cell infiltrate:pair_3",
          "cas": 0.7044161823414432,
          "oc": 1.0,
          "ar": 5.334751724763979,
          "other_source": "A",
          "other_uid": "2346048|0:A:eea4e72c-4167-4d3a-9ab5-03bc44fa5cd3"
        }
      }
    }
  ]
}