{
  "type": "FeatureCollection",
  "features": [
    {
      "type": "Feature",
      "id": "1fa0bd16-ea83-4fad-ba9a-dd8c08b89e22",
      "geometry": {
        "type": "Polygon",
        "coordinates": [
          [
            [
              8000.0,
              4240.0
            ],
            [
              9248.0,
              4240.0
            ],
            [
              9248.0,
              6256.0
            ],
            [
              8000.0,
              6256.0
            ],
            [
              8000.0,
              4240.0
            ]
          ]
        ]
      },
      "properties": {
        "objectType": "annotation",
        "classification": {
          "name": "A | Basal Plasmacytosis",
          "color": [
            202,
            65,
            86
          ]
        },
        "case_key": "2346045_2",
        "source": "A",
        "orig_class": "Basal Plasmacytosis",
        "match": {
          "status": "unmatched"
        }
      }
    },
    {
      "type": "Feature",
      "id": "5640b3ae-f586-4a36-b4fb-ce1f36980d63",
      "geometry": {
        "type": "Polygon",
        "coordinates": [
          [
            [
              9376.0,
              5328.0
            ],
            [
              10112.0,
              5328.0
            ],
            [
              10112.0,
              6656.0
            ],
            [
              9376.0,
              6656.0
            ],
            [
              9376.0,
              5328.0
            ]
          ]
        ]
      },
      "properties": {
        "objectType": "annotation",
        "classification": {
          "name": "A | Basal Plasmacytosis",
          "color": [
            202,
            65,
            86
          ]
        },
        "case_key": "2346045_2",
        "source": "A",
        "orig_class": "Basal Plasmacytosis",
        "match": {
          "status": "unmatched"
        }
      }
    },
    {
      "type": "Feature",
      "id": "bdf38b64-c9f3-4104-85b0-cfc1434a69cb",
      "geometry": {
        "type": "Polygon",
        "coordinates": [
          [
            [
              6232.0,
              6688.0
            ],
            [
              8728.0,
              6688.0
            ],
            [
              8728.0,
              9136.0
            ],
            [
              6232.0,
              9136.0
            ],
            [
              6232.0,
              6688.0
            ]
          ]
        ]
      },
      "properties": {
        "objectType": "annotation",
        "classification": {
          "name": "A | Basal lymphoid aggregates",
          "color": [
            0,
            0,
            255
          ]
        },
        "case_key": "2346045_2",
        "source": "A",
        "orig_class": "Basal lymphoid aggregates",
        "match": {
          "status": "unmatched"
        }
      }
    },
    {
      "type": "Feature",
      "id": "0166372c-19ef-4fcf-952a-e723c0a8a1ab",
      "geometry": {
        "type": "Polygon",
        "coordinates": [
          [
            [
              9400.0,
              8976.0
            ],
            [
              12072.0,
              8976.0
            ],
            [
              12072.0,
              12880.0
            ],
            [
              9400.0,
              12880.0
            ],
            [
              9400.0,
              8976.0
            ]
          ]
        ]
      },
      "properties": {
        "objectType": "annotation",
        "classification": {
          "name": "A | Basal lymphoid aggregates",
          "color": [
            0,
            0,
            255
          ]
        },
        "case_key": "2346045_2",
        "source": "A",
        "orig_class": "Basal lymphoid aggregates",
        "match": {
          "status": "unmatched"
        }
      }
    },
    {
      "type": "Feature",
      "id": "fcdfc034-0e2d-449e-9bf9-e85e96802d27",
      "geometry": {
        "type": "Polygon",
        "coordinates": [
          [
            [
              7272.0,
              8672.0
            ],
            [
              9736.0,
              8672.0
            ],
            [
              9736.0,
              10832.0
            ],
            [
              7272.0,
              10832.0
            ],
            [
              7272.0,
              8672.0
            ]
          ]
        ]
      },
      "properties": {
        "objectType": "annotation",
        "classification": {
          "name": "A | Basal lymphoid aggregates",
          "color": [
            0,
            0,
            255
          ]
        },
        "case_key": "2346045_2",
        "source": "A",
        "orig_class": "Basal lymphoid aggregates",
        "match": {
          "status": "unmatched"
        }
      }
    },
    {
      "type": "Feature",
      "id": "0066db12-af85-4b1c-b715-b0a1deda7dbf",
      "geometry": {
        "type": "Polygon",
        "coordinates": [
          [
            [
              7096.0,
              11120.0
            ],
            [
              9720.0,
              11120.0
            ],
            [
              9720.0,
              14016.0
            ],
            [
              7096.0,
              14016.0
            ],
            [
              7096.0,
              11120.0
            ]
          ]
        ]
      },
      "properties": {
        "objectType": "annotation",
        "classification": {
          "name": "A | Basal lymphoid aggregates",
          "color": [
            0,
            0,
            255
          ]
        },
        "case_key": "2346045_2",
        "source": "A",
        "orig_class": "Basal lymphoid aggregates",
        "match": {
          "status": "unmatched"
        }
      }
    },
    {
      "type": "Feature",
      "id": "2506bb77-9109-4de2-b9bb-0871ce41f3ec",
      "geometry": {
        "type": "Polygon",
        "coordinates": [
          [
            [
              12548.0,
              11931.0
            ],
            [
              12974.0,
              11931.0
            ],
            [
              12974.0,
              12653.0
            ],
            [
              12548.0,
              12653.0
            ],
            [
              12548.0,
              11931.0
            ]
          ]
        ]
      },
      "properties": {
        "objectType": "annotation",
        "classification": {
          "name": "A | Ulcer/ erosion",
          "color": [
            255,
            0,
            0
          ]
        },
        "case_key": "2346045_2",
        "source": "A",
        "orig_class": "Ulcer/ erosion",
        "match": {
          "status": "unmatched"
        }
      }
    },
    {
      "type": "Feature",
      "id": "4410a5c1-eb9d-4034-8ec6-8de96238ad7c",
      "geometry": {
        "type": "Polygon",
        "coordinates": [
          [
            [
              13765.0,
              13005.0
            ],
            [
              14162.0,
              13005.0
            ],
            [
              14162.0,
              13265.0
            ],
            [
              13765.0,
              13265.0
            ],
            [
              13765.0,
              13005.0
            ]
          ]
        ]
      },
      "properties": {
        "objectType": "annotation",
        "classification": {
          "name": "A | Ulcer/ erosion",
          "color": [
            255,
            0,
            0
          ]
        },
        "case_key": "2346045_2",
        "source": "A",
        "orig_class": "Ulcer/ erosion",
        "match": {
          "status": "unmatched"
        }
      }
    },
    {
      "type": "Feature",
      "id": "3f5d8257-8593-445d-b914-5ad99b2bf2bb",
      "geometry": {
        "type": "Polygon",
        "coordinates": [
          [
            [
              12957.0,
              14974.0
            ],
            [
              13244.0,
              14974.0
            ],
            [
              13244.0,
              15375.0
            ],
            [
              12957.0,
              15375.0
            ],
            [
              12957.0,
              14974.0
            ]
          ]
        ]
      },
      "properties": {
        "objectType": "annotation",
        "classification": {
          "name": "A | Ulcer/ erosion",
          "color": [
            255,
            0,
            0
          ]
        },
        "case_key": "2346045_2",
        "source": "A",
        "orig_class": "Ulcer/ erosion",
        "match": {
          "status": "unmatched"
        }
      }
    },
    {
      "type": "Feature",
      "id": "7761b889-ee94-479a-84e0-089f673504b1",
      "geometry": {
        "type": "Polygon",
        "coordinates": [
          [
            [
              13443.0,
              15508.0
            ],
            [
              13635.0,
              15508.0
            ],
            [
              13635.0,
              15675.0
            ],
            [
              13443.0,
              15675.0
            ],
            [
              13443.0,
              15508.0
            ]
          ]
        ]
      },
      "properties": {
        "objectType": "annotation",
        "classification": {
          "name": "A | Ulcer/ erosion",
          "color": [
            255,
            0,
            0
          ]
        },
        "case_key": "2346045_2",
        "source": "A",
        "orig_class": "Ulcer/ erosion",
        "match": {
          "status": "unmatched"
        }
      }
    },
    {
      "type": "Feature",
      "id": "b630e110-6e41-4a4e-bf82-d799731210d4",
      "geometry": {
        "type": "Polygon",
        "coordinates": [
          [
            [
              12603.0,
              12845.0
            ],
            [
              12886.0,
              12845.0
            ],
            [
              12886.0,
              13219.0
            ],
            [
              12603.0,
              13219.0
            ],
            [
              12603.0,
              12845.0
            ]
          ]
        ]
      },
      "properties": {
        "objectType": "annotation",
        "classification": {
          "name": "A | Ulcer/ erosion",
          "color": [
            255,
            0,
            0
          ]
        },
        "case_key": "2346045_2",
        "source": "A",
        "orig_class": "Ulcer/ erosion",
        "match": {
          "status": "unmatched"
        }
      }
    },
    {
      "type": "Feature",
      "id": "5875fee0-9688-4c21-810c-ab9ceec9e412",
      "geometry": {
        "type": "Polygon",
        "coordinates": [
          [
            [
              12069.0,
              14890.0
            ],
            [
              12378.0,
              14890.0
            ],
            [
              12378.0,
              15127.0
            ],
            [
              12069.0,
              15127.0
            ],
            [
              12069.0,
              14890.0
            ]
          ]
        ]
      },
      "properties": {
        "objectType": "annotation",
        "classification": {
          "name": "A | Ulcer/ erosion",
          "color": [
            255,
            0,
            0
          ]
        },
        "case_key": "2346045_2",
        "source": "A",
        "orig_class": "Ulcer/ erosion",
        "match": {
          "status": "unmatched"
        }
      }
    },
    {
      "type": "Feature",
      "id": "5def944b-d7f3-4677-8812-4882d70b5937",
      "geometry": {
        "type": "Polygon",
        "coordinates": [
          [
            [
              11743.0,
              14554.0
            ],
            [
              11948.0,
              14554.0
            ],
            [
              11948.0,
              14730.0
            ],
            [
              11743.0,
              14730.0
            ],
            [
              11743.0,
              14554.0
            ]
          ]
        ]
      },
      "properties": {
        "objectType": "annotation",
        "classification": {
          "name": "A | Ulcer/ erosion",
          "color": [
            255,
            0,
            0
          ]
        },
        "case_key": "2346045_2",
        "source": "A",
        "orig_class": "Ulcer/ erosion",
        "match": {
          "status": "unmatched"
        }
      }
    },
    {
      "type": "Feature",
      "id": "cfecf301-2692-4a8b-aef9-45e99946dd07",
      "geometry": {
        "type": "Polygon",
        "coordinates": [
          [
            [
              11916.0,
              14248.0
            ],
            [
              12153.0,
              14248.0
            ],
            [
              12153.0,
              14512.0
            ],
            [
              11916.0,
              14512.0
            ],
            [
              11916.0,
              14248.0
            ]
          ]
        ]
      },
      "properties": {
        "objectType": "annotation",
        "classification": {
          "name": "A | Ulcer/ erosion",
          "color": [
            255,
            0,
            0
          ]
        },
        "case_key": "2346045_2",
        "source": "A",
        "orig_class": "Ulcer/ erosion",
        "match": {
          "status": "unmatched"
        }
      }
    },
    {
      "type": "Feature",
      "id": "8cb072d1-888b-4e2c-a103-6ecaa500ae70",
      "geometry": {
        "type": "Polygon",
        "coordinates": [
          [
            [
              10926.0,
              3188.0
            ],
            [
              11191.0,
              3188.0
            ],
            [
              11191.0,
              3501.0
            ],
            [
              10926.0,
              3501.0
            ],
            [
              10926.0,
              3188.0
            ]
          ]
        ]
      },
      "properties": {
        "objectType": "annotation",
        "classification": {
          "name": "A | Ulcer/ erosion",
          "color": [
            255,
            0,
            0
          ]
        },
        "case_key": "2346045_2",
        "source": "A",
        "orig_class": "Ulcer/ erosion",
        "match": {
          "status": "unmatched"
        }
      }
    },
    {
      "type": "Feature",
      "id": "a98e8876-43b0-4211-aa9d-b55065a5d69e",
      "geometry": {
        "type": "Polygon",
        "coordinates": [
          [
            [
              10453.0,
              13706.0
            ],
            [
              11151.0,
              13706.0
            ],
            [
              11151.0,
              14329.0
            ],
            [
              10453.0,
              14329.0
            ],
            [
              10453.0,
              13706.0
            ]
          ]
        ]
      },
      "properties": {
        "objectType": "annotation",
        "classification": {
          "name": "A | Moderate to marked mononuclear cell infiltrate",
          "color": [
            21,
            11,
            49
          ]
        },
        "case_key": "2346045_2",
        "source": "A",
        "orig_class": "Moderate to marked mononuclear cell infiltrate",
        "match": {
          "status": "unmatched"
        }
      }
    },
    {
      "type": "Feature",
      "id": "0aa3e920-d926-461e-8869-940cdaaa4c81",
      "geometry": {
        "type": "Polygon",
        "coordinates": [
          [
            [
              11398.0,
              13609.0
            ],
            [
              12312.0,
              13609.0
            ],
            [
              12312.0,
              14168.0
            ],
            [
              11398.0,
              14168.0
            ],
            [
              11398.0,
              13609.0
            ]
          ]
        ]
      },
      "properties": {
        "objectType": "annotation",
        "classification": {
          "name": "A | Moderate to marked mononuclear cell infiltrate",
          "color": [
            21,
            11,
            49
          ]
        },
        "case_key": "2346045_2",
        "source": "A",
        "orig_class": "Moderate to marked mononuclear cell infiltrate",
        "match": {
          "status": "unmatched"
        }
      }
    },
    {
      "type": "Feature",
      "id": "32f5a41d-ac54-46ed-929a-975f4dd559cf",
      "geometry": {
        "type": "Polygon",
        "coordinates": [
          [
            [
              12473.0,
              13426.0
            ],
            [
              13236.0,
              13426.0
            ],
            [
              13236.0,
              14039.0
            ],
            [
              12473.0,
              14039.0
            ],
            [
              12473.0,
              13426.0
            ]
          ]
        ]
      },
      "properties": {
        "objectType": "annotation",
        "classification": {
          "name": "A | Moderate to marked mononuclear cell infiltrate",
          "color": [
            21,
            11,
            49
          ]
        },
        "case_key": "2346045_2",
        "source": "A",
        "orig_class": "Moderate to marked mononuclear cell infiltrate",
        "match": {
          "status": "unmatched"
        }
      }
    },
    {
      "type": "Feature",
      "id": "67d0d015-b9f2-4422-a244-5ddb6c50134c",
      "geometry": {
        "type": "Polygon",
        "coordinates": [
          [
            [
              10023.0,
              6850.0
            ],
            [
              10517.0,
              6850.0
            ],
            [
              10517.0,
              7967.0
            ],
            [
              10023.0,
              7967.0
            ],
            [
              10023.0,
              6850.0
            ]
          ]
        ]
      },
      "properties": {
        "objectType": "annotation",
        "classification": {
          "name": "A | Moderate to marked mononuclear cell infiltrate",
          "color": [
            21,
            11,
            49
          ]
        },
        "case_key": "2346045_2",
        "source": "A",
        "orig_class": "Moderate to marked mononuclear cell infiltrate",
        "match": {
          "status": "unmatched"
        }
      }
    },
    {
      "type": "Feature",
      "id": "940927e1-1fac-47ff-b2dd-8d05b03d7329",
      "geometry": {
        "type": "Polygon",
        "coordinates": [
          [
            [
              5939.0,
              5377.0
            ],
            [
              6928.0,
              5377.0
            ],
            [
              6928.0,
              5786.0
            ],
            [
              5939.0,
              5786.0
            ],
            [
              5939.0,
              5377.0
            ]
          ]
        ]
      },
      "properties": {
        "objectType": "annotation",
        "classification": {
          "name": "A | Moderate to marked mononuclear cell infiltrate",
          "color": [
            21,
            11,
            49
          ]
        },
        "case_key": "2346045_2",
        "source": "A",
        "orig_class": "Moderate to marked mononuclear cell infiltrate",
        "match": {
          "status": "unmatched"
        }
      }
    },
    {
      "type": "Feature",
      "id": "14b09924-b0e4-4037-a990-0f1422994906",
      "geometry": {
        "type": "Polygon",
        "coordinates": [
          [
            [
              6466.0,
              2787.0
            ],
            [
              7379.0,
              2787.0
            ],
            [
              7379.0,
              3335.0
            ],
            [
              6466.0,
              3335.0
            ],
            [
              6466.0,
              2787.0
            ]
          ]
        ]
      },
      "properties": {
        "objectType": "annotation",
        "classification": {
          "name": "A | Moderate to marked mononuclear cell infiltrate",
          "color": [
            21,
            11,
            49
          ]
        },
        "case_key": "2346045_2",
        "source": "A",
        "orig_class": "Moderate to marked mononuclear cell infiltrate",
        "match": {
          "status": "unmatched"
        }
      }
    },
    {
      "type": "Feature",
      "id": "f124b8c1-2815-40a8-bfd1-e8acfd82d9d9",
      "geometry": {
        "type": "Polygon",
        "coordinates": [
          [
            [
              9464.0,
              1573.0
            ],
            [
              10582.0,
              1573.0
            ],
            [
              10582.0,
              2422.0
            ],
            [
              9464.0,
              2422.0
            ],
            [
              9464.0,
              1573.0
            ]
          ]
        ]
      },
      "properties": {
        "objectType": "annotation",
        "classification": {
          "name": "A | Moderate to marked mononuclear cell infiltrate",
          "color": [
            21,
            11,
            49
          ]
        },
        "case_key": "2346045_2",
        "source": "A",
        "orig_class": "Moderate to marked mononuclear cell infiltrate",
        "match": {
          "status": "unmatched"
        }
      }
    },
    {
      "type": "Feature",
      "id": "19db0e06-f6ce-4ff5-b008-1d1ffd0c9817",
      "geometry": {
        "type": "Polygon",
        "coordinates": [
          [
            [
              6530.0,
              4281.0
            ],
            [
              7508.0,
              4281.0
            ],
            [
              7508.0,
              4775.0
            ],
            [
              6530.0,
              4775.0
            ],
            [
              6530.0,
              4281.0
            ]
          ]
        ]
      },
      "properties": {
        "objectType": "annotation",
        "classification": {
          "name": "A | Moderate to marked mononuclear cell infiltrate",
          "color": [
            21,
            11,
            49
          ]
        },
        "case_key": "2346045_2",
        "source": "A",
        "orig_class": "Moderate to marked mononuclear cell infiltrate",
        "match": {
          "status": "unmatched"
        }
      }
    },
    {
      "type": "Feature",
      "id": "b012e87b-1ec8-454f-be5d-b01d0ac1d3ea",
      "geometry": {
        "type": "Polygon",
        "coordinates": [
          [
            [
              7777.0,
              4292.0
            ],
            [
              9335.0,
              4292.0
            ],
            [
              9335.0,
              5807.0
            ],
            [
              7777.0,
              5807.0
            ],
            [
              7777.0,
              4292.0
            ]
          ]
        ]
      },
      "properties": {
        "objectType": "annotation",
        "classification": {
          "name": "A | Moderate to marked mononuclear cell infiltrate",
          "color": [
            21,
            11,
            49
          ]
        },
        "case_key": "2346045_2",
        "source": "A",
        "orig_class": "Moderate to marked mononuclear cell infiltrate",
        "match": {
          "status": "unmatched"
        }
      }
    },
    {
      "type": "Feature",
      "id": "d6065c43-3525-4bbd-9bdb-614efbbc4b01",
      "geometry": {
        "type": "Polygon",
        "coordinates": [
          [
            [
              8851.0,
              6785.0
            ],
            [
              9657.0,
              6785.0
            ],
            [
              9657.0,
              7946.0
            ],
            [
              8851.0,
              7946.0
            ],
            [
              8851.0,
              6785.0
            ]
          ]
        ]
      },
      "properties": {
        "objectType": "annotation",
        "classification": {
          "name": "A | No/ mild mononuclear cell infiltrate",
          "color": [
            185,
            185,
            116
          ]
        },
        "case_key": "2346045_2",
        "source": "A",
        "orig_class": "No/ mild mononuclear cell infiltrate",
        "match": {
          "status": "unmatched"
        }
      }
    },
    {
      "type": "Feature",
      "id": "372bc93f-3976-46c3-91c2-325a9d2ca473",
      "geometry": {
        "type": "Polygon",
        "coordinates": [
          [
            [
              9335.0,
              2648.0
            ],
            [
              9829.0,
              2648.0
            ],
            [
              9829.0,
              3088.0
            ],
            [
              9335.0,
              3088.0
            ],
            [
              9335.0,
              2648.0
            ]
          ]
        ]
      },
      "properties": {
        "objectType": "annotation",
        "classification": {
          "name": "A | No/ mild mononuclear cell infiltrate",
          "color": [
            185,
            185,
            116
          ]
        },
        "case_key": "2346045_2",
        "source": "A",
        "orig_class": "No/ mild mononuclear cell infiltrate",
        "match": {
          "status": "unmatched"
        }
      }
    },
    {
      "type": "Feature",
      "id": "4f47b7f5-1dc9-43b0-88bf-c9bff2ad8578",
      "geometry": {
        "type": "Polygon",
        "coordinates": [
          [
            [
              7659.0,
              1799.0
            ],
            [
              8196.0,
              1799.0
            ],
            [
              8196.0,
              2239.0
            ],
            [
              7659.0,
              2239.0
            ],
            [
              7659.0,
              1799.0
            ]
          ]
        ]
      },
      "properties": {
        "objectType": "annotation",
        "classification": {
          "name": "A | No/ mild mononuclear cell infiltrate",
          "color": [
            185,
            185,
            116
          ]
        },
        "case_key": "2346045_2",
        "source": "A",
        "orig_class": "No/ mild mononuclear cell infiltrate",
        "match": {
          "status": "unmatched"
        }
      }
    },
    {
      "type": "Feature",
      "id": "ae600895-077b-4d0e-8fa5-5a8a4f5811c8",
      "geometry": {
        "type": "Polygon",
        "coordinates": [
          [
            [
              7465.0,
              1680.0
            ],
            [
              10410.0,
              1680.0
            ],
            [
              10410.0,
              4743.0
            ],
            [
              7465.0,
              4743.0
            ],
            [
              7465.0,
              1680.0
            ]
          ]
        ]
      },
      "properties": {
        "objectType": "annotation",
        "classification": {
          "name": "A | Marked (>50%) crypt distortion",
          "color": [
            0,
            51,
            0
          ]
        },
        "case_key": "2346045_2",
        "source": "A",
        "orig_class": "Marked (>50%) crypt distortion",
        "match": {
          "status": "unmatched"
        }
      }
    },
    {
      "type": "Feature",
      "id": "9a02c49d-8bdf-46e5-84c9-39537cad7491",
      "geometry": {
        "type": "Polygon",
        "coordinates": [
          [
            [
              5918.0,
              3325.0
            ],
            [
              8002.0,
              3325.0
            ],
            [
              8002.0,
              5958.0
            ],
            [
              5918.0,
              5958.0
            ],
            [
              5918.0,
              3325.0
            ]
          ]
        ]
      },
      "properties": {
        "objectType": "annotation",
        "classification": {
          "name": "A | Marked (>50%) crypt distortion",
          "color": [
            0,
            51,
            0
          ]
        },
        "case_key": "2346045_2",
        "source": "A",
        "orig_class": "Marked (>50%) crypt distortion",
        "match": {
          "status": "unmatched"
        }
      }
    },
    {
      "type": "Feature",
      "id": "d8532cf9-db9f-45eb-ae5b-d0ebc2068712",
      "geometry": {
        "type": "Polygon",
        "coordinates": [
          [
            [
              8841.0,
              13256.0
            ],
            [
              12398.0,
              13256.0
            ],
            [
              12398.0,
              14921.0
            ],
            [
              8841.0,
              14921.0
            ],
            [
              8841.0,
              13256.0
            ]
          ]
        ]
      },
      "properties": {
        "objectType": "annotation",
        "classification": {
          "name": "A | Marked (>50%) crypt distortion",
          "color": [
            0,
            51,
            0
          ]
        },
        "case_key": "2346045_2",
        "source": "A",
        "orig_class": "Marked (>50%) crypt distortion",
        "match": {
          "status": "unmatched"
        }
      }
    },
    {
      "type": "Feature",
      "id": "eda1c4ed-86c4-421f-b47a-a5a15cf5bbd1",
      "geometry": {
        "type": "Polygon",
        "coordinates": [
          [
            [
              10675.0,
              6426.0
            ],
            [
              10844.0,
              6426.0
            ],
            [
              10844.0,
              6859.0
            ],
            [
              10675.0,
              6859.0
            ],
            [
              10675.0,
              6426.0
            ]
          ]
        ]
      },
      "properties": {
        "objectType": "annotation",
        "classification": {
          "name": "A | Ulcer/ erosion",
          "color": [
            255,
            0,
            0
          ]
        },
        "case_key": "2346045_2",
        "source": "A",
        "orig_class": "Ulcer/ erosion",
        "match": {
          "status": "unmatched"
        }
      }
    },
    {
      "type": "Feature",
      "id": "10431a9d-dd01-4a00-8172-90d0f5bf0ebc",
      "geometry": {
        "type": "Polygon",
        "coordinates": [
          [
            [
              38310.0,
              10392.0
            ],
            [
              38310.0,
              11886.0
            ],
            [
              42590.0,
              11886.0
            ],
            [
              42590.0,
              10392.0
            ],
            [
              38310.0,
              10392.0
            ]
          ]
        ]
      },
      "properties": {
        "objectType": "annotation",
        "case_key": "2346045_2",
        "source": "C",
        "orig_class": "unknown",
        "classification": {
          "name": "C | unknown"
        },
        "match": {
          "status": "unmatched"
        }
      }
    },
    {
      "type": "Feature",
      "id": "b425c2c2-b331-4f5c-b146-98fb7804e534",
      "geometry": {
        "type": "Polygon",
        "coordinates": [
          [
            [
              36492.0,
              11140.0
            ],
            [
              36492.0,
              18942.0
            ],
            [
              38143.0,
              18942.0
            ],
            [
              38143.0,
              11140.0
            ],
            [
              36492.0,
              11140.0
            ]
          ]
        ]
      },
      "properties": {
        "objectType": "annotation",
        "classification": {
          "name": "C | Ulcer/ erosions",
          "color": [
            255,
            0,
            0
          ]
        },
        "case_key": "2346045_2",
        "source": "C",
        "orig_class": "Ulcer/ erosions",
        "match": {
          "status": "unmatched"
        }
      }
    },
    {
      "type": "Feature",
      "id": "2f230092-d889-4dd9-9f7e-20062ff7f316",
      "geometry": {
        "type": "Polygon",
        "coordinates": [
          [
            [
              37318.0,
              18989.0
            ],
            [
              37318.0,
              24078.0
            ],
            [
              39262.0,
              24078.0
            ],
            [
              39262.0,
              18989.0
            ],
            [
              37318.0,
              18989.0
            ]
          ]
        ]
      },
      "properties": {
        "objectType": "annotation",
        "case_key": "2346045_2",
        "source": "C",
        "orig_class": "unknown",
        "classification": {
          "name": "C | unknown"
        },
        "match": {
          "status": "unmatched"
        }
      }
    },
    {
      "type": "Feature",
      "id": "87a0323f-0a43-47d3-8ca8-b6f78bc8ab81",
      "geometry": {
        "type": "Polygon",
        "coordinates": [
          [
            [
              40758.0,
              11935.0
            ],
            [
              40758.0,
              16245.0
            ],
            [
              42288.0,
              16245.0
            ],
            [
              42288.0,
              11935.0
            ],
            [
              40758.0,
              11935.0
            ]
          ]
        ]
      },
      "properties": {
        "objectType": "annotation",
        "classification": {
          "name": "C | Ulcer/ erosions",
          "color": [
            255,
            0,
            0
          ]
        },
        "case_key": "2346045_2",
        "source": "C",
        "orig_class": "Ulcer/ erosions",
        "match": {
          "status": "unmatched"
        }
      }
    },
    {
      "type": "Feature",
      "id": "f3ae6d8a-634f-40dd-9bd6-87cc26b68ec9",
      "geometry": {
        "type": "Polygon",
        "coordinates": [
          [
            [
              41042.0,
              16269.0
            ],
            [
              41042.0,
              21060.0
            ],
            [
              43312.0,
              21060.0
            ],
            [
              43312.0,
              16269.0
            ],
            [
              41042.0,
              16269.0
            ]
          ]
        ]
      },
      "properties": {
        "objectType": "annotation",
        "case_key": "2346045_2",
        "source": "C",
        "orig_class": "unknown",
        "classification": {
          "name": "C | unknown"
        },
        "match": {
          "status": "unmatched"
        }
      }
    },
    {
      "type": "Feature",
      "id": "12cc278a-91f5-461e-bd30-4d4ff82ed2cc",
      "geometry": {
        "type": "Polygon",
        "coordinates": [
          [
            [
              39449.0,
              23853.0
            ],
            [
              39449.0,
              25593.0
            ],
            [
              45867.0,
              25593.0
            ],
            [
              45867.0,
              23853.0
            ],
            [
              39449.0,
              23853.0
            ]
          ]
        ]
      },
      "properties": {
        "objectType": "annotation",
        "case_key": "2346045_2",
        "source": "C",
        "orig_class": "unknown",
        "classification": {
          "name": "C | unknown"
        },
        "match": {
          "status": "unmatched"
        }
      }
    },
    {
      "type": "Feature",
      "id": "3511344c-d15e-4b6b-bd03-ae6a1b1884c9",
      "geometry": {
        "type": "Polygon",
        "coordinates": [
          [
            [
              38189.0,
              11922.0
            ],
            [
              38189.0,
              15179.0
            ],
            [
              40758.0,
              15179.0
            ],
            [
              40758.0,
              11922.0
            ],
            [
              38189.0,
              11922.0
            ]
          ]
        ]
      },
      "properties": {
        "objectType": "annotation",
        "classification": {
          "name": "C | No ulcer/ moderate to severe activity",
          "color": [
            128,
            0,
            0
          ]
        },
        "case_key": "2346045_2",
        "source": "C",
        "orig_class": "No ulcer/ moderate to severe activity",
        "match": {
          "status": "unmatched"
        }
      }
    },
    {
      "type": "Feature",
      "id": "be658c37-95bb-4c67-b848-98f155500fef",
      "geometry": {
        "type": "Polygon",
        "coordinates": [
          [
            [
              38751.0,
              21478.0
            ],
            [
              38751.0,
              23522.0
            ],
            [
              40315.0,
              23522.0
            ],
            [
              40315.0,
              21478.0
            ],
            [
              38751.0,
              21478.0
            ]
          ]
        ]
      },
      "properties": {
        "objectType": "annotation",
        "classification": {
          "name": "C | Basal lymphoid aggregates",
          "color": [
            0,
            0,
            255
          ]
        },
        "case_key": "2346045_2",
        "source": "C",
        "orig_class": "Basal lymphoid aggregates",
        "match": {
          "status": "unmatched"
        }
      }
    },
    {
      "type": "Feature",
      "id": "d30e0550-1b49-4621-9e14-5ff0e3c14815",
      "geometry": {
        "type": "Polygon",
        "coordinates": [
          [
            [
              39792.0,
              20332.0
            ],
            [
              39792.0,
              21724.0
            ],
            [
              40909.0,
              21724.0
            ],
            [
              40909.0,
              20332.0
            ],
            [
              39792.0,
              20332.0
            ]
          ]
        ]
      },
      "properties": {
        "objectType": "annotation",
        "case_key": "2346045_2",
        "source": "C",
        "orig_class": "unknown",
        "classification": {
          "name": "C | unknown"
        },
        "match": {
          "status": "unmatched"
        }
      }
    },
    {
      "type": "Feature",
      "id": "656c4a18-21f3-4f1d-8515-747c83a8d0ae",
      "geometry": {
        "type": "Polygon",
        "coordinates": [
          [
            [
              39403.0,
              18129.0
            ],
            [
              39403.0,
              19872.0
            ],
            [
              40612.0,
              19872.0
            ],
            [
              40612.0,
              18129.0
            ],
            [
              39403.0,
              18129.0
            ]
          ]
        ]
      },
      "properties": {
        "objectType": "annotation",
        "classification": {
          "name": "C | Basal lymphoid aggregates",
          "color": [
            0,
            0,
            255
          ]
        },
        "case_key": "2346045_2",
        "source": "C",
        "orig_class": "Basal lymphoid aggregates",
        "match": {
          "status": "unmatched"
        }
      }
    },
    {
      "type": "Feature",
      "id": "b7d1208d-5c2d-4755-83d8-555d53445997",
      "geometry": {
        "type": "Polygon",
        "coordinates": [
          [
            [
              38804.0,
              14271.0
            ],
            [
              38804.0,
              18180.0
            ],
            [
              39931.0,
              18180.0
            ],
            [
              39931.0,
              14271.0
            ],
            [
              38804.0,
              14271.0
            ]
          ]
        ]
      },
      "properties": {
        "objectType": "annotation",
        "classification": {
          "name": "C | Basal plasmacytosis",
          "color": [
            202,
            65,
            86
          ]
        },
        "case_key": "2346045_2",
        "source": "C",
        "orig_class": "Basal plasmacytosis",
        "match": {
          "status": "unmatched"
        }
      }
    },
    {
      "type": "Feature",
      "id": "7ac204ca-563f-4778-95c2-5386ab851ae8",
      "geometry": {
        "type": "Polygon",
        "coordinates": [
          [
            [
              40370.0,
              18308.0
            ],
            [
              40370.0,
              21278.0
            ],
            [
              41288.0,
              21278.0
            ],
            [
              41288.0,
              18308.0
            ],
            [
              40370.0,
              18308.0
            ]
          ]
        ]
      },
      "properties": {
        "objectType": "annotation",
        "classification": {
          "name": "C | Basal plasmacytosis",
          "color": [
            202,
            65,
            86
          ]
        },
        "case_key": "2346045_2",
        "source": "C",
        "orig_class": "Basal plasmacytosis",
        "match": {
          "status": "unmatched"
        }
      }
    },
    {
      "type": "Feature",
      "id": "ad2e76a2-494a-4a5e-9cb7-b601468df3ae",
      "geometry": {
        "type": "Polygon",
        "coordinates": [
          [
            [
              40368.0,
              21230.0
            ],
            [
              40368.0,
              23872.0
            ],
            [
              42991.0,
              23872.0
            ],
            [
              42991.0,
              21230.0
            ],
            [
              40368.0,
              21230.0
            ]
          ]
        ]
      },
      "properties": {
        "objectType": "annotation",
        "classification": {
          "name": "C | No ulcer/ moderate to severe activity",
          "color": [
            128,
            0,
            0
          ]
        },
        "case_key": "2346045_2",
        "source": "C",
        "orig_class": "No ulcer/ moderate to severe activity",
        "match": {
          "status": "unmatched"
        }
      }
    },
    {
      "type": "Feature",
      "id": "6ff690da-8481-474f-9186-855ec5ee3677",
      "geometry": {
        "type": "Polygon",
        "coordinates": [
          [
            [
              38150.0,
              15193.0
            ],
            [
              38150.0,
              18886.0
            ],
            [
              38844.0,
              18886.0
            ],
            [
              38844.0,
              15193.0
            ],
            [
              38150.0,
              15193.0
            ]
          ]
        ]
      },
      "properties": {
        "objectType": "annotation",
        "classification": {
          "name": "C | Ulcer/ erosions",
          "color": [
            255,
            0,
            0
          ]
        },
        "case_key": "2346045_2",
        "source": "C",
        "orig_class": "Ulcer/ erosions",
        "match": {
          "status": "unmatched"
        }
      }
    },
    {
      "type": "Feature",
      "id": "034fc020-5f1e-494d-bdb7-b9e1a07d6095",
      "geometry": {
        "type": "Polygon",
        "coordinates": [
          [
            [
              39967.0,
              15188.0
            ],
            [
              39967.0,
              18414.0
            ],
            [
              41071.0,
              18414.0
            ],
            [
              41071.0,
              15188.0
            ],
            [
              39967.0,
              15188.0
            ]
          ]
        ]
      },
      "properties": {
        "objectType": "annotation",
        "classification": {
          "name": "C | No ulcer/ moderate to severe activity",
          "color": [
            128,
            0,
            0
          ]
        },
        "case_key": "2346045_2",
        "source": "C",
        "orig_class": "No ulcer/ moderate to severe activity",
        "match": {
          "status": "unmatched"
        }
      }
    },
    {
      "type": "Feature",
      "id": "934eceeb-5d3a-46c1-8502-607f6eaf9350",
      "geometry": {
        "type": "Polygon",
        "coordinates": [
          [
            [
              43062.0,
              21960.0
            ],
            [
              43062.0,
              23829.0
            ],
            [
              45406.0,
              23829.0
            ],
            [
              45406.0,
              21960.0
            ],
            [
              43062.0,
              21960.0
            ]
          ]
        ]
      },
      "properties": {
        "objectType": "annotation",
        "classification": {
          "name": "C | Ulcer/ erosions",
          "color": [
            255,
            0,
            0
          ]
        },
        "case_key": "2346045_2",
        "source": "C",
        "orig_class": "Ulcer/ erosions",
        "match": {
          "status": "unmatched"
        }
      }
    },
    {
      "type": "Feature",
      "id": "af08e451-d8b6-4207-9d4b-de5092148085",
      "geometry": {
        "type": "Polygon",
        "coordinates": [
          [
            [
              39295.0,
              19826.0
            ],
            [
              39295.0,
              21460.0
            ],
            [
              40407.0,
              21460.0
            ],
            [
              40407.0,
              19826.0
            ],
            [
              39295.0,
              19826.0
            ]
          ]
        ]
      },
      "properties": {
        "objectType": "annotation",
        "classification": {
          "name": "C | Ulcer/ erosions",
          "color": [
            255,
            0,
            0
          ]
        },
        "case_key": "2346045_2",
        "source": "C",
        "orig_class": "Ulcer/ erosions",
        "match": {
          "status": "unmatched"
        }
      }
    },
    {
      "type": "Feature",
      "id": "049f0dd0-c624-4a89-a854-09dee4193da9",
      "geometry": {
        "type": "Polygon",
        "coordinates": [
          [
            [
              39257.0,
              23551.0
            ],
            [
              39257.0,
              23834.0
            ],
            [
              40410.0,
              23834.0
            ],
            [
              40410.0,
              23551.0
            ],
            [
              39257.0,
              23551.0
            ]
          ]
        ]
      },
      "properties": {
        "objectType": "annotation",
        "case_key": "2346045_2",
        "source": "C",
        "orig_class": "unknown",
        "classification": {
          "name": "C | unknown"
        },
        "match": {
          "status": "unmatched"
        }
      }
    },
    {
      "type": "Feature",
      "id": "5860d87f-43ac-46c9-92f6-3b8f0fee8cb7",
      "geometry": {
        "type": "Polygon",
        "coordinates": [
          [
            [
              36245.0,
              10249.0
            ],
            [
              36245.0,
              25452.0
            ],
            [
              45634.0,
              25452.0
            ],
            [
              45634.0,
              10249.0
            ],
            [
              36245.0,
              10249.0
            ]
          ]
        ]
      },
      "properties": {
        "objectType": "annotation",
        "case_key": "2346045_2",
        "source": "C",
        "orig_class": "unknown",
        "classification": {
          "name": "C | unknown"
        },
        "match": {
          "status": "unmatched"
        }
      }
    }
  ]
}