{
  "type": "FeatureCollection",
  "features": [
    {
      "type": "Feature",
      "id": "54fe4adc-a9a7-4691-a580-981bb88b70da",
      "geometry": {
        "type": "Polygon",
        "coordinates": [
          [
            [
              29298.0,
              11831.0
            ],
            [
              30011.0,
              11831.0
            ],
            [
              30011.0,
              12175.0
            ],
            [
              29298.0,
              12175.0
            ],
            [
              29298.0,
              11831.0
            ]
          ]
        ]
      },
      "properties": {
        "objectType": "annotation",
        "classification": {
          "name": "A | Ulcer/ erosion",
          "color": [
            255,
            0,
            0
          ]
        },
        "case_key": "S2402511",
        "source": "A",
        "orig_class": "Ulcer/ erosion",
        "match": {
          "status": "component_tp",
          "component_id": "Ulcer/ erosion:comp_2",
          "class": "Ulcer/ erosion",
          "nA": 1,
          "nB": 1,
          "cas_union": 0.8746162891279621,
          "oc_union": 0.8829611248966087,
          "ar_union": 1.3173493173493174,
          "area_a_union": 245272.0,
          "area_b_union": 186186.0,
          "area_intersection_union": 164395.0
        }
      }
    },
    {
      "type": "Feature",
      "id": "549ee80c-337d-4af0-9580-d3f4cdf558b6",
      "geometry": {
        "type": "Polygon",
        "coordinates": [
          [
            [
              29672.0,
              6567.0
            ],
            [
              30341.0,
              6567.0
            ],
            [
              30341.0,
              7153.0
            ],
            [
              29672.0,
              7153.0
            ],
            [
              29672.0,
              6567.0
            ]
          ]
        ]
      },
      "properties": {
        "objectType": "annotation",
        "classification": {
          "name": "A | Moderate to marked mononuclear cell infiltrate",
          "color": [
            21,
            11,
            49
          ]
        },
        "case_key": "S2402511",
        "source": "A",
        "orig_class": "Moderate to marked mononuclear cell infiltrate",
        "match": {
          "status": "component_tp",
          "component_id": "Moderate to marked mononuclear cell infiltrate:comp_0",
          "class": "Moderate to marked mononuclear cell infiltrate",
          "nA": 1,
          "nB": 1,
          "cas_union": 0.7344054478428992,
          "oc_union": 0.7679180887372014,
          "ar_union": 1.817520929307152,
          "area_a_union": 392034.0,
          "area_b_union": 712530.0,
          "area_intersection_union": 301050.0
        }
      }
    },
    {
      "type": "Feature",
      "id": "dce694fe-fbbf-4b7a-a36c-36eefa761296",
      "geometry": {
        "type": "Polygon",
        "coordinates": [
          [
            [
              29890.0,
              5277.0
            ],
            [
              30384.0,
              5277.0
            ],
            [
              30384.0,
              5607.0
            ],
            [
              29890.0,
              5607.0
            ],
            [
              29890.0,
              5277.0
            ]
          ]
        ]
      },
      "properties": {
        "objectType": "annotation",
        "classification": {
          "name": "A | Moderate to marked mononuclear cell infiltrate",
          "color": [
            21,
            11,
            49
          ]
        },
        "case_key": "S2402511",
        "source": "A",
        "orig_class": "Moderate to marked mononuclear cell infiltrate",
        "match": {
          "status": "component_tp",
          "component_id": "Moderate to marked mononuclear cell infiltrate:comp_4",
          "class": "Moderate to marked mononuclear cell infiltrate",
          "nA": 1,
          "nB": 1,
          "cas_union": 0.7672804838143717,
          "oc_union": 0.8068212489265121,
          "ar_union": 1.8851981351981353,
          "area_a_union": 163020.0,
          "area_b_union": 307325.0,
          "area_intersection_union": 131528.0
        }
      }
    },
    {
      "type": "Feature",
      "id": "c0af6251-1fc5-4cb4-acf0-e3d0af160d0a",
      "geometry": {
        "type": "Polygon",
        "coordinates": [
          [
            [
              28881.0,
              4972.0
            ],
            [
              29192.0,
              4972.0
            ],
            [
              29192.0,
              5418.0
            ],
            [
              28881.0,
              5418.0
            ],
            [
              28881.0,
              4972.0
            ]
          ]
        ]
      },
      "properties": {
        "objectType": "annotation",
        "classification": {
          "name": "A | Moderate to marked mononuclear cell infiltrate",
          "color": [
            21,
            11,
            49
          ]
        },
        "case_key": "S2402511",
        "source": "A",
        "orig_class": "Moderate to marked mononuclear cell infiltrate",
        "match": {
          "status": "component_tp",
          "component_id": "Moderate to marked mononuclear cell infiltrate:comp_6",
          "class": "Moderate to marked mononuclear cell infiltrate",
          "nA": 1,
          "nB": 1,
          "cas_union": 0.9825713787480093,
          "oc_union": 1.0,
          "ar_union": 1.4550560177641918,
          "area_a_union": 138706.0,
          "area_b_union": 201825.0,
          "area_intersection_union": 138706.0
        }
      }
    },
    {
      "type": "Feature",
      "id": "72a76455-96d8-4c87-915f-94b094af1760",
      "geometry": {
        "type": "Polygon",
        "coordinates": [
          [
            [
              28120.0,
              5888.0
            ],
            [
              28513.0,
              5888.0
            ],
            [
              28513.0,
              6257.0
            ],
            [
              28120.0,
              6257.0
            ],
            [
              28120.0,
              5888.0
            ]
          ]
        ]
      },
      "properties": {
        "objectType": "annotation",
        "classification": {
          "name": "A | No/ mild mononuclear cell infiltrate",
          "color": [
            185,
            185,
            116
          ]
        },
        "case_key": "S2402511",
        "source": "A",
        "orig_class": "No/ mild mononuclear cell infiltrate",
        "match": {
          "status": "component_tp",
          "component_id": "No/ mild mononuclear cell infiltrate:comp_0",
          "class": "No/ mild mononuclear cell infiltrate",
          "nA": 1,
          "nB": 1,
          "cas_union": 0.4454169435942357,
          "oc_union": 0.5623409669211196,
          "ar_union": 3.9179544467200396,
          "area_a_union": 145017.0,
          "area_b_union": 568170.0,
          "area_intersection_union": 81549.0
        }
      }
    },
    {
      "type": "Feature",
      "id": "5011b481-7738-47dc-aae0-f5164f17e256",
      "geometry": {
        "type": "Polygon",
        "coordinates": [
          [
            [
              27690.0,
              12070.0
            ],
            [
              27921.0,
              12070.0
            ],
            [
              27921.0,
              12301.0
            ],
            [
              27690.0,
              12301.0
            ],
            [
              27690.0,
              12070.0
            ]
          ]
        ]
      },
      "properties": {
        "objectType": "annotation",
        "classification": {
          "name": "A | No/ mild mononuclear cell infiltrate",
          "color": [
            185,
            185,
            116
          ]
        },
        "case_key": "S2402511",
        "source": "A",
        "orig_class": "No/ mild mononuclear cell infiltrate",
        "match": {
          "status": "component_tp",
          "component_id": "No/ mild mononuclear cell infiltrate:comp_4",
          "class": "No/ mild mononuclear cell infiltrate",
          "nA": 1,
          "nB": 1,
          "cas_union": 0.7282120802699005,
          "oc_union": 0.9134199134199135,
          "ar_union": 3.8436123760799084,
          "area_a_union": 53361.0,
          "area_b_union": 205099.0,
          "area_intersection_union": 48741.0
        }
      }
    },
    {
      "type": "Feature",
      "id": "ee811050-10b0-47fa-87a9-74c129c7d97a",
      "geometry": {
        "type": "Polygon",
        "coordinates": [
          [
            [
              29263.0,
              13932.0
            ],
            [
              29610.0,
              13932.0
            ],
            [
              29610.0,
              14221.0
            ],
            [
              29263.0,
              14221.0
            ],
            [
              29263.0,
              13932.0
            ]
          ]
        ]
      },
      "properties": {
        "objectType": "annotation",
        "classification": {
          "name": "A | No/ mild mononuclear cell infiltrate",
          "color": [
            185,
            185,
            116
          ]
        },
        "case_key": "S2402511",
        "source": "A",
        "orig_class": "No/ mild mononuclear cell infiltrate",
        "match": {
          "status": "component_tp",
          "component_id": "No/ mild mononuclear cell infiltrate:comp_5",
          "class": "No/ mild mononuclear cell infiltrate",
          "nA": 2,
          "nB": 1,
          "cas_union": 0.714713163345069,
          "oc_union": 0.8447977043469104,
          "ar_union": 3.179110960953714,
          "area_a_union": 227909.0,
          "area_b_union": 724548.0,
          "area_intersection_union": 192537.0
        }
      }
    },
    {
      "type": "Feature",
      "id": "cc29d574-f557-4b70-90b8-ef8069eda416",
      "geometry": {
        "type": "Polygon",
        "coordinates": [
          [
            [
              28426.0,
              13997.0
            ],
            [
              28960.0,
              13997.0
            ],
            [
              28960.0,
              14236.0
            ],
            [
              28426.0,
              14236.0
            ],
            [
              28426.0,
              13997.0
            ]
          ]
        ]
      },
      "properties": {
        "objectType": "annotation",
        "classification": {
          "name": "A | No/ mild mononuclear cell infiltrate",
          "color": [
            185,
            185,
            116
          ]
        },
        "case_key": "S2402511",
        "source": "A",
        "orig_class": "No/ mild mononuclear cell infiltrate",
        "match": {
          "status": "component_tp",
          "component_id": "No/ mild mononuclear cell infiltrate:comp_5",
          "class": "No/ mild mononuclear cell infiltrate",
          "nA": 2,
          "nB": 1,
          "cas_union": 0.714713163345069,
          "oc_union": 0.8447977043469104,
          "ar_union": 3.179110960953714,
          "area_a_union": 227909.0,
          "area_b_union": 724548.0,
          "area_intersection_union": 192537.0
        }
      }
    },
    {
      "type": "Feature",
      "id": "1611b1d5-21f1-42b0-b2df-32fdefdec2f5",
      "geometry": {
        "type": "Polygon",
        "coordinates": [
          [
            [
              27738.0,
              4225.0
            ],
            [
              31642.0,
              4225.0
            ],
            [
              31642.0,
              9585.0
            ],
            [
              27738.0,
              9585.0
            ],
            [
              27738.0,
              4225.0
            ]
          ]
        ]
      },
      "properties": {
        "objectType": "annotation",
        "classification": {
          "name": "A | Marked (>50%) crypt distortion",
          "color": [
            0,
            51,
            0
          ]
        },
        "case_key": "S2402511",
        "source": "A",
        "orig_class": "Marked (>50%) crypt distortion",
        "match": {
          "status": "component_tp",
          "component_id": "Marked (>50%) crypt distortion:comp_0",
          "class": "Marked (>50%) crypt distortion",
          "nA": 1,
          "nB": 1,
          "cas_union": 0.8668802422485646,
          "oc_union": 0.8680412371134021,
          "ar_union": 1.109018021627649,
          "area_a_union": 20925440.0,
          "area_b_union": 18868440.0,
          "area_intersection_union": 16378584.0
        }
      }
    },
    {
      "type": "Feature",
      "id": "47cfa817-8184-4202-8a12-e9bf1354b892",
      "geometry": {
        "type": "Polygon",
        "coordinates": [
          [
            [
              23706.0,
              10465.0
            ],
            [
              29690.0,
              10465.0
            ],
            [
              29690.0,
              14913.0
            ],
            [
              23706.0,
              14913.0
            ],
            [
              23706.0,
              10465.0
            ]
          ]
        ]
      },
      "properties": {
        "objectType": "annotation",
        "classification": {
          "name": "A | Marked (>50%) crypt distortion",
          "color": [
            0,
            51,
            0
          ]
        },
        "case_key": "S2402511",
        "source": "A",
        "orig_class": "Marked (>50%) crypt distortion",
        "match": {
          "status": "component_tp",
          "component_id": "Marked (>50%) crypt distortion:comp_1",
          "class": "Marked (>50%) crypt distortion",
          "nA": 1,
          "nB": 1,
          "cas_union": 0.7844514462127589,
          "oc_union": 1.0,
          "ar_union": 4.029392939518002,
          "area_a_union": 26616832.0,
          "area_b_union": 6605668.0,
          "area_intersection_union": 6605668.0
        }
      }
    },
    {
      "type": "Feature",
      "id": "b2ac14bf-d80c-4969-a0af-4f4e9b24a745",
      "geometry": {
        "type": "Polygon",
        "coordinates": [
          [
            [
              29738.0,
              11729.0
            ],
            [
              32554.0,
              11729.0
            ],
            [
              32554.0,
              17505.0
            ],
            [
              29738.0,
              17505.0
            ],
            [
              29738.0,
              11729.0
            ]
          ]
        ]
      },
      "properties": {
        "objectType": "annotation",
        "classification": {
          "name": "A | Marked (>50%) crypt distortion",
          "color": [
            0,
            51,
            0
          ]
        },
        "case_key": "S2402511",
        "source": "A",
        "orig_class": "Marked (>50%) crypt distortion",
        "match": {
          "status": "component_tp",
          "component_id": "Marked (>50%) crypt distortion:comp_2",
          "class": "Marked (>50%) crypt distortion",
          "nA": 1,
          "nB": 1,
          "cas_union": 0.825765069173173,
          "oc_union": 0.8482652182424137,
          "ar_union": 1.590025733442458,
          "area_a_union": 16265216.0,
          "area_b_union": 25862112.0,
          "area_intersection_union": 13797217.0
        }
      }
    },
    {
      "type": "Feature",
      "id": "bf762efe-1813-4bfd-b4bf-e0831a7c88dd",
      "geometry": {
        "type": "Polygon",
        "coordinates": [
          [
            [
              29624.0,
              12814.0
            ],
            [
              30778.0,
              12814.0
            ],
            [
              30778.0,
              13449.0
            ],
            [
              29624.0,
              13449.0
            ],
            [
              29624.0,
              12814.0
            ]
          ]
        ]
      },
      "properties": {
        "objectType": "annotation",
        "classification": {
          "name": "A | Basal lymphoid aggregates",
          "color": [
            0,
            0,
            255
          ]
        },
        "case_key": "S2402511",
        "source": "A",
        "orig_class": "Basal lymphoid aggregates",
        "match": {
          "status": "component_tp",
          "component_id": "Basal lymphoid aggregates:comp_0",
          "class": "Basal lymphoid aggregates",
          "nA": 1,
          "nB": 1,
          "cas_union": 0.804532779566114,
          "oc_union": 1.0,
          "ar_union": 3.739945696553977,
          "area_a_union": 732790.0,
          "area_b_union": 195936.0,
          "area_intersection_union": 195936.0
        }
      }
    },
    {
      "type": "Feature",
      "id": "150ecd24-72ab-42f8-a62e-a4cf3221424c",
      "geometry": {
        "type": "Polygon",
        "coordinates": [
          [
            [
              22778.0,
              7601.0
            ],
            [
              24234.0,
              7601.0
            ],
            [
              24234.0,
              9137.0
            ],
            [
              22778.0,
              9137.0
            ],
            [
              22778.0,
              7601.0
            ]
          ]
        ]
      },
      "properties": {
        "objectType": "annotation",
        "classification": {
          "name": "A | Basal lymphoid aggregates",
          "color": [
            0,
            0,
            255
          ]
        },
        "case_key": "S2402511",
        "source": "A",
        "orig_class": "Basal lymphoid aggregates",
        "match": {
          "status": "component_tp",
          "component_id": "Basal lymphoid aggregates:comp_1",
          "class": "Basal lymphoid aggregates",
          "nA": 1,
          "nB": 1,
          "cas_union": 0.7295045504787051,
          "oc_union": 1.0,
          "ar_union": 4.896067674012321,
          "area_a_union": 2236416.0,
          "area_b_union": 456778.0,
          "area_intersection_union": 456778.0
        }
      }
    },
    {
      "type": "Feature",
      "id": "f4d38764-99ee-46c2-a4a9-b3c8626cedda",
      "geometry": {
        "type": "Polygon",
        "coordinates": [
          [
            [
              26538.0,
              7041.0
            ],
            [
              27754.0,
              7041.0
            ],
            [
              27754.0,
              7713.0
            ],
            [
              26538.0,
              7713.0
            ],
            [
              26538.0,
              7041.0
            ]
          ]
        ]
      },
      "properties": {
        "objectType": "annotation",
        "classification": {
          "name": "A | Basal lymphoid aggregates",
          "color": [
            0,
            0,
            255
          ]
        },
        "case_key": "S2402511",
        "source": "A",
        "orig_class": "Basal lymphoid aggregates",
        "match": {
          "status": "component_tp",
          "component_id": "Basal lymphoid aggregates:comp_2",
          "class": "Basal lymphoid aggregates",
          "nA": 1,
          "nB": 1,
          "cas_union": 0.8278133848202214,
          "oc_union": 0.895774647887324,
          "ar_union": 2.2133044420368364,
          "area_a_union": 817152.0,
          "area_b_union": 369200.0,
          "area_intersection_union": 330720.0
        }
      }
    },
    {
      "type": "Feature",
      "id": "90476184-bfe6-45ce-8f1c-ace645d8c912",
      "geometry": {
        "type": "Polygon",
        "coordinates": [
          [
            [
              29472.0,
              11870.0
            ],
            [
              29472.0,
              12211.0
            ],
            [
              30018.0,
              12211.0
            ],
            [
              30018.0,
              11870.0
            ],
            [
              29472.0,
              11870.0
            ]
          ]
        ]
      },
      "properties": {
        "objectType": "annotation",
        "classification": {
          "name": "B | Ulcer/ erosion",
          "color": [
            255,
            0,
            0
          ]
        },
        "isLocked": true,
        "case_key": "S2402511",
        "source": "B",
        "orig_class": "Ulcer/ erosion",
        "match": {
          "status": "component_tp",
          "component_id": "Ulcer/ erosion:comp_2",
          "class": "Ulcer/ erosion",
          "nA": 1,
          "nB": 1,
          "cas_union": 0.8746162891279621,
          "oc_union": 0.8829611248966087,
          "ar_union": 1.3173493173493174,
          "area_a_union": 245272.0,
          "area_b_union": 186186.0,
          "area_intersection_union": 164395.0
        }
      }
    },
    {
      "type": "Feature",
      "id": "ea979f4e-d74f-489e-a8b4-86aef6df4151",
      "geometry": {
        "type": "Polygon",
        "coordinates": [
          [
            [
              23046.0,
              7680.0
            ],
            [
              23046.0,
              8786.0
            ],
            [
              23459.0,
              8786.0
            ],
            [
              23459.0,
              7680.0
            ],
            [
              23046.0,
              7680.0
            ]
          ]
        ]
      },
      "properties": {
        "objectType": "annotation",
        "classification": {
          "name": "B | Basal lymphoid aggregates",
          "color": [
            0,
            0,
            255
          ]
        },
        "isLocked": true,
        "case_key": "S2402511",
        "source": "B",
        "orig_class": "Basal lymphoid aggregates",
        "match": {
          "status": "component_tp",
          "component_id": "Basal lymphoid aggregates:comp_1",
          "class": "Basal lymphoid aggregates",
          "nA": 1,
          "nB": 1,
          "cas_union": 0.7295045504787051,
          "oc_union": 1.0,
          "ar_union": 4.896067674012321,
          "area_a_union": 2236416.0,
          "area_b_union": 456778.0,
          "area_intersection_union": 456778.0
        }
      }
    },
    {
      "type": "Feature",
      "id": "9789a0f9-91a1-46b3-b82f-ccc0657a8882",
      "geometry": {
        "type": "Polygon",
        "coordinates": [
          [
            [
              29865.0,
              12979.0
            ],
            [
              29865.0,
              13395.0
            ],
            [
              30336.0,
              13395.0
            ],
            [
              30336.0,
              12979.0
            ],
            [
              29865.0,
              12979.0
            ]
          ]
        ]
      },
      "properties": {
        "objectType": "annotation",
        "classification": {
          "name": "B | Basal lymphoid aggregates",
          "color": [
            0,
            0,
            255
          ]
        },
        "isLocked": true,
        "case_key": "S2402511",
        "source": "B",
        "orig_class": "Basal lymphoid aggregates",
        "match": {
          "status": "component_tp",
          "component_id": "Basal lymphoid aggregates:comp_0",
          "class": "Basal lymphoid aggregates",
          "nA": 1,
          "nB": 1,
          "cas_union": 0.804532779566114,
          "oc_union": 1.0,
          "ar_union": 3.739945696553977,
          "area_a_union": 732790.0,
          "area_b_union": 195936.0,
          "area_intersection_union": 195936.0
        }
      }
    },
    {
      "type": "Feature",
      "id": "50b13c12-ca5a-46fc-9c09-750884034e83",
      "geometry": {
        "type": "Polygon",
        "coordinates": [
          [
            [
              28574.0,
              13881.0
            ],
            [
              28574.0,
              14380.0
            ],
            [
              30026.0,
              14380.0
            ],
            [
              30026.0,
              13881.0
            ],
            [
              28574.0,
              13881.0
            ]
          ]
        ]
      },
      "properties": {
        "objectType": "annotation",
        "classification": {
          "name": "B | No/ mild mononuclear cell infiltrate",
          "color": [
            185,
            185,
            116
          ]
        },
        "isLocked": true,
        "case_key": "S2402511",
        "source": "B",
        "orig_class": "No/ mild mononuclear cell infiltrate",
        "match": {
          "status": "component_tp",
          "component_id": "No/ mild mononuclear cell infiltrate:comp_5",
          "class": "No/ mild mononuclear cell infiltrate",
          "nA": 2,
          "nB": 1,
          "cas_union": 0.714713163345069,
          "oc_union": 0.8447977043469104,
          "ar_union": 3.179110960953714,
          "area_a_union": 227909.0,
          "area_b_union": 724548.0,
          "area_intersection_union": 192537.0
        }
      }
    },
    {
      "type": "Feature",
      "id": "feeea205-988a-4395-9ce2-a441b0846856",
      "geometry": {
        "type": "Polygon",
        "coordinates": [
          [
            [
              29983.0,
              5279.0
            ],
            [
              29983.0,
              5754.0
            ],
            [
              30630.0,
              5754.0
            ],
            [
              30630.0,
              5279.0
            ],
            [
              29983.0,
              5279.0
            ]
          ]
        ]
      },
      "properties": {
        "objectType": "annotation",
        "classification": {
          "name": "B | Moderate to marked mononuclear cell infiltrate",
          "color": [
            21,
            11,
            49
          ]
        },
        "isLocked": true,
        "case_key": "S2402511",
        "source": "B",
        "orig_class": "Moderate to marked mononuclear cell infiltrate",
        "match": {
          "status": "component_tp",
          "component_id": "Moderate to marked mononuclear cell infiltrate:comp_4",
          "class": "Moderate to marked mononuclear cell infiltrate",
          "nA": 1,
          "nB": 1,
          "cas_union": 0.7672804838143717,
          "oc_union": 0.8068212489265121,
          "ar_union": 1.8851981351981353,
          "area_a_union": 163020.0,
          "area_b_union": 307325.0,
          "area_intersection_union": 131528.0
        }
      }
    },
    {
      "type": "Feature",
      "id": "34b94743-aec6-42af-9357-9c4a7336c32e",
      "geometry": {
        "type": "Polygon",
        "coordinates": [
          [
            [
              28879.0,
              4949.0
            ],
            [
              28879.0,
              5524.0
            ],
            [
              29230.0,
              5524.0
            ],
            [
              29230.0,
              4949.0
            ],
            [
              28879.0,
              4949.0
            ]
          ]
        ]
      },
      "properties": {
        "objectType": "annotation",
        "classification": {
          "name": "B | Moderate to marked mononuclear cell infiltrate",
          "color": [
            21,
            11,
            49
          ]
        },
        "isLocked": true,
        "case_key": "S2402511",
        "source": "B",
        "orig_class": "Moderate to marked mononuclear cell infiltrate",
        "match": {
          "status": "component_tp",
          "component_id": "Moderate to marked mononuclear cell infiltrate:comp_6",
          "class": "Moderate to marked mononuclear cell infiltrate",
          "nA": 1,
          "nB": 1,
          "cas_union": 0.9825713787480093,
          "oc_union": 1.0,
          "ar_union": 1.4550560177641918,
          "area_a_union": 138706.0,
          "area_b_union": 201825.0,
          "area_intersection_union": 138706.0
        }
      }
    },
    {
      "type": "Feature",
      "id": "06e1b739-45e5-4934-aa5c-37da8f503ae3",
      "geometry": {
        "type": "Polygon",
        "coordinates": [
          [
            [
              28292.0,
              5838.0
            ],
            [
              28292.0,
              6723.0
            ],
            [
              28934.0,
              6723.0
            ],
            [
              28934.0,
              5838.0
            ],
            [
              28292.0,
              5838.0
            ]
          ]
        ]
      },
      "properties": {
        "objectType": "annotation",
        "classification": {
          "name": "B | No/ mild mononuclear cell infiltrate",
          "color": [
            185,
            185,
            116
          ]
        },
        "isLocked": true,
        "case_key": "S2402511",
        "source": "B",
        "orig_class": "No/ mild mononuclear cell infiltrate",
        "match": {
          "status": "component_tp",
          "component_id": "No/ mild mononuclear cell infiltrate:comp_0",
          "class": "No/ mild mononuclear cell infiltrate",
          "nA": 1,
          "nB": 1,
          "cas_union": 0.4454169435942357,
          "oc_union": 0.5623409669211196,
          "ar_union": 3.9179544467200396,
          "area_a_union": 145017.0,
          "area_b_union": 568170.0,
          "area_intersection_union": 81549.0
        }
      }
    },
    {
      "type": "Feature",
      "id": "877a3769-2d91-42cf-8ee1-569f152dc662",
      "geometry": {
        "type": "Polygon",
        "coordinates": [
          [
            [
              27584.0,
              11670.0
            ],
            [
              27584.0,
              12317.0
            ],
            [
              27901.0,
              12317.0
            ],
            [
              27901.0,
              11670.0
            ],
            [
              27584.0,
              11670.0
            ]
          ]
        ]
      },
      "properties": {
        "objectType": "annotation",
        "classification": {
          "name": "B | No/ mild mononuclear cell infiltrate",
          "color": [
            185,
            185,
            116
          ]
        },
        "isLocked": true,
        "case_key": "S2402511",
        "source": "B",
        "orig_class": "No/ mild mononuclear cell infiltrate",
        "match": {
          "status": "component_tp",
          "component_id": "No/ mild mononuclear cell infiltrate:comp_4",
          "class": "No/ mild mononuclear cell infiltrate",
          "nA": 1,
          "nB": 1,
          "cas_union": 0.7282120802699005,
          "oc_union": 0.9134199134199135,
          "ar_union": 3.8436123760799084,
          "area_a_union": 53361.0,
          "area_b_union": 205099.0,
          "area_intersection_union": 48741.0
        }
      }
    },
    {
      "type": "Feature",
      "id": "347ed4ea-c34c-482c-a72c-e2affa658aa2",
      "geometry": {
        "type": "Polygon",
        "coordinates": [
          [
            [
              29563.0,
              6703.0
            ],
            [
              29563.0,
              7333.0
            ],
            [
              30694.0,
              7333.0
            ],
            [
              30694.0,
              6703.0
            ],
            [
              29563.0,
              6703.0
            ]
          ]
        ]
      },
      "properties": {
        "objectType": "annotation",
        "classification": {
          "name": "B | Moderate to marked mononuclear cell infiltrate",
          "color": [
            21,
            11,
            49
          ]
        },
        "isLocked": true,
        "case_key": "S2402511",
        "source": "B",
        "orig_class": "Moderate to marked mononuclear cell infiltrate",
        "match": {
          "status": "component_tp",
          "component_id": "Moderate to marked mononuclear cell infiltrate:comp_0",
          "class": "Moderate to marked mononuclear cell infiltrate",
          "nA": 1,
          "nB": 1,
          "cas_union": 0.7344054478428992,
          "oc_union": 0.7679180887372014,
          "ar_union": 1.817520929307152,
          "area_a_union": 392034.0,
          "area_b_union": 712530.0,
          "area_intersection_union": 301050.0
        }
      }
    },
    {
      "type": "Feature",
      "id": "f89282ea-4bca-40b0-b21f-901ab2bf4dc7",
      "geometry": {
        "type": "Polygon",
        "coordinates": [
          [
            [
              27226.0,
              4540.0
            ],
            [
              27226.0,
              9403.0
            ],
            [
              31106.0,
              9403.0
            ],
            [
              31106.0,
              4540.0
            ],
            [
              27226.0,
              4540.0
            ]
          ]
        ]
      },
      "properties": {
        "objectType": "annotation",
        "classification": {
          "name": "B | Marked (>50%) crypt distortion",
          "color": [
            0,
            51,
            0
          ]
        },
        "isLocked": true,
        "case_key": "S2402511",
        "source": "B",
        "orig_class": "Marked (>50%) crypt distortion",
        "match": {
          "status": "component_tp",
          "component_id": "Marked (>50%) crypt distortion:comp_0",
          "class": "Marked (>50%) crypt distortion",
          "nA": 1,
          "nB": 1,
          "cas_union": 0.8668802422485646,
          "oc_union": 0.8680412371134021,
          "ar_union": 1.109018021627649,
          "area_a_union": 20925440.0,
          "area_b_union": 18868440.0,
          "area_intersection_union": 16378584.0
        }
      }
    },
    {
      "type": "Feature",
      "id": "391ab9b9-c615-46f9-8f09-eb4a4a5f5529",
      "geometry": {
        "type": "Polygon",
        "coordinates": [
          [
            [
              24144.0,
              10592.0
            ],
            [
              24144.0,
              12540.0
            ],
            [
              27535.0,
              12540.0
            ],
            [
              27535.0,
              10592.0
            ],
            [
              24144.0,
              10592.0
            ]
          ]
        ]
      },
      "properties": {
        "objectType": "annotation",
        "classification": {
          "name": "B | Marked (>50%) crypt distortion",
          "color": [
            0,
            51,
            0
          ]
        },
        "isLocked": true,
        "case_key": "S2402511",
        "source": "B",
        "orig_class": "Marked (>50%) crypt distortion",
        "match": {
          "status": "component_tp",
          "component_id": "Marked (>50%) crypt distortion:comp_1",
          "class": "Marked (>50%) crypt distortion",
          "nA": 1,
          "nB": 1,
          "cas_union": 0.7844514462127589,
          "oc_union": 1.0,
          "ar_union": 4.029392939518002,
          "area_a_union": 26616832.0,
          "area_b_union": 6605668.0,
          "area_intersection_union": 6605668.0
        }
      }
    },
    {
      "type": "Feature",
      "id": "14991ecf-505b-4dda-a5d5-91ad210809e6",
      "geometry": {
        "type": "Polygon",
        "coordinates": [
          [
            [
              27621.0,
              11442.0
            ],
            [
              27621.0,
              16770.0
            ],
            [
              32475.0,
              16770.0
            ],
            [
              32475.0,
              11442.0
            ],
            [
              27621.0,
              11442.0
            ]
          ]
        ]
      },
      "properties": {
        "objectType": "annotation",
        "classification": {
          "name": "B | Marked (>50%) crypt distortion",
          "color": [
            0,
            51,
            0
          ]
        },
        "isLocked": true,
        "case_key": "S2402511",
        "source": "B",
        "orig_class": "Marked (>50%) crypt distortion",
        "match": {
          "status": "component_tp",
          "component_id": "Marked (>50%) crypt distortion:comp_2",
          "class": "Marked (>50%) crypt distortion",
          "nA": 1,
          "nB": 1,
          "cas_union": 0.825765069173173,
          "oc_union": 0.8482652182424137,
          "ar_union": 1.590025733442458,
          "area_a_union": 16265216.0,
          "area_b_union": 25862112.0,
          "area_intersection_union": 13797217.0
        }
      }
    },
    {
      "type": "Feature",
      "id": "7d223839-cb06-4bc0-8d56-b3c965426305",
      "geometry": {
        "type": "Polygon",
        "coordinates": [
          [
            [
              26572.0,
              6967.0
            ],
            [
              26572.0,
              7677.0
            ],
            [
              27092.0,
              7677.0
            ],
            [
              27092.0,
              6967.0
            ],
            [
              26572.0,
              6967.0
            ]
          ]
        ]
      },
      "properties": {
        "objectType": "annotation",
        "classification": {
          "name": "B | Basal lymphoid aggregates",
          "color": [
            0,
            0,
            255
          ]
        },
        "isLocked": true,
        "case_key": "S2402511",
        "source": "B",
        "orig_class": "Basal lymphoid aggregates",
        "match": {
          "status": "component_tp",
          "component_id": "Basal lymphoid aggregates:comp_2",
          "class": "Basal lymphoid aggregates",
          "nA": 1,
          "nB": 1,
          "cas_union": 0.8278133848202214,
          "oc_union": 0.895774647887324,
          "ar_union": 2.2133044420368364,
          "area_a_union": 817152.0,
          "area_b_union": 369200.0,
          "area_intersection_union": 330720.0
        }
      }
    }
  ]
}