{
  "type": "FeatureCollection",
  "features": [
    {
      "type": "Feature",
      "id": "4dcffa39-1e15-46cf-b5cb-03b5bb92fd11",
      "geometry": {
        "type": "Polygon",
        "coordinates": [
          [
            [
              36840.0,
              8964.0
            ],
            [
              36840.0,
              9807.0
            ],
            [
              37253.0,
              9807.0
            ],
            [
              37253.0,
              8964.0
            ],
            [
              36840.0,
              8964.0
            ]
          ]
        ]
      },
      "properties": {
        "objectType": "annotation",
        "classification": {
          "name": "B | Ulcer/ erosion",
          "color": [
            255,
            0,
            0
          ]
        },
        "isLocked": true,
        "case_key": "2385991",
        "source": "B",
        "orig_class": "Ulcer/ erosion",
        "match": {
          "status": "component_fn",
          "component_id": "Ulcer/ erosion:comp_0",
          "class": "Ulcer/ erosion",
          "nA": 1,
          "nB": 0,
          "cas_union": 0.0,
          "oc_union": 0.0,
          "ar_union": Infinity,
          "area_a_union": 348159.0,
          "area_b_union": 0.0,
          "area_intersection_union": 0.0
        }
      }
    },
    {
      "type": "Feature",
      "id": "f25fd841-a96f-4c6c-abb4-c65422711a0d",
      "geometry": {
        "type": "Polygon",
        "coordinates": [
          [
            [
              37505.0,
              7798.0
            ],
            [
              37505.0,
              7886.0
            ],
            [
              37783.0,
              7886.0
            ],
            [
              37783.0,
              7798.0
            ],
            [
              37505.0,
              7798.0
            ]
          ]
        ]
      },
      "properties": {
        "objectType": "annotation",
        "classification": {
          "name": "B | Ulcer/ erosion",
          "color": [
            255,
            0,
            0
          ]
        },
        "isLocked": true,
        "case_key": "2385991",
        "source": "B",
        "orig_class": "Ulcer/ erosion",
        "match": {
          "status": "component_fn",
          "component_id": "Ulcer/ erosion:comp_1",
          "class": "Ulcer/ erosion",
          "nA": 1,
          "nB": 0,
          "cas_union": 0.0,
          "oc_union": 0.0,
          "ar_union": Infinity,
          "area_a_union": 24464.0,
          "area_b_union": 0.0,
          "area_intersection_union": 0.0
        }
      }
    },
    {
      "type": "Feature",
      "id": "4d6039af-ab06-4ab8-a573-3ffb1f7e6df7",
      "geometry": {
        "type": "Polygon",
        "coordinates": [
          [
            [
              31710.0,
              23283.0
            ],
            [
              31710.0,
              24096.0
            ],
            [
              32121.0,
              24096.0
            ],
            [
              32121.0,
              23283.0
            ],
            [
              31710.0,
              23283.0
            ]
          ]
        ]
      },
      "properties": {
        "objectType": "annotation",
        "classification": {
          "name": "B | Ulcer/ erosion",
          "color": [
            255,
            0,
            0
          ]
        },
        "isLocked": true,
        "case_key": "2385991",
        "source": "B",
        "orig_class": "Ulcer/ erosion",
        "match": {
          "status": "component_fn",
          "component_id": "Ulcer/ erosion:comp_2",
          "class": "Ulcer/ erosion",
          "nA": 1,
          "nB": 0,
          "cas_union": 0.0,
          "oc_union": 0.0,
          "ar_union": Infinity,
          "area_a_union": 334143.0,
          "area_b_union": 0.0,
          "area_intersection_union": 0.0
        }
      }
    },
    {
      "type": "Feature",
      "id": "57150b40-5e3f-4324-9323-8d65235214b2",
      "geometry": {
        "type": "Polygon",
        "coordinates": [
          [
            [
              41662.0,
              8149.0
            ],
            [
              41662.0,
              8680.0
            ],
            [
              41959.0,
              8680.0
            ],
            [
              41959.0,
              8149.0
            ],
            [
              41662.0,
              8149.0
            ]
          ]
        ]
      },
      "properties": {
        "objectType": "annotation",
        "classification": {
          "name": "B | Ulcer/ erosion",
          "color": [
            255,
            0,
            0
          ]
        },
        "isLocked": true,
        "case_key": "2385991",
        "source": "B",
        "orig_class": "Ulcer/ erosion",
        "match": {
          "status": "component_fn",
          "component_id": "Ulcer/ erosion:comp_3",
          "class": "Ulcer/ erosion",
          "nA": 1,
          "nB": 0,
          "cas_union": 0.0,
          "oc_union": 0.0,
          "ar_union": Infinity,
          "area_a_union": 157707.0,
          "area_b_union": 0.0,
          "area_intersection_union": 0.0
        }
      }
    },
    {
      "type": "Feature",
      "id": "3b9f5620-ea41-4ba1-8a5a-65c1ff0dd92a",
      "geometry": {
        "type": "Polygon",
        "coordinates": [
          [
            [
              38246.0,
              15196.0
            ],
            [
              38246.0,
              17006.0
            ],
            [
              39262.0,
              17006.0
            ],
            [
              39262.0,
              15196.0
            ],
            [
              38246.0,
              15196.0
            ]
          ]
        ]
      },
      "properties": {
        "objectType": "annotation",
        "classification": {
          "name": "B | Crypt abscess",
          "color": [
            240,
            77,
            141
          ]
        },
        "isLocked": true,
        "case_key": "2385991",
        "source": "B",
        "orig_class": "Crypt abscess",
        "match": {
          "status": "component_fn",
          "component_id": "Crypt abscess:comp_0",
          "class": "Crypt abscess",
          "nA": 1,
          "nB": 0,
          "cas_union": 0.0,
          "oc_union": 0.0,
          "ar_union": Infinity,
          "area_a_union": 1838960.0,
          "area_b_union": 0.0,
          "area_intersection_union": 0.0
        }
      }
    },
    {
      "type": "Feature",
      "id": "bc22969d-5446-4af3-91ed-ccf39a83e48d",
      "geometry": {
        "type": "Polygon",
        "coordinates": [
          [
            [
              37944.0,
              10226.0
            ],
            [
              37944.0,
              10860.0
            ],
            [
              38308.0,
              10860.0
            ],
            [
              38308.0,
              10226.0
            ],
            [
              37944.0,
              10226.0
            ]
          ]
        ]
      },
      "properties": {
        "objectType": "annotation",
        "classification": {
          "name": "B | Crypt abscess",
          "color": [
            240,
            77,
            141
          ]
        },
        "isLocked": true,
        "case_key": "2385991",
        "source": "B",
        "orig_class": "Crypt abscess",
        "match": {
          "status": "component_fn",
          "component_id": "Crypt abscess:comp_1",
          "class": "Crypt abscess",
          "nA": 1,
          "nB": 0,
          "cas_union": 0.0,
          "oc_union": 0.0,
          "ar_union": Infinity,
          "area_a_union": 230776.0,
          "area_b_union": 0.0,
          "area_intersection_union": 0.0
        }
      }
    },
    {
      "type": "Feature",
      "id": "85277630-72d7-4ee0-a8b1-3449ad6ee299",
      "geometry": {
        "type": "Polygon",
        "coordinates": [
          [
            [
              39288.0,
              11430.0
            ],
            [
              39288.0,
              12035.0
            ],
            [
              40044.0,
              12035.0
            ],
            [
              40044.0,
              11430.0
            ],
            [
              39288.0,
              11430.0
            ]
          ]
        ]
      },
      "properties": {
        "objectType": "annotation",
        "classification": {
          "name": "B | Ulcer/ erosion",
          "color": [
            255,
            0,
            0
          ]
        },
        "isLocked": true,
        "case_key": "2385991",
        "source": "B",
        "orig_class": "Ulcer/ erosion",
        "match": {
          "status": "component_fn",
          "component_id": "Ulcer/ erosion:comp_4",
          "class": "Ulcer/ erosion",
          "nA": 1,
          "nB": 0,
          "cas_union": 0.0,
          "oc_union": 0.0,
          "ar_union": Infinity,
          "area_a_union": 457380.0,
          "area_b_union": 0.0,
          "area_intersection_union": 0.0
        }
      }
    },
    {
      "type": "Feature",
      "id": "3336c256-ddea-4c03-88d5-162a72d8795c",
      "geometry": {
        "type": "Polygon",
        "coordinates": [
          [
            [
              33920.0,
              22121.0
            ],
            [
              33920.0,
              22948.0
            ],
            [
              34783.0,
              22948.0
            ],
            [
              34783.0,
              22121.0
            ],
            [
              33920.0,
              22121.0
            ]
          ]
        ]
      },
      "properties": {
        "objectType": "annotation",
        "classification": {
          "name": "B | Basal lymphoid aggregates",
          "color": [
            0,
            0,
            255
          ]
        },
        "isLocked": true,
        "case_key": "2385991",
        "source": "B",
        "orig_class": "Basal lymphoid aggregates",
        "match": {
          "status": "component_fn",
          "component_id": "Basal lymphoid aggregates:comp_0",
          "class": "Basal lymphoid aggregates",
          "nA": 1,
          "nB": 0,
          "cas_union": 0.0,
          "oc_union": 0.0,
          "ar_union": Infinity,
          "area_a_union": 713701.0,
          "area_b_union": 0.0,
          "area_intersection_union": 0.0
        }
      }
    },
    {
      "type": "Feature",
      "id": "f24000c3-18cf-4ba5-bbf6-f53f5781b338",
      "geometry": {
        "type": "Polygon",
        "coordinates": [
          [
            [
              33647.0,
              23246.0
            ],
            [
              33647.0,
              23730.0
            ],
            [
              34210.0,
              23730.0
            ],
            [
              34210.0,
              23246.0
            ],
            [
              33647.0,
              23246.0
            ]
          ]
        ]
      },
      "properties": {
        "objectType": "annotation",
        "classification": {
          "name": "B | Basal lymphoid aggregates",
          "color": [
            0,
            0,
            255
          ]
        },
        "isLocked": true,
        "case_key": "2385991",
        "source": "B",
        "orig_class": "Basal lymphoid aggregates",
        "match": {
          "status": "component_fn",
          "component_id": "Basal lymphoid aggregates:comp_1",
          "class": "Basal lymphoid aggregates",
          "nA": 1,
          "nB": 0,
          "cas_union": 0.0,
          "oc_union": 0.0,
          "ar_union": Infinity,
          "area_a_union": 272492.0,
          "area_b_union": 0.0,
          "area_intersection_union": 0.0
        }
      }
    },
    {
      "type": "Feature",
      "id": "7eb5c101-ca6d-40cd-98b9-3e9503f091a5",
      "geometry": {
        "type": "Polygon",
        "coordinates": [
          [
            [
              41313.0,
              17192.0
            ],
            [
              41313.0,
              17751.0
            ],
            [
              41947.0,
              17751.0
            ],
            [
              41947.0,
              17192.0
            ],
            [
              41313.0,
              17192.0
            ]
          ]
        ]
      },
      "properties": {
        "objectType": "annotation",
        "classification": {
          "name": "B | Basal Plasmacytosis",
          "color": [
            202,
            65,
            86
          ]
        },
        "isLocked": true,
        "case_key": "2385991",
        "source": "B",
        "orig_class": "Basal Plasmacytosis",
        "match": {
          "status": "component_fn",
          "component_id": "Basal Plasmacytosis:comp_0",
          "class": "Basal Plasmacytosis",
          "nA": 1,
          "nB": 0,
          "cas_union": 0.0,
          "oc_union": 0.0,
          "ar_union": Infinity,
          "area_a_union": 354406.0,
          "area_b_union": 0.0,
          "area_intersection_union": 0.0
        }
      }
    },
    {
      "type": "Feature",
      "id": "135653c2-8453-4034-9699-9783752ae35a",
      "geometry": {
        "type": "Polygon",
        "coordinates": [
          [
            [
              40093.0,
              17269.0
            ],
            [
              40093.0,
              17821.0
            ],
            [
              40510.0,
              17821.0
            ],
            [
              40510.0,
              17269.0
            ],
            [
              40093.0,
              17269.0
            ]
          ]
        ]
      },
      "properties": {
        "objectType": "annotation",
        "classification": {
          "name": "B | Basal Plasmacytosis",
          "color": [
            202,
            65,
            86
          ]
        },
        "isLocked": true,
        "case_key": "2385991",
        "source": "B",
        "orig_class": "Basal Plasmacytosis",
        "match": {
          "status": "component_fn",
          "component_id": "Basal Plasmacytosis:comp_1",
          "class": "Basal Plasmacytosis",
          "nA": 1,
          "nB": 0,
          "cas_union": 0.0,
          "oc_union": 0.0,
          "ar_union": Infinity,
          "area_a_union": 230184.0,
          "area_b_union": 0.0,
          "area_intersection_union": 0.0
        }
      }
    },
    {
      "type": "Feature",
      "id": "2926a413-8ed3-49fe-bea1-9d1417b7611e",
      "geometry": {
        "type": "Polygon",
        "coordinates": [
          [
            [
              39625.0,
              15470.0
            ],
            [
              39625.0,
              15937.0
            ],
            [
              40162.0,
              15937.0
            ],
            [
              40162.0,
              15470.0
            ],
            [
              39625.0,
              15470.0
            ]
          ]
        ]
      },
      "properties": {
        "objectType": "annotation",
        "classification": {
          "name": "B | Basal Plasmacytosis",
          "color": [
            202,
            65,
            86
          ]
        },
        "isLocked": true,
        "case_key": "2385991",
        "source": "B",
        "orig_class": "Basal Plasmacytosis",
        "match": {
          "status": "component_fn",
          "component_id": "Basal Plasmacytosis:comp_2",
          "class": "Basal Plasmacytosis",
          "nA": 1,
          "nB": 0,
          "cas_union": 0.0,
          "oc_union": 0.0,
          "ar_union": Infinity,
          "area_a_union": 250779.0,
          "area_b_union": 0.0,
          "area_intersection_union": 0.0
        }
      }
    },
    {
      "type": "Feature",
      "id": "6fb9f0df-b94b-48d7-a6f7-205f61a3eafc",
      "geometry": {
        "type": "Polygon",
        "coordinates": [
          [
            [
              39314.0,
              14124.0
            ],
            [
              39314.0,
              14753.0
            ],
            [
              39782.0,
              14753.0
            ],
            [
              39782.0,
              14124.0
            ],
            [
              39314.0,
              14124.0
            ]
          ]
        ]
      },
      "properties": {
        "objectType": "annotation",
        "classification": {
          "name": "B | Basal Plasmacytosis",
          "color": [
            202,
            65,
            86
          ]
        },
        "isLocked": true,
        "case_key": "2385991",
        "source": "B",
        "orig_class": "Basal Plasmacytosis",
        "match": {
          "status": "component_fn",
          "component_id": "Basal Plasmacytosis:comp_3",
          "class": "Basal Plasmacytosis",
          "nA": 1,
          "nB": 0,
          "cas_union": 0.0,
          "oc_union": 0.0,
          "ar_union": Infinity,
          "area_a_union": 294372.0,
          "area_b_union": 0.0,
          "area_intersection_union": 0.0
        }
      }
    },
    {
      "type": "Feature",
      "id": "09409af2-6b69-42e3-8e23-c6c77eb602c6",
      "geometry": {
        "type": "Polygon",
        "coordinates": [
          [
            [
              39792.0,
              13070.0
            ],
            [
              39792.0,
              13569.0
            ],
            [
              40204.0,
              13569.0
            ],
            [
              40204.0,
              13070.0
            ],
            [
              39792.0,
              13070.0
            ]
          ]
        ]
      },
      "properties": {
        "objectType": "annotation",
        "classification": {
          "name": "B | Basal Plasmacytosis",
          "color": [
            202,
            65,
            86
          ]
        },
        "isLocked": true,
        "case_key": "2385991",
        "source": "B",
        "orig_class": "Basal Plasmacytosis",
        "match": {
          "status": "component_fn",
          "component_id": "Basal Plasmacytosis:comp_4",
          "class": "Basal Plasmacytosis",
          "nA": 1,
          "nB": 0,
          "cas_union": 0.0,
          "oc_union": 0.0,
          "ar_union": Infinity,
          "area_a_union": 205588.0,
          "area_b_union": 0.0,
          "area_intersection_union": 0.0
        }
      }
    },
    {
      "type": "Feature",
      "id": "bb6f92f3-ff2c-4435-8ca0-b703b573894f",
      "geometry": {
        "type": "Polygon",
        "coordinates": [
          [
            [
              42682.0,
              11178.0
            ],
            [
              42682.0,
              12186.0
            ],
            [
              43790.0,
              12186.0
            ],
            [
              43790.0,
              11178.0
            ],
            [
              42682.0,
              11178.0
            ]
          ]
        ]
      },
      "properties": {
        "objectType": "annotation",
        "classification": {
          "name": "B | Moderate to marked mononuclear cell infiltrate",
          "color": [
            21,
            11,
            49
          ]
        },
        "isLocked": true,
        "case_key": "2385991",
        "source": "B",
        "orig_class": "Moderate to marked mononuclear cell infiltrate",
        "match": {
          "status": "component_fn",
          "component_id": "Moderate to marked mononuclear cell infiltrate:comp_0",
          "class": "Moderate to marked mononuclear cell infiltrate",
          "nA": 1,
          "nB": 0,
          "cas_union": 0.0,
          "oc_union": 0.0,
          "ar_union": Infinity,
          "area_a_union": 1116864.0,
          "area_b_union": 0.0,
          "area_intersection_union": 0.0
        }
      }
    },
    {
      "type": "Feature",
      "id": "510d22a2-aa01-4817-a400-6a1b1ab6c657",
      "geometry": {
        "type": "Polygon",
        "coordinates": [
          [
            [
              43534.0,
              9519.0
            ],
            [
              43534.0,
              10259.0
            ],
            [
              44338.0,
              10259.0
            ],
            [
              44338.0,
              9519.0
            ],
            [
              43534.0,
              9519.0
            ]
          ]
        ]
      },
      "properties": {
        "objectType": "annotation",
        "classification": {
          "name": "B | Moderate to marked mononuclear cell infiltrate",
          "color": [
            21,
            11,
            49
          ]
        },
        "isLocked": true,
        "case_key": "2385991",
        "source": "B",
        "orig_class": "Moderate to marked mononuclear cell infiltrate",
        "match": {
          "status": "component_fn",
          "component_id": "Moderate to marked mononuclear cell infiltrate:comp_1",
          "class": "Moderate to marked mononuclear cell infiltrate",
          "nA": 1,
          "nB": 0,
          "cas_union": 0.0,
          "oc_union": 0.0,
          "ar_union": Infinity,
          "area_a_union": 594960.0,
          "area_b_union": 0.0,
          "area_intersection_union": 0.0
        }
      }
    },
    {
      "type": "Feature",
      "id": "f760a8b4-3cf5-4c01-9b52-69ebcc6dff01",
      "geometry": {
        "type": "Polygon",
        "coordinates": [
          [
            [
              41957.0,
              8345.0
            ],
            [
              41957.0,
              9066.0
            ],
            [
              42656.0,
              9066.0
            ],
            [
              42656.0,
              8345.0
            ],
            [
              41957.0,
              8345.0
            ]
          ]
        ]
      },
      "properties": {
        "objectType": "annotation",
        "classification": {
          "name": "B | Moderate to marked mononuclear cell infiltrate",
          "color": [
            21,
            11,
            49
          ]
        },
        "isLocked": true,
        "case_key": "2385991",
        "source": "B",
        "orig_class": "Moderate to marked mononuclear cell infiltrate",
        "match": {
          "status": "component_fn",
          "component_id": "Moderate to marked mononuclear cell infiltrate:comp_2",
          "class": "Moderate to marked mononuclear cell infiltrate",
          "nA": 1,
          "nB": 0,
          "cas_union": 0.0,
          "oc_union": 0.0,
          "ar_union": Infinity,
          "area_a_union": 503979.0,
          "area_b_union": 0.0,
          "area_intersection_union": 0.0
        }
      }
    },
    {
      "type": "Feature",
      "id": "61b88e11-6ea7-4a3f-a835-986015cfbd7a",
      "geometry": {
        "type": "Polygon",
        "coordinates": [
          [
            [
              41205.0,
              9840.0
            ],
            [
              41205.0,
              10328.0
            ],
            [
              41690.0,
              10328.0
            ],
            [
              41690.0,
              9840.0
            ],
            [
              41205.0,
              9840.0
            ]
          ]
        ]
      },
      "properties": {
        "objectType": "annotation",
        "classification": {
          "name": "B | Basal Plasmacytosis",
          "color": [
            202,
            65,
            86
          ]
        },
        "isLocked": true,
        "case_key": "2385991",
        "source": "B",
        "orig_class": "Basal Plasmacytosis",
        "match": {
          "status": "component_fn",
          "component_id": "Basal Plasmacytosis:comp_5",
          "class": "Basal Plasmacytosis",
          "nA": 1,
          "nB": 0,
          "cas_union": 0.0,
          "oc_union": 0.0,
          "ar_union": Infinity,
          "area_a_union": 236680.0,
          "area_b_union": 0.0,
          "area_intersection_union": 0.0
        }
      }
    },
    {
      "type": "Feature",
      "id": "f8c037ab-4bcb-4363-b270-2702cdcad76c",
      "geometry": {
        "type": "Polygon",
        "coordinates": [
          [
            [
              41051.0,
              9931.0
            ],
            [
              41051.0,
              10883.0
            ],
            [
              41846.0,
              10883.0
            ],
            [
              41846.0,
              9931.0
            ],
            [
              41051.0,
              9931.0
            ]
          ]
        ]
      },
      "properties": {
        "objectType": "annotation",
        "classification": {
          "name": "B | Moderate to marked mononuclear cell infiltrate",
          "color": [
            21,
            11,
            49
          ]
        },
        "isLocked": true,
        "case_key": "2385991",
        "source": "B",
        "orig_class": "Moderate to marked mononuclear cell infiltrate",
        "match": {
          "status": "component_fn",
          "component_id": "Moderate to marked mononuclear cell infiltrate:comp_3",
          "class": "Moderate to marked mononuclear cell infiltrate",
          "nA": 1,
          "nB": 0,
          "cas_union": 0.0,
          "oc_union": 0.0,
          "ar_union": Infinity,
          "area_a_union": 756840.0,
          "area_b_union": 0.0,
          "area_intersection_union": 0.0
        }
      }
    },
    {
      "type": "Feature",
      "id": "1cfbc24e-0ff6-4954-87e6-bdb4f2a5da40",
      "geometry": {
        "type": "Polygon",
        "coordinates": [
          [
            [
              40318.0,
              13936.0
            ],
            [
              40318.0,
              14524.0
            ],
            [
              40842.0,
              14524.0
            ],
            [
              40842.0,
              13936.0
            ],
            [
              40318.0,
              13936.0
            ]
          ]
        ]
      },
      "properties": {
        "objectType": "annotation",
        "classification": {
          "name": "B | Moderate to marked mononuclear cell infiltrate",
          "color": [
            21,
            11,
            49
          ]
        },
        "isLocked": true,
        "case_key": "2385991",
        "source": "B",
        "orig_class": "Moderate to marked mononuclear cell infiltrate",
        "match": {
          "status": "component_fn",
          "component_id": "Moderate to marked mononuclear cell infiltrate:comp_4",
          "class": "Moderate to marked mononuclear cell infiltrate",
          "nA": 1,
          "nB": 0,
          "cas_union": 0.0,
          "oc_union": 0.0,
          "ar_union": Infinity,
          "area_a_union": 308112.0,
          "area_b_union": 0.0,
          "area_intersection_union": 0.0
        }
      }
    },
    {
      "type": "Feature",
      "id": "191f3778-33eb-43d4-b41c-664a362dccdf",
      "geometry": {
        "type": "Polygon",
        "coordinates": [
          [
            [
              39271.0,
              15764.0
            ],
            [
              39271.0,
              16669.0
            ],
            [
              40583.0,
              16669.0
            ],
            [
              40583.0,
              15764.0
            ],
            [
              39271.0,
              15764.0
            ]
          ]
        ]
      },
      "properties": {
        "objectType": "annotation",
        "classification": {
          "name": "B | Moderate to marked mononuclear cell infiltrate",
          "color": [
            21,
            11,
            49
          ]
        },
        "isLocked": true,
        "case_key": "2385991",
        "source": "B",
        "orig_class": "Moderate to marked mononuclear cell infiltrate",
        "match": {
          "status": "component_fn",
          "component_id": "Moderate to marked mononuclear cell infiltrate:comp_5",
          "class": "Moderate to marked mononuclear cell infiltrate",
          "nA": 1,
          "nB": 0,
          "cas_union": 0.0,
          "oc_union": 0.0,
          "ar_union": Infinity,
          "area_a_union": 1187360.0,
          "area_b_union": 0.0,
          "area_intersection_union": 0.0
        }
      }
    },
    {
      "type": "Feature",
      "id": "3f7707b5-598e-4f77-82db-7b99acf54ca4",
      "geometry": {
        "type": "Polygon",
        "coordinates": [
          [
            [
              40545.0,
              16352.0
            ],
            [
              40545.0,
              16836.0
            ],
            [
              41093.0,
              16836.0
            ],
            [
              41093.0,
              16352.0
            ],
            [
              40545.0,
              16352.0
            ]
          ]
        ]
      },
      "properties": {
        "objectType": "annotation",
        "classification": {
          "name": "B | Basal Plasmacytosis",
          "color": [
            202,
            65,
            86
          ]
        },
        "isLocked": true,
        "case_key": "2385991",
        "source": "B",
        "orig_class": "Basal Plasmacytosis",
        "match": {
          "status": "component_fn",
          "component_id": "Basal Plasmacytosis:comp_6",
          "class": "Basal Plasmacytosis",
          "nA": 1,
          "nB": 0,
          "cas_union": 0.0,
          "oc_union": 0.0,
          "ar_union": Infinity,
          "area_a_union": 265232.0,
          "area_b_union": 0.0,
          "area_intersection_union": 0.0
        }
      }
    },
    {
      "type": "Feature",
      "id": "fbfd4376-27bd-4ab4-9901-ee8693b903cf",
      "geometry": {
        "type": "Polygon",
        "coordinates": [
          [
            [
              39482.0,
              16739.0
            ],
            [
              39482.0,
              17195.0
            ],
            [
              40106.0,
              17195.0
            ],
            [
              40106.0,
              16739.0
            ],
            [
              39482.0,
              16739.0
            ]
          ]
        ]
      },
      "properties": {
        "objectType": "annotation",
        "classification": {
          "name": "B | Basal Plasmacytosis",
          "color": [
            202,
            65,
            86
          ]
        },
        "isLocked": true,
        "case_key": "2385991",
        "source": "B",
        "orig_class": "Basal Plasmacytosis",
        "match": {
          "status": "component_fn",
          "component_id": "Basal Plasmacytosis:comp_7",
          "class": "Basal Plasmacytosis",
          "nA": 1,
          "nB": 0,
          "cas_union": 0.0,
          "oc_union": 0.0,
          "ar_union": Infinity,
          "area_a_union": 284544.0,
          "area_b_union": 0.0,
          "area_intersection_union": 0.0
        }
      }
    },
    {
      "type": "Feature",
      "id": "8b040ad8-d953-48e1-8614-5523a4de76ef",
      "geometry": {
        "type": "Polygon",
        "coordinates": [
          [
            [
              32650.0,
              24134.0
            ],
            [
              32650.0,
              24548.0
            ],
            [
              33129.0,
              24548.0
            ],
            [
              33129.0,
              24134.0
            ],
            [
              32650.0,
              24134.0
            ]
          ]
        ]
      },
      "properties": {
        "objectType": "annotation",
        "classification": {
          "name": "B | Moderate to marked mononuclear cell infiltrate",
          "color": [
            21,
            11,
            49
          ]
        },
        "isLocked": true,
        "case_key": "2385991",
        "source": "B",
        "orig_class": "Moderate to marked mononuclear cell infiltrate",
        "match": {
          "status": "component_fn",
          "component_id": "Moderate to marked mononuclear cell infiltrate:comp_6",
          "class": "Moderate to marked mononuclear cell infiltrate",
          "nA": 1,
          "nB": 0,
          "cas_union": 0.0,
          "oc_union": 0.0,
          "ar_union": Infinity,
          "area_a_union": 198306.0,
          "area_b_union": 0.0,
          "area_intersection_union": 0.0
        }
      }
    },
    {
      "type": "Feature",
      "id": "77a4a9a1-7565-47db-afdb-5f1edacd9afe",
      "geometry": {
        "type": "Polygon",
        "coordinates": [
          [
            [
              40202.0,
              10842.0
            ],
            [
              40202.0,
              12126.0
            ],
            [
              41321.0,
              12126.0
            ],
            [
              41321.0,
              10842.0
            ],
            [
              40202.0,
              10842.0
            ]
          ]
        ]
      },
      "properties": {
        "objectType": "annotation",
        "classification": {
          "name": "B | Moderate to marked mononuclear cell infiltrate",
          "color": [
            21,
            11,
            49
          ]
        },
        "isLocked": true,
        "case_key": "2385991",
        "source": "B",
        "orig_class": "Moderate to marked mononuclear cell infiltrate",
        "match": {
          "status": "component_fn",
          "component_id": "Moderate to marked mononuclear cell infiltrate:comp_7",
          "class": "Moderate to marked mononuclear cell infiltrate",
          "nA": 1,
          "nB": 0,
          "cas_union": 0.0,
          "oc_union": 0.0,
          "ar_union": Infinity,
          "area_a_union": 1436796.0,
          "area_b_union": 0.0,
          "area_intersection_union": 0.0
        }
      }
    },
    {
      "type": "Feature",
      "id": "54942505-8f8d-4751-91b9-62ca6579d74f",
      "geometry": {
        "type": "Polygon",
        "coordinates": [
          [
            [
              42795.0,
              12429.0
            ],
            [
              42795.0,
              13032.0
            ],
            [
              43350.0,
              13032.0
            ],
            [
              43350.0,
              12429.0
            ],
            [
              42795.0,
              12429.0
            ]
          ]
        ]
      },
      "properties": {
        "objectType": "annotation",
        "classification": {
          "name": "B | Basal Plasmacytosis",
          "color": [
            202,
            65,
            86
          ]
        },
        "isLocked": true,
        "case_key": "2385991",
        "source": "B",
        "orig_class": "Basal Plasmacytosis",
        "match": {
          "status": "component_fn",
          "component_id": "Basal Plasmacytosis:comp_8",
          "class": "Basal Plasmacytosis",
          "nA": 1,
          "nB": 0,
          "cas_union": 0.0,
          "oc_union": 0.0,
          "ar_union": Infinity,
          "area_a_union": 334665.0,
          "area_b_union": 0.0,
          "area_intersection_union": 0.0
        }
      }
    },
    {
      "type": "Feature",
      "id": "692ce8cf-abf5-4cdc-a4b2-c90ec4cf0025",
      "geometry": {
        "type": "Polygon",
        "coordinates": [
          [
            [
              42288.0,
              12999.0
            ],
            [
              42288.0,
              13466.0
            ],
            [
              42922.0,
              13466.0
            ],
            [
              42922.0,
              12999.0
            ],
            [
              42288.0,
              12999.0
            ]
          ]
        ]
      },
      "properties": {
        "objectType": "annotation",
        "classification": {
          "name": "B | Basal Plasmacytosis",
          "color": [
            202,
            65,
            86
          ]
        },
        "isLocked": true,
        "case_key": "2385991",
        "source": "B",
        "orig_class": "Basal Plasmacytosis",
        "match": {
          "status": "component_fn",
          "component_id": "Basal Plasmacytosis:comp_9",
          "class": "Basal Plasmacytosis",
          "nA": 1,
          "nB": 0,
          "cas_union": 0.0,
          "oc_union": 0.0,
          "ar_union": Infinity,
          "area_a_union": 296078.0,
          "area_b_union": 0.0,
          "area_intersection_union": 0.0
        }
      }
    },
    {
      "type": "Feature",
      "id": "feded6fb-1eaa-4671-8fba-e52b620eee63",
      "geometry": {
        "type": "Polygon",
        "coordinates": [
          [
            [
              41605.0,
              13479.0
            ],
            [
              41605.0,
              14235.0
            ],
            [
              42184.0,
              14235.0
            ],
            [
              42184.0,
              13479.0
            ],
            [
              41605.0,
              13479.0
            ]
          ]
        ]
      },
      "properties": {
        "objectType": "annotation",
        "classification": {
          "name": "B | Moderate to marked mononuclear cell infiltrate",
          "color": [
            21,
            11,
            49
          ]
        },
        "isLocked": true,
        "case_key": "2385991",
        "source": "B",
        "orig_class": "Moderate to marked mononuclear cell infiltrate",
        "match": {
          "status": "component_fn",
          "component_id": "Moderate to marked mononuclear cell infiltrate:comp_8",
          "class": "Moderate to marked mononuclear cell infiltrate",
          "nA": 1,
          "nB": 0,
          "cas_union": 0.0,
          "oc_union": 0.0,
          "ar_union": Infinity,
          "area_a_union": 437724.0,
          "area_b_union": 0.0,
          "area_intersection_union": 0.0
        }
      }
    },
    {
      "type": "Feature",
      "id": "57016574-7ebf-4290-8e19-81039e1f8433",
      "geometry": {
        "type": "Polygon",
        "coordinates": [
          [
            [
              40501.0,
              19419.0
            ],
            [
              40501.0,
              20213.0
            ],
            [
              42131.0,
              20213.0
            ],
            [
              42131.0,
              19419.0
            ],
            [
              40501.0,
              19419.0
            ]
          ]
        ]
      },
      "properties": {
        "objectType": "annotation",
        "classification": {
          "name": "B | Moderate to marked mononuclear cell infiltrate",
          "color": [
            21,
            11,
            49
          ]
        },
        "isLocked": true,
        "case_key": "2385991",
        "source": "B",
        "orig_class": "Moderate to marked mononuclear cell infiltrate",
        "match": {
          "status": "component_fn",
          "component_id": "Moderate to marked mononuclear cell infiltrate:comp_9",
          "class": "Moderate to marked mononuclear cell infiltrate",
          "nA": 1,
          "nB": 0,
          "cas_union": 0.0,
          "oc_union": 0.0,
          "ar_union": Infinity,
          "area_a_union": 1294220.0,
          "area_b_union": 0.0,
          "area_intersection_union": 0.0
        }
      }
    },
    {
      "type": "Feature",
      "id": "e72e16b1-d490-4931-ac3b-e4e4e9f89fcf",
      "geometry": {
        "type": "Polygon",
        "coordinates": [
          [
            [
              37331.0,
              12273.0
            ],
            [
              37331.0,
              13242.0
            ],
            [
              38448.0,
              13242.0
            ],
            [
              38448.0,
              12273.0
            ],
            [
              37331.0,
              12273.0
            ]
          ]
        ]
      },
      "properties": {
        "objectType": "annotation",
        "classification": {
          "name": "B | Moderate to marked mononuclear cell infiltrate",
          "color": [
            21,
            11,
            49
          ]
        },
        "isLocked": true,
        "case_key": "2385991",
        "source": "B",
        "orig_class": "Moderate to marked mononuclear cell infiltrate",
        "match": {
          "status": "component_fn",
          "component_id": "Moderate to marked mononuclear cell infiltrate:comp_10",
          "class": "Moderate to marked mononuclear cell infiltrate",
          "nA": 1,
          "nB": 0,
          "cas_union": 0.0,
          "oc_union": 0.0,
          "ar_union": Infinity,
          "area_a_union": 1082373.0,
          "area_b_union": 0.0,
          "area_intersection_union": 0.0
        }
      }
    },
    {
      "type": "Feature",
      "id": "71bf5434-5401-441e-ac4b-df44a2ed45d1",
      "geometry": {
        "type": "Polygon",
        "coordinates": [
          [
            [
              38933.0,
              13160.0
            ],
            [
              38933.0,
              13966.0
            ],
            [
              39932.0,
              13966.0
            ],
            [
              39932.0,
              13160.0
            ],
            [
              38933.0,
              13160.0
            ]
          ]
        ]
      },
      "properties": {
        "objectType": "annotation",
        "classification": {
          "name": "B | Moderate to marked mononuclear cell infiltrate",
          "color": [
            21,
            11,
            49
          ]
        },
        "isLocked": true,
        "case_key": "2385991",
        "source": "B",
        "orig_class": "Moderate to marked mononuclear cell infiltrate",
        "match": {
          "status": "component_fn",
          "component_id": "Moderate to marked mononuclear cell infiltrate:comp_11",
          "class": "Moderate to marked mononuclear cell infiltrate",
          "nA": 1,
          "nB": 0,
          "cas_union": 0.0,
          "oc_union": 0.0,
          "ar_union": Infinity,
          "area_a_union": 805194.0,
          "area_b_union": 0.0,
          "area_intersection_union": 0.0
        }
      }
    },
    {
      "type": "Feature",
      "id": "f05f3c29-fd86-40db-8766-920692525b56",
      "geometry": {
        "type": "Polygon",
        "coordinates": [
          [
            [
              40337.0,
              11980.0
            ],
            [
              40337.0,
              12907.0
            ],
            [
              41138.0,
              12907.0
            ],
            [
              41138.0,
              11980.0
            ],
            [
              40337.0,
              11980.0
            ]
          ]
        ]
      },
      "properties": {
        "objectType": "annotation",
        "classification": {
          "name": "B | Moderate to marked mononuclear cell infiltrate",
          "color": [
            21,
            11,
            49
          ]
        },
        "isLocked": true,
        "case_key": "2385991",
        "source": "B",
        "orig_class": "Moderate to marked mononuclear cell infiltrate",
        "match": {
          "status": "component_fn",
          "component_id": "Moderate to marked mononuclear cell infiltrate:comp_12",
          "class": "Moderate to marked mononuclear cell infiltrate",
          "nA": 1,
          "nB": 0,
          "cas_union": 0.0,
          "oc_union": 0.0,
          "ar_union": Infinity,
          "area_a_union": 742527.0,
          "area_b_union": 0.0,
          "area_intersection_union": 0.0
        }
      }
    },
    {
      "type": "Feature",
      "id": "b949053b-3d32-4b7b-9aa8-4755f1152bc1",
      "geometry": {
        "type": "Polygon",
        "coordinates": [
          [
            [
              41906.0,
              12150.0
            ],
            [
              41906.0,
              13534.0
            ],
            [
              43468.0,
              13534.0
            ],
            [
              43468.0,
              12150.0
            ],
            [
              41906.0,
              12150.0
            ]
          ]
        ]
      },
      "properties": {
        "objectType": "annotation",
        "classification": {
          "name": "B | Moderate to marked mononuclear cell infiltrate",
          "color": [
            21,
            11,
            49
          ]
        },
        "isLocked": true,
        "case_key": "2385991",
        "source": "B",
        "orig_class": "Moderate to marked mononuclear cell infiltrate",
        "match": {
          "status": "component_fn",
          "component_id": "Moderate to marked mononuclear cell infiltrate:comp_13",
          "class": "Moderate to marked mononuclear cell infiltrate",
          "nA": 1,
          "nB": 0,
          "cas_union": 0.0,
          "oc_union": 0.0,
          "ar_union": Infinity,
          "area_a_union": 2161808.0,
          "area_b_union": 0.0,
          "area_intersection_union": 0.0
        }
      }
    },
    {
      "type": "Feature",
      "id": "b8a304b1-4782-4a32-8b6f-d7cde6f6ed8a",
      "geometry": {
        "type": "Polygon",
        "coordinates": [
          [
            [
              42461.0,
              9605.0
            ],
            [
              42461.0,
              10533.0
            ],
            [
              43668.0,
              10533.0
            ],
            [
              43668.0,
              9605.0
            ],
            [
              42461.0,
              9605.0
            ]
          ]
        ]
      },
      "properties": {
        "objectType": "annotation",
        "classification": {
          "name": "B | Moderate to marked mononuclear cell infiltrate",
          "color": [
            21,
            11,
            49
          ]
        },
        "isLocked": true,
        "case_key": "2385991",
        "source": "B",
        "orig_class": "Moderate to marked mononuclear cell infiltrate",
        "match": {
          "status": "component_fn",
          "component_id": "Moderate to marked mononuclear cell infiltrate:comp_14",
          "class": "Moderate to marked mononuclear cell infiltrate",
          "nA": 1,
          "nB": 0,
          "cas_union": 0.0,
          "oc_union": 0.0,
          "ar_union": Infinity,
          "area_a_union": 1120096.0,
          "area_b_union": 0.0,
          "area_intersection_union": 0.0
        }
      }
    },
    {
      "type": "Feature",
      "id": "0f4e9672-1995-47e8-83f6-4ad458eb84b4",
      "geometry": {
        "type": "Polygon",
        "coordinates": [
          [
            [
              37084.0,
              9957.0
            ],
            [
              37084.0,
              10756.0
            ],
            [
              37723.0,
              10756.0
            ],
            [
              37723.0,
              9957.0
            ],
            [
              37084.0,
              9957.0
            ]
          ]
        ]
      },
      "properties": {
        "objectType": "annotation",
        "classification": {
          "name": "B | Moderate to marked mononuclear cell infiltrate",
          "color": [
            21,
            11,
            49
          ]
        },
        "isLocked": true,
        "case_key": "2385991",
        "source": "B",
        "orig_class": "Moderate to marked mononuclear cell infiltrate",
        "match": {
          "status": "component_fn",
          "component_id": "Moderate to marked mononuclear cell infiltrate:comp_15",
          "class": "Moderate to marked mononuclear cell infiltrate",
          "nA": 1,
          "nB": 0,
          "cas_union": 0.0,
          "oc_union": 0.0,
          "ar_union": Infinity,
          "area_a_union": 510561.0,
          "area_b_union": 0.0,
          "area_intersection_union": 0.0
        }
      }
    },
    {
      "type": "Feature",
      "id": "3650fd83-ef27-4fe3-8909-d0553e75cf0c",
      "geometry": {
        "type": "Polygon",
        "coordinates": [
          [
            [
              35888.0,
              11916.0
            ],
            [
              35888.0,
              12830.0
            ],
            [
              36977.0,
              12830.0
            ],
            [
              36977.0,
              11916.0
            ],
            [
              35888.0,
              11916.0
            ]
          ]
        ]
      },
      "properties": {
        "objectType": "annotation",
        "classification": {
          "name": "B | Moderate to marked mononuclear cell infiltrate",
          "color": [
            21,
            11,
            49
          ]
        },
        "isLocked": true,
        "case_key": "2385991",
        "source": "B",
        "orig_class": "Moderate to marked mononuclear cell infiltrate",
        "match": {
          "status": "component_fn",
          "component_id": "Moderate to marked mononuclear cell infiltrate:comp_16",
          "class": "Moderate to marked mononuclear cell infiltrate",
          "nA": 1,
          "nB": 0,
          "cas_union": 0.0,
          "oc_union": 0.0,
          "ar_union": Infinity,
          "area_a_union": 995346.0,
          "area_b_union": 0.0,
          "area_intersection_union": 0.0
        }
      }
    },
    {
      "type": "Feature",
      "id": "7854e528-070a-4ffe-9401-ffb857082b6b",
      "geometry": {
        "type": "Polygon",
        "coordinates": [
          [
            [
              33468.0,
              17382.0
            ],
            [
              33468.0,
              23827.0
            ],
            [
              37450.0,
              23827.0
            ],
            [
              37450.0,
              17382.0
            ],
            [
              33468.0,
              17382.0
            ]
          ]
        ]
      },
      "properties": {
        "objectType": "annotation",
        "classification": {
          "name": "B | Marked (>50%) crypt distortion",
          "color": [
            0,
            51,
            0
          ]
        },
        "isLocked": true,
        "case_key": "2385991",
        "source": "B",
        "orig_class": "Marked (>50%) crypt distortion",
        "match": {
          "status": "component_fn",
          "component_id": "Marked (>50%) crypt distortion:comp_0",
          "class": "Marked (>50%) crypt distortion",
          "nA": 1,
          "nB": 0,
          "cas_union": 0.0,
          "oc_union": 0.0,
          "ar_union": Infinity,
          "area_a_union": 25663990.0,
          "area_b_union": 0.0,
          "area_intersection_union": 0.0
        }
      }
    },
    {
      "type": "Feature",
      "id": "2b8f0146-36b3-4fce-8074-599257d13ff6",
      "geometry": {
        "type": "Polygon",
        "coordinates": [
          [
            [
              38509.0,
              13583.0
            ],
            [
              38509.0,
              20726.0
            ],
            [
              42464.0,
              20726.0
            ],
            [
              42464.0,
              13583.0
            ],
            [
              38509.0,
              13583.0
            ]
          ]
        ]
      },
      "properties": {
        "objectType": "annotation",
        "classification": {
          "name": "B | Marked (>50%) crypt distortion",
          "color": [
            0,
            51,
            0
          ]
        },
        "isLocked": true,
        "case_key": "2385991",
        "source": "B",
        "orig_class": "Marked (>50%) crypt distortion",
        "match": {
          "status": "component_fn",
          "component_id": "Marked (>50%) crypt distortion:comp_1",
          "class": "Marked (>50%) crypt distortion",
          "nA": 1,
          "nB": 0,
          "cas_union": 0.0,
          "oc_union": 0.0,
          "ar_union": Infinity,
          "area_a_union": 28250565.0,
          "area_b_union": 0.0,
          "area_intersection_union": 0.0
        }
      }
    },
    {
      "type": "Feature",
      "id": "d8ed8389-d05b-4b96-87ab-7e0f375c1b54",
      "geometry": {
        "type": "Polygon",
        "coordinates": [
          [
            [
              36648.0,
              7740.0
            ],
            [
              36648.0,
              13460.0
            ],
            [
              38728.0,
              13460.0
            ],
            [
              38728.0,
              7740.0
            ],
            [
              36648.0,
              7740.0
            ]
          ]
        ]
      },
      "properties": {
        "objectType": "annotation",
        "classification": {
          "name": "B | Marked (>50%) crypt distortion",
          "color": [
            0,
            51,
            0
          ]
        },
        "isLocked": true,
        "case_key": "2385991",
        "source": "B",
        "orig_class": "Marked (>50%) crypt distortion",
        "match": {
          "status": "component_fn",
          "component_id": "Marked (>50%) crypt distortion:comp_2",
          "class": "Marked (>50%) crypt distortion",
          "nA": 1,
          "nB": 0,
          "cas_union": 0.0,
          "oc_union": 0.0,
          "ar_union": Infinity,
          "area_a_union": 11897600.0,
          "area_b_union": 0.0,
          "area_intersection_union": 0.0
        }
      }
    },
    {
      "type": "Feature",
      "id": "3b388678-b6b7-4eba-81ad-7ccfd19ec1d1",
      "geometry": {
        "type": "Polygon",
        "coordinates": [
          [
            [
              40493.0,
              7836.0
            ],
            [
              40493.0,
              13693.0
            ],
            [
              44147.0,
              13693.0
            ],
            [
              44147.0,
              7836.0
            ],
            [
              40493.0,
              7836.0
            ]
          ]
        ]
      },
      "properties": {
        "objectType": "annotation",
        "classification": {
          "name": "B | Marked (>50%) crypt distortion",
          "color": [
            0,
            51,
            0
          ]
        },
        "isLocked": true,
        "case_key": "2385991",
        "source": "B",
        "orig_class": "Marked (>50%) crypt distortion",
        "match": {
          "status": "component_fn",
          "component_id": "Marked (>50%) crypt distortion:comp_3",
          "class": "Marked (>50%) crypt distortion",
          "nA": 1,
          "nB": 0,
          "cas_union": 0.0,
          "oc_union": 0.0,
          "ar_union": Infinity,
          "area_a_union": 21401478.0,
          "area_b_union": 0.0,
          "area_intersection_union": 0.0
        }
      }
    },
    {
      "type": "Feature",
      "id": "e86d74d6-e73d-4012-b647-5e2b78d44324",
      "geometry": {
        "type": "Polygon",
        "coordinates": [
          [
            [
              38468.0,
              15530.0
            ],
            [
              38468.0,
              16252.0
            ],
            [
              39367.0,
              16252.0
            ],
            [
              39367.0,
              15530.0
            ],
            [
              38468.0,
              15530.0
            ]
          ]
        ]
      },
      "properties": {
        "objectType": "annotation",
        "case_key": "2385991",
        "source": "C",
        "orig_class": "unknown",
        "classification": {
          "name": "C | unknown"
        },
        "match": {
          "status": "component_fp",
          "component_id": "unknown:comp_0",
          "class": "unknown",
          "nA": 0,
          "nB": 1,
          "cas_union": 0.0,
          "oc_union": 0.0,
          "ar_union": Infinity,
          "area_a_union": 0.0,
          "area_b_union": 649078.0,
          "area_intersection_union": 0.0
        }
      }
    },
    {
      "type": "Feature",
      "id": "ab229b34-2892-43e0-a24c-53fe2e38676f",
      "geometry": {
        "type": "Polygon",
        "coordinates": [
          [
            [
              38934.0,
              11398.0
            ],
            [
              38934.0,
              12356.0
            ],
            [
              40497.0,
              12356.0
            ],
            [
              40497.0,
              11398.0
            ],
            [
              38934.0,
              11398.0
            ]
          ]
        ]
      },
      "properties": {
        "objectType": "annotation",
        "classification": {
          "name": "C | Crypt absces",
          "color": [
            240,
            77,
            141
          ]
        },
        "case_key": "2385991",
        "source": "C",
        "orig_class": "Crypt absces",
        "match": {
          "status": "component_fp",
          "component_id": "Crypt absces:comp_0",
          "class": "Crypt absces",
          "nA": 0,
          "nB": 1,
          "cas_union": 0.0,
          "oc_union": 0.0,
          "ar_union": Infinity,
          "area_a_union": 0.0,
          "area_b_union": 1497354.0,
          "area_intersection_union": 0.0
        }
      }
    },
    {
      "type": "Feature",
      "id": "163094fa-20cf-4fdd-a96c-69b204aba37b",
      "geometry": {
        "type": "Polygon",
        "coordinates": [
          [
            [
              37857.0,
              10187.0
            ],
            [
              37857.0,
              10940.0
            ],
            [
              38325.0,
              10940.0
            ],
            [
              38325.0,
              10187.0
            ],
            [
              37857.0,
              10187.0
            ]
          ]
        ]
      },
      "properties": {
        "objectType": "annotation",
        "classification": {
          "name": "C | Crypt absces",
          "color": [
            240,
            77,
            141
          ]
        },
        "case_key": "2385991",
        "source": "C",
        "orig_class": "Crypt absces",
        "match": {
          "status": "component_fp",
          "component_id": "Crypt absces:comp_1",
          "class": "Crypt absces",
          "nA": 0,
          "nB": 1,
          "cas_union": 0.0,
          "oc_union": 0.0,
          "ar_union": Infinity,
          "area_a_union": 0.0,
          "area_b_union": 352404.0,
          "area_intersection_union": 0.0
        }
      }
    },
    {
      "type": "Feature",
      "id": "bd478b8d-000b-498b-b968-b5060439551c",
      "geometry": {
        "type": "Polygon",
        "coordinates": [
          [
            [
              37519.0,
              10100.0
            ],
            [
              37519.0,
              10944.0
            ],
            [
              37864.0,
              10944.0
            ],
            [
              37864.0,
              10100.0
            ],
            [
              37519.0,
              10100.0
            ]
          ]
        ]
      },
      "properties": {
        "objectType": "annotation",
        "classification": {
          "name": "C | No ulcer/ moderate to severe activity",
          "color": [
            128,
            0,
            0
          ]
        },
        "case_key": "2385991",
        "source": "C",
        "orig_class": "No ulcer/ moderate to severe activity",
        "match": {
          "status": "component_fp",
          "component_id": "No ulcer/ moderate to severe activity:comp_0",
          "class": "No ulcer/ moderate to severe activity",
          "nA": 0,
          "nB": 1,
          "cas_union": 0.0,
          "oc_union": 0.0,
          "ar_union": Infinity,
          "area_a_union": 0.0,
          "area_b_union": 291180.0,
          "area_intersection_union": 0.0
        }
      }
    },
    {
      "type": "Feature",
      "id": "eb29cec1-1a31-4b0f-bb99-45cab146ff35",
      "geometry": {
        "type": "Polygon",
        "coordinates": [
          [
            [
              35597.0,
              19209.0
            ],
            [
              35597.0,
              20749.0
            ],
            [
              37857.0,
              20749.0
            ],
            [
              37857.0,
              19209.0
            ],
            [
              35597.0,
              19209.0
            ]
          ]
        ]
      },
      "properties": {
        "objectType": "annotation",
        "classification": {
          "name": "C | Basal plasmacytosis",
          "color": [
            202,
            65,
            86
          ]
        },
        "case_key": "2385991",
        "source": "C",
        "orig_class": "Basal plasmacytosis",
        "match": {
          "status": "component_fp",
          "component_id": "Basal plasmacytosis:comp_0",
          "class": "Basal plasmacytosis",
          "nA": 0,
          "nB": 1,
          "cas_union": 0.0,
          "oc_union": 0.0,
          "ar_union": Infinity,
          "area_a_union": 0.0,
          "area_b_union": 3480400.0,
          "area_intersection_union": 0.0
        }
      }
    },
    {
      "type": "Feature",
      "id": "b6e42e45-06aa-45d4-b0cb-fead34724d57",
      "geometry": {
        "type": "Polygon",
        "coordinates": [
          [
            [
              35507.0,
              20817.0
            ],
            [
              35507.0,
              22014.0
            ],
            [
              37165.0,
              22014.0
            ],
            [
              37165.0,
              20817.0
            ],
            [
              35507.0,
              20817.0
            ]
          ]
        ]
      },
      "properties": {
        "objectType": "annotation",
        "case_key": "2385991",
        "source": "C",
        "orig_class": "unknown",
        "classification": {
          "name": "C | unknown"
        },
        "match": {
          "status": "component_fp",
          "component_id": "unknown:comp_1",
          "class": "unknown",
          "nA": 0,
          "nB": 1,
          "cas_union": 0.0,
          "oc_union": 0.0,
          "ar_union": Infinity,
          "area_a_union": 0.0,
          "area_b_union": 1984626.0,
          "area_intersection_union": 0.0
        }
      }
    },
    {
      "type": "Feature",
      "id": "90e7b3a3-2815-4c51-890c-071c3e7d8af9",
      "geometry": {
        "type": "Polygon",
        "coordinates": [
          [
            [
              35203.0,
              21851.0
            ],
            [
              35203.0,
              23274.0
            ],
            [
              36412.0,
              23274.0
            ],
            [
              36412.0,
              21851.0
            ],
            [
              35203.0,
              21851.0
            ]
          ]
        ]
      },
      "properties": {
        "objectType": "annotation",
        "classification": {
          "name": "C | Basal plasmacytosis",
          "color": [
            202,
            65,
            86
          ]
        },
        "case_key": "2385991",
        "source": "C",
        "orig_class": "Basal plasmacytosis",
        "match": {
          "status": "component_fp",
          "component_id": "Basal plasmacytosis:comp_1",
          "class": "Basal plasmacytosis",
          "nA": 0,
          "nB": 1,
          "cas_union": 0.0,
          "oc_union": 0.0,
          "ar_union": Infinity,
          "area_a_union": 0.0,
          "area_b_union": 1720407.0,
          "area_intersection_union": 0.0
        }
      }
    },
    {
      "type": "Feature",
      "id": "34c39a0a-74e4-45f3-8b8c-a1b3846bb44c",
      "geometry": {
        "type": "Polygon",
        "coordinates": [
          [
            [
              31679.0,
              20636.0
            ],
            [
              31679.0,
              25647.0
            ],
            [
              33296.0,
              25647.0
            ],
            [
              33296.0,
              20636.0
            ],
            [
              31679.0,
              20636.0
            ]
          ]
        ]
      },
      "properties": {
        "objectType": "annotation",
        "case_key": "2385991",
        "source": "C",
        "orig_class": "unknown",
        "classification": {
          "name": "C | unknown"
        },
        "match": {
          "status": "component_fp",
          "component_id": "unknown:comp_2",
          "class": "unknown",
          "nA": 0,
          "nB": 1,
          "cas_union": 0.0,
          "oc_union": 0.0,
          "ar_union": Infinity,
          "area_a_union": 0.0,
          "area_b_union": 8102787.0,
          "area_intersection_union": 0.0
        }
      }
    },
    {
      "type": "Feature",
      "id": "d67fb132-3bac-4787-ac90-8d97ac062937",
      "geometry": {
        "type": "Polygon",
        "coordinates": [
          [
            [
              35350.0,
              13159.0
            ],
            [
              35350.0,
              17536.0
            ],
            [
              37188.0,
              17536.0
            ],
            [
              37188.0,
              13159.0
            ],
            [
              35350.0,
              13159.0
            ]
          ]
        ]
      },
      "properties": {
        "objectType": "annotation",
        "case_key": "2385991",
        "source": "C",
        "orig_class": "unknown",
        "classification": {
          "name": "C | unknown"
        },
        "match": {
          "status": "component_fp",
          "component_id": "unknown:comp_3",
          "class": "unknown",
          "nA": 0,
          "nB": 1,
          "cas_union": 0.0,
          "oc_union": 0.0,
          "ar_union": Infinity,
          "area_a_union": 0.0,
          "area_b_union": 8044926.0,
          "area_intersection_union": 0.0
        }
      }
    },
    {
      "type": "Feature",
      "id": "515b647d-9046-4c5f-aea7-34dbe6f5c3d4",
      "geometry": {
        "type": "Polygon",
        "coordinates": [
          [
            [
              37589.0,
              7511.0
            ],
            [
              37589.0,
              9516.0
            ],
            [
              39930.0,
              9516.0
            ],
            [
              39930.0,
              7511.0
            ],
            [
              37589.0,
              7511.0
            ]
          ]
        ]
      },
      "properties": {
        "objectType": "annotation",
        "case_key": "2385991",
        "source": "C",
        "orig_class": "unknown",
        "classification": {
          "name": "C | unknown"
        },
        "match": {
          "status": "component_fp",
          "component_id": "unknown:comp_4",
          "class": "unknown",
          "nA": 0,
          "nB": 1,
          "cas_union": 0.0,
          "oc_union": 0.0,
          "ar_union": Infinity,
          "area_a_union": 0.0,
          "area_b_union": 4693705.0,
          "area_intersection_union": 0.0
        }
      }
    },
    {
      "type": "Feature",
      "id": "01152d93-91dd-45b5-835c-6afc3f535a41",
      "geometry": {
        "type": "Polygon",
        "coordinates": [
          [
            [
              36044.0,
              8228.0
            ],
            [
              36044.0,
              10777.0
            ],
            [
              37426.0,
              10777.0
            ],
            [
              37426.0,
              8228.0
            ],
            [
              36044.0,
              8228.0
            ]
          ]
        ]
      },
      "properties": {
        "objectType": "annotation",
        "classification": {
          "name": "C | Ulcer/ erosions",
          "color": [
            255,
            0,
            0
          ]
        },
        "case_key": "2385991",
        "source": "C",
        "orig_class": "Ulcer/ erosions",
        "match": {
          "status": "component_fp",
          "component_id": "Ulcer/ erosions:comp_0",
          "class": "Ulcer/ erosions",
          "nA": 0,
          "nB": 1,
          "cas_union": 0.0,
          "oc_union": 0.0,
          "ar_union": Infinity,
          "area_a_union": 0.0,
          "area_b_union": 3522718.0,
          "area_intersection_union": 0.0
        }
      }
    },
    {
      "type": "Feature",
      "id": "d5cf6e08-ac11-4a17-8353-fbfce732eca2",
      "geometry": {
        "type": "Polygon",
        "coordinates": [
          [
            [
              34930.0,
              11782.0
            ],
            [
              34930.0,
              13171.0
            ],
            [
              36029.0,
              13171.0
            ],
            [
              36029.0,
              11782.0
            ],
            [
              34930.0,
              11782.0
            ]
          ]
        ]
      },
      "properties": {
        "objectType": "annotation",
        "classification": {
          "name": "C | Ulcer/ erosions",
          "color": [
            255,
            0,
            0
          ]
        },
        "case_key": "2385991",
        "source": "C",
        "orig_class": "Ulcer/ erosions",
        "match": {
          "status": "component_fp",
          "component_id": "Ulcer/ erosions:comp_1",
          "class": "Ulcer/ erosions",
          "nA": 0,
          "nB": 1,
          "cas_union": 0.0,
          "oc_union": 0.0,
          "ar_union": Infinity,
          "area_a_union": 0.0,
          "area_b_union": 1526511.0,
          "area_intersection_union": 0.0
        }
      }
    },
    {
      "type": "Feature",
      "id": "b933ec73-a106-462a-be0b-3de479a6a3da",
      "geometry": {
        "type": "Polygon",
        "coordinates": [
          [
            [
              41777.0,
              13366.0
            ],
            [
              41777.0,
              15096.0
            ],
            [
              43535.0,
              15096.0
            ],
            [
              43535.0,
              13366.0
            ],
            [
              41777.0,
              13366.0
            ]
          ]
        ]
      },
      "properties": {
        "objectType": "annotation",
        "classification": {
          "name": "C | Ulcer/ erosions",
          "color": [
            255,
            0,
            0
          ]
        },
        "case_key": "2385991",
        "source": "C",
        "orig_class": "Ulcer/ erosions",
        "match": {
          "status": "component_fp",
          "component_id": "Ulcer/ erosions:comp_2",
          "class": "Ulcer/ erosions",
          "nA": 0,
          "nB": 1,
          "cas_union": 0.0,
          "oc_union": 0.0,
          "ar_union": Infinity,
          "area_a_union": 0.0,
          "area_b_union": 3041340.0,
          "area_intersection_union": 0.0
        }
      }
    },
    {
      "type": "Feature",
      "id": "05eaf60f-1445-4546-b622-43293be1cb56",
      "geometry": {
        "type": "Polygon",
        "coordinates": [
          [
            [
              40068.0,
              7895.0
            ],
            [
              40068.0,
              13302.0
            ],
            [
              44948.0,
              13302.0
            ],
            [
              44948.0,
              7895.0
            ],
            [
              40068.0,
              7895.0
            ]
          ]
        ]
      },
      "properties": {
        "objectType": "annotation",
        "classification": {
          "name": "C | No ulcer/ moderate to severe activity",
          "color": [
            128,
            0,
            0
          ]
        },
        "case_key": "2385991",
        "source": "C",
        "orig_class": "No ulcer/ moderate to severe activity",
        "match": {
          "status": "component_fp",
          "component_id": "No ulcer/ moderate to severe activity:comp_1",
          "class": "No ulcer/ moderate to severe activity",
          "nA": 0,
          "nB": 1,
          "cas_union": 0.0,
          "oc_union": 0.0,
          "ar_union": Infinity,
          "area_a_union": 0.0,
          "area_b_union": 26386160.0,
          "area_intersection_union": 0.0
        }
      }
    },
    {
      "type": "Feature",
      "id": "747d2c56-84c6-4cd8-baf2-425fdd5211c0",
      "geometry": {
        "type": "Polygon",
        "coordinates": [
          [
            [
              38754.0,
              13059.0
            ],
            [
              38754.0,
              21438.0
            ],
            [
              42797.0,
              21438.0
            ],
            [
              42797.0,
              13059.0
            ],
            [
              38754.0,
              13059.0
            ]
          ]
        ]
      },
      "properties": {
        "objectType": "annotation",
        "classification": {
          "name": "C | No ulcer/ moderate to severe activity",
          "color": [
            128,
            0,
            0
          ]
        },
        "case_key": "2385991",
        "source": "C",
        "orig_class": "No ulcer/ moderate to severe activity",
        "match": {
          "status": "component_fp",
          "component_id": "No ulcer/ moderate to severe activity:comp_2",
          "class": "No ulcer/ moderate to severe activity",
          "nA": 0,
          "nB": 1,
          "cas_union": 0.0,
          "oc_union": 0.0,
          "ar_union": Infinity,
          "area_a_union": 0.0,
          "area_b_union": 33876297.0,
          "area_intersection_union": 0.0
        }
      }
    },
    {
      "type": "Feature",
      "id": "5c4ee4a0-5275-4316-9ec3-6a1cf18eebca",
      "geometry": {
        "type": "Polygon",
        "coordinates": [
          [
            [
              32702.0,
              16500.0
            ],
            [
              32702.0,
              21815.0
            ],
            [
              35582.0,
              21815.0
            ],
            [
              35582.0,
              16500.0
            ],
            [
              32702.0,
              16500.0
            ]
          ]
        ]
      },
      "properties": {
        "objectType": "annotation",
        "classification": {
          "name": "C | No ulcer/ moderate to severe activity",
          "color": [
            128,
            0,
            0
          ]
        },
        "case_key": "2385991",
        "source": "C",
        "orig_class": "No ulcer/ moderate to severe activity",
        "match": {
          "status": "component_fp",
          "component_id": "No ulcer/ moderate to severe activity:comp_3",
          "class": "No ulcer/ moderate to severe activity",
          "nA": 0,
          "nB": 1,
          "cas_union": 0.0,
          "oc_union": 0.0,
          "ar_union": Infinity,
          "area_a_union": 0.0,
          "area_b_union": 15307200.0,
          "area_intersection_union": 0.0
        }
      }
    },
    {
      "type": "Feature",
      "id": "ad196bd1-9a34-4fb2-a204-55a3d9912750",
      "geometry": {
        "type": "Polygon",
        "coordinates": [
          [
            [
              33355.0,
              21890.0
            ],
            [
              33355.0,
              24912.0
            ],
            [
              36394.0,
              24912.0
            ],
            [
              36394.0,
              21890.0
            ],
            [
              33355.0,
              21890.0
            ]
          ]
        ]
      },
      "properties": {
        "objectType": "annotation",
        "classification": {
          "name": "C | No ulcer/ moderate to severe activity",
          "color": [
            128,
            0,
            0
          ]
        },
        "case_key": "2385991",
        "source": "C",
        "orig_class": "No ulcer/ moderate to severe activity",
        "match": {
          "status": "component_fp",
          "component_id": "No ulcer/ moderate to severe activity:comp_4",
          "class": "No ulcer/ moderate to severe activity",
          "nA": 0,
          "nB": 1,
          "cas_union": 0.0,
          "oc_union": 0.0,
          "ar_union": Infinity,
          "area_a_union": 0.0,
          "area_b_union": 9183858.0,
          "area_intersection_union": 0.0
        }
      }
    },
    {
      "type": "Feature",
      "id": "17700d0d-af52-4259-902e-489bcdd57a9f",
      "geometry": {
        "type": "Polygon",
        "coordinates": [
          [
            [
              37222.0,
              20869.0
            ],
            [
              37222.0,
              23840.0
            ],
            [
              38570.0,
              23840.0
            ],
            [
              38570.0,
              20869.0
            ],
            [
              37222.0,
              20869.0
            ]
          ]
        ]
      },
      "properties": {
        "objectType": "annotation",
        "classification": {
          "name": "C | No/mild mononuclear aggregates",
          "color": [
            185,
            185,
            116
          ]
        },
        "case_key": "2385991",
        "source": "C",
        "orig_class": "No/mild mononuclear aggregates",
        "match": {
          "status": "component_fp",
          "component_id": "No/mild mononuclear aggregates:comp_0",
          "class": "No/mild mononuclear aggregates",
          "nA": 0,
          "nB": 1,
          "cas_union": 0.0,
          "oc_union": 0.0,
          "ar_union": Infinity,
          "area_a_union": 0.0,
          "area_b_union": 4004908.0,
          "area_intersection_union": 0.0
        }
      }
    },
    {
      "type": "Feature",
      "id": "19cce022-f988-4f0c-97bc-ee946ca22f4a",
      "geometry": {
        "type": "Polygon",
        "coordinates": [
          [
            [
              36414.0,
              22037.0
            ],
            [
              36414.0,
              24320.0
            ],
            [
              37299.0,
              24320.0
            ],
            [
              37299.0,
              22037.0
            ],
            [
              36414.0,
              22037.0
            ]
          ]
        ]
      },
      "properties": {
        "objectType": "annotation",
        "classification": {
          "name": "C | No/mild mononuclear aggregates",
          "color": [
            185,
            185,
            116
          ]
        },
        "case_key": "2385991",
        "source": "C",
        "orig_class": "No/mild mononuclear aggregates",
        "match": {
          "status": "component_fp",
          "component_id": "No/mild mononuclear aggregates:comp_1",
          "class": "No/mild mononuclear aggregates",
          "nA": 0,
          "nB": 1,
          "cas_union": 0.0,
          "oc_union": 0.0,
          "ar_union": Infinity,
          "area_a_union": 0.0,
          "area_b_union": 2020455.0,
          "area_intersection_union": 0.0
        }
      }
    },
    {
      "type": "Feature",
      "id": "b00b9387-68d7-4ac2-a059-61af679c930f",
      "geometry": {
        "type": "Polygon",
        "coordinates": [
          [
            [
              36591.0,
              15680.0
            ],
            [
              36591.0,
              19171.0
            ],
            [
              38742.0,
              19171.0
            ],
            [
              38742.0,
              15680.0
            ],
            [
              36591.0,
              15680.0
            ]
          ]
        ]
      },
      "properties": {
        "objectType": "annotation",
        "case_key": "2385991",
        "source": "C",
        "orig_class": "unknown",
        "classification": {
          "name": "C | unknown"
        },
        "match": {
          "status": "component_fp",
          "component_id": "unknown:comp_5",
          "class": "unknown",
          "nA": 0,
          "nB": 1,
          "cas_union": 0.0,
          "oc_union": 0.0,
          "ar_union": Infinity,
          "area_a_union": 0.0,
          "area_b_union": 7509141.0,
          "area_intersection_union": 0.0
        }
      }
    },
    {
      "type": "Feature",
      "id": "300e1071-b38c-4218-9eb4-1fef6b88ff2a",
      "geometry": {
        "type": "Polygon",
        "coordinates": [
          [
            [
              36034.0,
              10841.0
            ],
            [
              36034.0,
              13190.0
            ],
            [
              38835.0,
              13190.0
            ],
            [
              38835.0,
              10841.0
            ],
            [
              36034.0,
              10841.0
            ]
          ]
        ]
      },
      "properties": {
        "objectType": "annotation",
        "case_key": "2385991",
        "source": "C",
        "orig_class": "unknown",
        "classification": {
          "name": "C | unknown"
        },
        "match": {
          "status": "component_fp",
          "component_id": "unknown:comp_6",
          "class": "unknown",
          "nA": 0,
          "nB": 1,
          "cas_union": 0.0,
          "oc_union": 0.0,
          "ar_union": Infinity,
          "area_a_union": 0.0,
          "area_b_union": 6579549.0,
          "area_intersection_union": 0.0
        }
      }
    },
    {
      "type": "Feature",
      "id": "207262ae-d8e1-4ab4-afb3-c48ba90c24e0",
      "geometry": {
        "type": "Polygon",
        "coordinates": [
          [
            [
              37247.0,
              13202.0
            ],
            [
              37247.0,
              15630.0
            ],
            [
              38809.0,
              15630.0
            ],
            [
              38809.0,
              13202.0
            ],
            [
              37247.0,
              13202.0
            ]
          ]
        ]
      },
      "properties": {
        "objectType": "annotation",
        "classification": {
          "name": "C | No ulcer/ moderate to severe activity",
          "color": [
            128,
            0,
            0
          ]
        },
        "case_key": "2385991",
        "source": "C",
        "orig_class": "No ulcer/ moderate to severe activity",
        "match": {
          "status": "component_fp",
          "component_id": "No ulcer/ moderate to severe activity:comp_5",
          "class": "No ulcer/ moderate to severe activity",
          "nA": 0,
          "nB": 1,
          "cas_union": 0.0,
          "oc_union": 0.0,
          "ar_union": Infinity,
          "area_a_union": 0.0,
          "area_b_union": 3792536.0,
          "area_intersection_union": 0.0
        }
      }
    },
    {
      "type": "Feature",
      "id": "e1d3804e-8018-4dea-b26a-b9f24048c1e6",
      "geometry": {
        "type": "Polygon",
        "coordinates": [
          [
            [
              31711.0,
              7497.0
            ],
            [
              31711.0,
              25699.0
            ],
            [
              44789.0,
              25699.0
            ],
            [
              44789.0,
              7497.0
            ],
            [
              31711.0,
              7497.0
            ]
          ]
        ]
      },
      "properties": {
        "objectType": "annotation",
        "classification": {
          "name": "C | Diffuse crypt distortion (>50% area in each fragment)",
          "color": [
            0,
            51,
            0
          ]
        },
        "case_key": "2385991",
        "source": "C",
        "orig_class": "Diffuse crypt distortion (>50% area in each fragment)",
        "match": {
          "status": "component_fp",
          "component_id": "Diffuse crypt distortion (>50% area in each fragment):comp_0",
          "class": "Diffuse crypt distortion (>50% area in each fragment)",
          "nA": 0,
          "nB": 1,
          "cas_union": 0.0,
          "oc_union": 0.0,
          "ar_union": Infinity,
          "area_a_union": 0.0,
          "area_b_union": 238045756.0,
          "area_intersection_union": 0.0
        }
      }
    }
  ]
}