{
  "type": "FeatureCollection",
  "features": [
    {
      "type": "Feature",
      "id": "a8b0b116-ce6d-40c0-abb0-8f6bdbc0e688",
      "geometry": {
        "type": "Polygon",
        "coordinates": [
          [
            [
              9176.0,
              16806.0
            ],
            [
              9618.0,
              16806.0
            ],
            [
              9618.0,
              17306.0
            ],
            [
              9176.0,
              17306.0
            ],
            [
              9176.0,
              16806.0
            ]
          ]
        ]
      },
      "properties": {
        "objectType": "annotation",
        "classification": {
          "name": "A | Ulcer/ erosion",
          "color": [
            255,
            0,
            0
          ]
        },
        "case_key": "S2415106A01",
        "source": "A",
        "orig_class": "Ulcer/ erosion",
        "match": {
          "status": "component_tp",
          "component_id": "Ulcer/ erosion:comp_8",
          "class": "Ulcer/ erosion",
          "nA": 1,
          "nB": 1,
          "cas_union": 0.8497394728134732,
          "oc_union": 1.0,
          "ar_union": 3.130888123875501,
          "area_a_union": 221000.0,
          "area_b_union": 70587.0,
          "area_intersection_union": 70587.0
        }
      }
    },
    {
      "type": "Feature",
      "id": "a238ddc2-ef24-4bef-8941-a051cef15c23",
      "geometry": {
        "type": "Polygon",
        "coordinates": [
          [
            [
              5829.0,
              18947.0
            ],
            [
              6076.0,
              18947.0
            ],
            [
              6076.0,
              19377.0
            ],
            [
              5829.0,
              19377.0
            ],
            [
              5829.0,
              18947.0
            ]
          ]
        ]
      },
      "properties": {
        "objectType": "annotation",
        "classification": {
          "name": "A | Ulcer/ erosion",
          "color": [
            255,
            0,
            0
          ]
        },
        "case_key": "S2415106A01",
        "source": "A",
        "orig_class": "Ulcer/ erosion",
        "match": {
          "status": "component_tp",
          "component_id": "Ulcer/ erosion:comp_10",
          "class": "Ulcer/ erosion",
          "nA": 1,
          "nB": 1,
          "cas_union": 0.47664722660889725,
          "oc_union": 0.5226061576122776,
          "ar_union": 2.358779775915639,
          "area_a_union": 106210.0,
          "area_b_union": 250526.0,
          "area_intersection_union": 55506.0
        }
      }
    },
    {
      "type": "Feature",
      "id": "e2293940-2f75-45cc-98f3-f330c0e0d4f3",
      "geometry": {
        "type": "Polygon",
        "coordinates": [
          [
            [
              6514.0,
              17375.0
            ],
            [
              7615.0,
              17375.0
            ],
            [
              7615.0,
              18607.0
            ],
            [
              6514.0,
              18607.0
            ],
            [
              6514.0,
              17375.0
            ]
          ]
        ]
      },
      "properties": {
        "objectType": "annotation",
        "classification": {
          "name": "A | Crypt abscess",
          "color": [
            240,
            77,
            141
          ]
        },
        "case_key": "S2415106A01",
        "source": "A",
        "orig_class": "Crypt abscess",
        "match": {
          "status": "component_tp",
          "component_id": "Crypt abscess:comp_0",
          "class": "Crypt abscess",
          "nA": 1,
          "nB": 1,
          "cas_union": 0.9796867364781947,
          "oc_union": 0.9799270072992701,
          "ar_union": 1.045287532057605,
          "area_a_union": 1356432.0,
          "area_b_union": 1297664.0,
          "area_intersection_union": 1271616.0
        }
      }
    },
    {
      "type": "Feature",
      "id": "a9fcb843-fb24-4227-a802-4ac166eab5a8",
      "geometry": {
        "type": "Polygon",
        "coordinates": [
          [
            [
              7450.0,
              17986.0
            ],
            [
              8507.0,
              17986.0
            ],
            [
              8507.0,
              19101.0
            ],
            [
              7450.0,
              19101.0
            ],
            [
              7450.0,
              17986.0
            ]
          ]
        ]
      },
      "properties": {
        "objectType": "annotation",
        "classification": {
          "name": "A | Crypt abscess",
          "color": [
            240,
            77,
            141
          ]
        },
        "case_key": "S2415106A01",
        "source": "A",
        "orig_class": "Crypt abscess",
        "match": {
          "status": "component_tp",
          "component_id": "Crypt abscess:comp_1",
          "class": "Crypt abscess",
          "nA": 1,
          "nB": 1,
          "cas_union": 0.9695227560519152,
          "oc_union": 0.9712543554006968,
          "ar_union": 1.126910926079623,
          "area_a_union": 1178555.0,
          "area_b_union": 1045828.0,
          "area_intersection_union": 1015765.0
        }
      }
    },
    {
      "type": "Feature",
      "id": "d481d924-01d4-403b-b83e-b4070b0adf18",
      "geometry": {
        "type": "Polygon",
        "coordinates": [
          [
            [
              8070.0,
              18859.0
            ],
            [
              8589.0,
              18859.0
            ],
            [
              8589.0,
              19857.0
            ],
            [
              8070.0,
              19857.0
            ],
            [
              8070.0,
              18859.0
            ]
          ]
        ]
      },
      "properties": {
        "objectType": "annotation",
        "classification": {
          "name": "A | Crypt abscess",
          "color": [
            240,
            77,
            141
          ]
        },
        "case_key": "S2415106A01",
        "source": "A",
        "orig_class": "Crypt abscess",
        "match": {
          "status": "component_tp",
          "component_id": "Crypt abscess:comp_2",
          "class": "Crypt abscess",
          "nA": 1,
          "nB": 1,
          "cas_union": 0.9048634606954752,
          "oc_union": 0.9057591623036649,
          "ar_union": 1.0930443095272764,
          "area_a_union": 517962.0,
          "area_b_union": 473871.0,
          "area_intersection_union": 429213.0
        }
      }
    },
    {
      "type": "Feature",
      "id": "8402220d-6502-42fc-9050-a94d1167d8b0",
      "geometry": {
        "type": "Polygon",
        "coordinates": [
          [
            [
              10105.0,
              13510.0
            ],
            [
              10327.0,
              13510.0
            ],
            [
              10327.0,
              13973.0
            ],
            [
              10105.0,
              13973.0
            ],
            [
              10105.0,
              13510.0
            ]
          ]
        ]
      },
      "properties": {
        "objectType": "annotation",
        "classification": {
          "name": "A | Ulcer/ erosion",
          "color": [
            255,
            0,
            0
          ]
        },
        "case_key": "S2415106A01",
        "source": "A",
        "orig_class": "Ulcer/ erosion",
        "match": {
          "status": "component_tp",
          "component_id": "Ulcer/ erosion:comp_12",
          "class": "Ulcer/ erosion",
          "nA": 1,
          "nB": 1,
          "cas_union": 0.764053388631067,
          "oc_union": 0.8468468468468469,
          "ar_union": 2.477438561671823,
          "area_a_union": 102786.0,
          "area_b_union": 254646.0,
          "area_intersection_union": 87044.0
        }
      }
    },
    {
      "type": "Feature",
      "id": "9967a919-c6eb-441b-9c73-369324c4b917",
      "geometry": {
        "type": "Polygon",
        "coordinates": [
          [
            [
              6760.0,
              11234.0
            ],
            [
              7297.0,
              11234.0
            ],
            [
              7297.0,
              12190.0
            ],
            [
              6760.0,
              12190.0
            ],
            [
              6760.0,
              11234.0
            ]
          ]
        ]
      },
      "properties": {
        "objectType": "annotation",
        "classification": {
          "name": "A | Basal Plasmacytosis",
          "color": [
            202,
            65,
            86
          ]
        },
        "case_key": "S2415106A01",
        "source": "A",
        "orig_class": "Basal Plasmacytosis",
        "match": {
          "status": "component_tp",
          "component_id": "Basal Plasmacytosis:comp_2",
          "class": "Basal Plasmacytosis",
          "nA": 1,
          "nB": 1,
          "cas_union": 0.3667787241033825,
          "oc_union": 0.3668407310704961,
          "ar_union": 1.0374588752637237,
          "area_a_union": 513372.0,
          "area_b_union": 494836.0,
          "area_intersection_union": 181526.0
        }
      }
    },
    {
      "type": "Feature",
      "id": "7bddb26a-5462-4b47-906d-8412f1283b3e",
      "geometry": {
        "type": "Polygon",
        "coordinates": [
          [
            [
              10285.0,
              25172.0
            ],
            [
              11499.0,
              25172.0
            ],
            [
              11499.0,
              26806.0
            ],
            [
              10285.0,
              26806.0
            ],
            [
              10285.0,
              25172.0
            ]
          ]
        ]
      },
      "properties": {
        "objectType": "annotation",
        "classification": {
          "name": "A | Moderate to marked mononuclear cell infiltrate",
          "color": [
            21,
            11,
            49
          ]
        },
        "case_key": "S2415106A01",
        "source": "A",
        "orig_class": "Moderate to marked mononuclear cell infiltrate",
        "match": {
          "status": "component_tp",
          "component_id": "Moderate to marked mononuclear cell infiltrate:comp_0",
          "class": "Moderate to marked mononuclear cell infiltrate",
          "nA": 1,
          "nB": 2,
          "cas_union": 0.7324427801009873,
          "oc_union": 0.7326251867744531,
          "ar_union": 1.0456435425946575,
          "area_a_union": 1983676.0,
          "area_b_union": 2074218.0,
          "area_intersection_union": 1453291.0
        }
      }
    },
    {
      "type": "Feature",
      "id": "b7007d60-cd25-4f99-989d-a2926e7aef87",
      "geometry": {
        "type": "Polygon",
        "coordinates": [
          [
            [
              8393.0,
              25710.0
            ],
            [
              8673.0,
              25710.0
            ],
            [
              8673.0,
              26096.0
            ],
            [
              8393.0,
              26096.0
            ],
            [
              8393.0,
              25710.0
            ]
          ]
        ]
      },
      "properties": {
        "objectType": "annotation",
        "classification": {
          "name": "A | Moderate to marked mononuclear cell infiltrate",
          "color": [
            21,
            11,
            49
          ]
        },
        "case_key": "S2415106A01",
        "source": "A",
        "orig_class": "Moderate to marked mononuclear cell infiltrate",
        "match": {
          "status": "component_tp",
          "component_id": "Moderate to marked mononuclear cell infiltrate:comp_2",
          "class": "Moderate to marked mononuclear cell infiltrate",
          "nA": 1,
          "nB": 1,
          "cas_union": 0.4334663718451571,
          "oc_union": 0.44041450777202074,
          "ar_union": 1.4285714285714286,
          "area_a_union": 108080.0,
          "area_b_union": 75656.0,
          "area_intersection_union": 33320.0
        }
      }
    },
    {
      "type": "Feature",
      "id": "1a3f9b3b-35bc-4c15-b6c7-255a98afc163",
      "geometry": {
        "type": "Polygon",
        "coordinates": [
          [
            [
              10704.0,
              20326.0
            ],
            [
              11091.0,
              20326.0
            ],
            [
              11091.0,
              20616.0
            ],
            [
              10704.0,
              20616.0
            ],
            [
              10704.0,
              20326.0
            ]
          ]
        ]
      },
      "properties": {
        "objectType": "annotation",
        "classification": {
          "name": "A | Moderate to marked mononuclear cell infiltrate",
          "color": [
            21,
            11,
            49
          ]
        },
        "case_key": "S2415106A01",
        "source": "A",
        "orig_class": "Moderate to marked mononuclear cell infiltrate",
        "match": {
          "status": "component_tp",
          "component_id": "Moderate to marked mononuclear cell infiltrate:comp_5",
          "class": "Moderate to marked mononuclear cell infiltrate",
          "nA": 1,
          "nB": 1,
          "cas_union": 0.8846565824201308,
          "oc_union": 0.9069767441860465,
          "ar_union": 1.5627906976744186,
          "area_a_union": 112230.0,
          "area_b_union": 175392.0,
          "area_intersection_union": 101790.0
        }
      }
    },
    {
      "type": "Feature",
      "id": "f3557ca8-5085-4db6-9818-9d6fb03a0808",
      "geometry": {
        "type": "Polygon",
        "coordinates": [
          [
            [
              12079.0,
              20755.0
            ],
            [
              12681.0,
              20755.0
            ],
            [
              12681.0,
              21475.0
            ],
            [
              12079.0,
              21475.0
            ],
            [
              12079.0,
              20755.0
            ]
          ]
        ]
      },
      "properties": {
        "objectType": "annotation",
        "classification": {
          "name": "A | Moderate to marked mononuclear cell infiltrate",
          "color": [
            21,
            11,
            49
          ]
        },
        "case_key": "S2415106A01",
        "source": "A",
        "orig_class": "Moderate to marked mononuclear cell infiltrate",
        "match": {
          "status": "component_tp",
          "component_id": "Moderate to marked mononuclear cell infiltrate:comp_6",
          "class": "Moderate to marked mononuclear cell infiltrate",
          "nA": 1,
          "nB": 1,
          "cas_union": 0.5165524142906617,
          "oc_union": 0.547808764940239,
          "ar_union": 1.984888034070614,
          "area_a_union": 433440.0,
          "area_b_union": 218370.0,
          "area_intersection_union": 119625.0
        }
      }
    },
    {
      "type": "Feature",
      "id": "8831238c-5ac9-4a1b-89b1-e171b5467586",
      "geometry": {
        "type": "Polygon",
        "coordinates": [
          [
            [
              12273.0,
              21615.0
            ],
            [
              12778.0,
              21615.0
            ],
            [
              12778.0,
              22453.0
            ],
            [
              12273.0,
              22453.0
            ],
            [
              12273.0,
              21615.0
            ]
          ]
        ]
      },
      "properties": {
        "objectType": "annotation",
        "classification": {
          "name": "A | Moderate to marked mononuclear cell infiltrate",
          "color": [
            21,
            11,
            49
          ]
        },
        "case_key": "S2415106A01",
        "source": "A",
        "orig_class": "Moderate to marked mononuclear cell infiltrate",
        "match": {
          "status": "component_tp",
          "component_id": "Moderate to marked mononuclear cell infiltrate:comp_7",
          "class": "Moderate to marked mononuclear cell infiltrate",
          "nA": 1,
          "nB": 1,
          "cas_union": 0.760919979193243,
          "oc_union": 0.9251101321585903,
          "ar_union": 3.4911481793133032,
          "area_a_union": 423190.0,
          "area_b_union": 121218.0,
          "area_intersection_union": 112140.0
        }
      }
    },
    {
      "type": "Feature",
      "id": "38871548-8cc2-4e90-b338-ae4e0e04c2af",
      "geometry": {
        "type": "Polygon",
        "coordinates": [
          [
            [
              11639.0,
              25828.0
            ],
            [
              12455.0,
              25828.0
            ],
            [
              12455.0,
              27278.0
            ],
            [
              11639.0,
              27278.0
            ],
            [
              11639.0,
              25828.0
            ]
          ]
        ]
      },
      "properties": {
        "objectType": "annotation",
        "classification": {
          "name": "A | Moderate to marked mononuclear cell infiltrate",
          "color": [
            21,
            11,
            49
          ]
        },
        "case_key": "S2415106A01",
        "source": "A",
        "orig_class": "Moderate to marked mononuclear cell infiltrate",
        "match": {
          "status": "component_tp",
          "component_id": "Moderate to marked mononuclear cell infiltrate:comp_9",
          "class": "Moderate to marked mononuclear cell infiltrate",
          "nA": 1,
          "nB": 1,
          "cas_union": 0.833622889161872,
          "oc_union": 0.9357384441939121,
          "ar_union": 2.6155580608793687,
          "area_a_union": 1183200.0,
          "area_b_union": 452370.0,
          "area_intersection_union": 423300.0
        }
      }
    },
    {
      "type": "Feature",
      "id": "36100016-6501-45cf-a0d1-19e8a55582a0",
      "geometry": {
        "type": "Polygon",
        "coordinates": [
          [
            [
              11467.0,
              24839.0
            ],
            [
              11886.0,
              24839.0
            ],
            [
              11886.0,
              25505.0
            ],
            [
              11467.0,
              25505.0
            ],
            [
              11467.0,
              24839.0
            ]
          ]
        ]
      },
      "properties": {
        "objectType": "annotation",
        "classification": {
          "name": "A | Moderate to marked mononuclear cell infiltrate",
          "color": [
            21,
            11,
            49
          ]
        },
        "case_key": "S2415106A01",
        "source": "A",
        "orig_class": "Moderate to marked mononuclear cell infiltrate",
        "match": {
          "status": "component_tp",
          "component_id": "Moderate to marked mononuclear cell infiltrate:comp_12",
          "class": "Moderate to marked mononuclear cell infiltrate",
          "nA": 1,
          "nB": 1,
          "cas_union": 0.742988671867077,
          "oc_union": 0.7430461487740724,
          "ar_union": 1.0251886731600335,
          "area_a_union": 279054.0,
          "area_b_union": 286083.0,
          "area_intersection_union": 207350.0
        }
      }
    },
    {
      "type": "Feature",
      "id": "556403c3-a3f5-407a-a489-d34dcb13e6b1",
      "geometry": {
        "type": "Polygon",
        "coordinates": [
          [
            [
              11177.0,
              19810.0
            ],
            [
              11617.0,
              19810.0
            ],
            [
              11617.0,
              20175.0
            ],
            [
              11177.0,
              20175.0
            ],
            [
              11177.0,
              19810.0
            ]
          ]
        ]
      },
      "properties": {
        "objectType": "annotation",
        "classification": {
          "name": "A | Moderate to marked mononuclear cell infiltrate",
          "color": [
            21,
            11,
            49
          ]
        },
        "case_key": "S2415106A01",
        "source": "A",
        "orig_class": "Moderate to marked mononuclear cell infiltrate",
        "match": {
          "status": "component_tp",
          "component_id": "Moderate to marked mononuclear cell infiltrate:comp_13",
          "class": "Moderate to marked mononuclear cell infiltrate",
          "nA": 1,
          "nB": 1,
          "cas_union": 0.8290554070487146,
          "oc_union": 0.8351648351648352,
          "ar_union": 1.2742492164874837,
          "area_a_union": 160600.0,
          "area_b_union": 126035.0,
          "area_intersection_union": 105260.0
        }
      }
    },
    {
      "type": "Feature",
      "id": "fd5d1c54-95fe-49fa-a047-0f28c70d9c44",
      "geometry": {
        "type": "Polygon",
        "coordinates": [
          [
            [
              10575.0,
              28428.0
            ],
            [
              12004.0,
              28428.0
            ],
            [
              12004.0,
              28955.0
            ],
            [
              10575.0,
              28955.0
            ],
            [
              10575.0,
              28428.0
            ]
          ]
        ]
      },
      "properties": {
        "objectType": "annotation",
        "classification": {
          "name": "A | Moderate to marked mononuclear cell infiltrate",
          "color": [
            21,
            11,
            49
          ]
        },
        "case_key": "S2415106A01",
        "source": "A",
        "orig_class": "Moderate to marked mononuclear cell infiltrate",
        "match": {
          "status": "component_tp",
          "component_id": "Moderate to marked mononuclear cell infiltrate:comp_14",
          "class": "Moderate to marked mononuclear cell infiltrate",
          "nA": 1,
          "nB": 1,
          "cas_union": 0.8202990940778786,
          "oc_union": 0.8714555765595463,
          "ar_union": 2.0050666950664287,
          "area_a_union": 753083.0,
          "area_b_union": 375590.0,
          "area_intersection_union": 327310.0
        }
      }
    },
    {
      "type": "Feature",
      "id": "100f0a11-952d-43eb-9922-0560b95da506",
      "geometry": {
        "type": "Polygon",
        "coordinates": [
          [
            [
              9747.0,
              28342.0
            ],
            [
              10607.0,
              28342.0
            ],
            [
              10607.0,
              28729.0
            ],
            [
              9747.0,
              28729.0
            ],
            [
              9747.0,
              28342.0
            ]
          ]
        ]
      },
      "properties": {
        "objectType": "annotation",
        "classification": {
          "name": "A | Moderate to marked mononuclear cell infiltrate",
          "color": [
            21,
            11,
            49
          ]
        },
        "case_key": "S2415106A01",
        "source": "A",
        "orig_class": "Moderate to marked mononuclear cell infiltrate",
        "match": {
          "status": "component_tp",
          "component_id": "Moderate to marked mononuclear cell infiltrate:comp_15",
          "class": "Moderate to marked mononuclear cell infiltrate",
          "nA": 1,
          "nB": 1,
          "cas_union": 0.8592093209734843,
          "oc_union": 0.8620689655172413,
          "ar_union": 1.1770822281167108,
          "area_a_union": 332820.0,
          "area_b_union": 282750.0,
          "area_intersection_union": 243750.0
        }
      }
    },
    {
      "type": "Feature",
      "id": "ce5e1870-98fa-420b-9adb-15fb7cecfc4b",
      "geometry": {
        "type": "Polygon",
        "coordinates": [
          [
            [
              10510.0,
              29105.0
            ],
            [
              11338.0,
              29105.0
            ],
            [
              11338.0,
              29761.0
            ],
            [
              10510.0,
              29761.0
            ],
            [
              10510.0,
              29105.0
            ]
          ]
        ]
      },
      "properties": {
        "objectType": "annotation",
        "classification": {
          "name": "A | Moderate to marked mononuclear cell infiltrate",
          "color": [
            21,
            11,
            49
          ]
        },
        "case_key": "S2415106A01",
        "source": "A",
        "orig_class": "Moderate to marked mononuclear cell infiltrate",
        "match": {
          "status": "component_tp",
          "component_id": "Moderate to marked mononuclear cell infiltrate:comp_16",
          "class": "Moderate to marked mononuclear cell infiltrate",
          "nA": 1,
          "nB": 1,
          "cas_union": 0.6618729882442916,
          "oc_union": 0.6643741403026134,
          "ar_union": 1.1897072867293388,
          "area_a_union": 543168.0,
          "area_b_union": 456556.0,
          "area_intersection_union": 303324.0
        }
      }
    },
    {
      "type": "Feature",
      "id": "b5632676-4b62-49b4-8ab3-caa44836b67c",
      "geometry": {
        "type": "Polygon",
        "coordinates": [
          [
            [
              20894.0,
              11852.0
            ],
            [
              27481.0,
              11852.0
            ],
            [
              27481.0,
              18396.0
            ],
            [
              20894.0,
              18396.0
            ],
            [
              20894.0,
              11852.0
            ]
          ]
        ]
      },
      "properties": {
        "objectType": "annotation",
        "classification": {
          "name": "A | Marked (>50%) crypt distortion",
          "color": [
            0,
            51,
            0
          ]
        },
        "case_key": "S2415106A01",
        "source": "A",
        "orig_class": "Marked (>50%) crypt distortion",
        "match": {
          "status": "component_tp",
          "component_id": "Marked (>50%) crypt distortion:comp_15",
          "class": "Marked (>50%) crypt distortion",
          "nA": 1,
          "nB": 1,
          "cas_union": 0.9121502429890369,
          "oc_union": 0.9127061105722599,
          "ar_union": 1.0723067841265475,
          "area_a_union": 43105328.0,
          "area_b_union": 40198690.0,
          "area_intersection_union": 36689590.0
        }
      }
    },
    {
      "type": "Feature",
      "id": "bbc87937-087d-41a0-a189-8a58a7601b86",
      "geometry": {
        "type": "Polygon",
        "coordinates": [
          [
            [
              11514.0,
              11699.0
            ],
            [
              19978.0,
              11699.0
            ],
            [
              19978.0,
              22275.0
            ],
            [
              11514.0,
              22275.0
            ],
            [
              11514.0,
              11699.0
            ]
          ]
        ]
      },
      "properties": {
        "objectType": "annotation",
        "classification": {
          "name": "A | Marked (>50%) crypt distortion",
          "color": [
            0,
            51,
            0
          ]
        },
        "case_key": "S2415106A01",
        "source": "A",
        "orig_class": "Marked (>50%) crypt distortion",
        "match": {
          "status": "component_tp",
          "component_id": "Marked (>50%) crypt distortion:comp_16",
          "class": "Marked (>50%) crypt distortion",
          "nA": 1,
          "nB": 1,
          "cas_union": 0.9599010066860965,
          "oc_union": 0.9946491548096802,
          "ar_union": 1.7046604782998684,
          "area_a_union": 89515264.0,
          "area_b_union": 52512078.0,
          "area_intersection_union": 52231094.0
        }
      }
    },
    {
      "type": "Feature",
      "id": "12fc1787-9e1e-4028-91bf-3c9f19711899",
      "geometry": {
        "type": "Polygon",
        "coordinates": [
          [
            [
              6090.0,
              11187.0
            ],
            [
              6986.0,
              11187.0
            ],
            [
              6986.0,
              12627.0
            ],
            [
              6090.0,
              12627.0
            ],
            [
              6090.0,
              11187.0
            ]
          ]
        ]
      },
      "properties": {
        "objectType": "annotation",
        "classification": {
          "name": "A | Moderate to marked mononuclear cell infiltrate",
          "color": [
            21,
            11,
            49
          ]
        },
        "case_key": "S2415106A01",
        "source": "A",
        "orig_class": "Moderate to marked mononuclear cell infiltrate",
        "match": {
          "status": "component_tp",
          "component_id": "Moderate to marked mononuclear cell infiltrate:comp_19",
          "class": "Moderate to marked mononuclear cell infiltrate",
          "nA": 1,
          "nB": 1,
          "cas_union": 0.7954698768553837,
          "oc_union": 0.8006127450980393,
          "ar_union": 1.2549019607843137,
          "area_a_union": 1290240.0,
          "area_b_union": 1028160.0,
          "area_intersection_union": 823158.0
        }
      }
    },
    {
      "type": "Feature",
      "id": "2d52e807-551b-41d7-9b16-2581d6a1260e",
      "geometry": {
        "type": "Polygon",
        "coordinates": [
          [
            [
              7658.0,
              10483.0
            ],
            [
              8186.0,
              10483.0
            ],
            [
              8186.0,
              10915.0
            ],
            [
              7658.0,
              10915.0
            ],
            [
              7658.0,
              10483.0
            ]
          ]
        ]
      },
      "properties": {
        "objectType": "annotation",
        "classification": {
          "name": "A | Moderate to marked mononuclear cell infiltrate",
          "color": [
            21,
            11,
            49
          ]
        },
        "case_key": "S2415106A01",
        "source": "A",
        "orig_class": "Moderate to marked mononuclear cell infiltrate",
        "match": {
          "status": "component_tp",
          "component_id": "Moderate to marked mononuclear cell infiltrate:comp_21",
          "class": "Moderate to marked mononuclear cell infiltrate",
          "nA": 1,
          "nB": 1,
          "cas_union": 0.9248479674144487,
          "oc_union": 0.946969696969697,
          "ar_union": 1.5447443181818181,
          "area_a_union": 228096.0,
          "area_b_union": 352350.0,
          "area_intersection_union": 216000.0
        }
      }
    },
    {
      "type": "Feature",
      "id": "6567d9d6-0bbe-4bd6-acb4-c06f543b153d",
      "geometry": {
        "type": "Polygon",
        "coordinates": [
          [
            [
              9418.0,
              13363.0
            ],
            [
              10090.0,
              13363.0
            ],
            [
              10090.0,
              14707.0
            ],
            [
              9418.0,
              14707.0
            ],
            [
              9418.0,
              13363.0
            ]
          ]
        ]
      },
      "properties": {
        "objectType": "annotation",
        "classification": {
          "name": "A | Moderate to marked mononuclear cell infiltrate",
          "color": [
            21,
            11,
            49
          ]
        },
        "case_key": "S2415106A01",
        "source": "A",
        "orig_class": "Moderate to marked mononuclear cell infiltrate",
        "match": {
          "status": "component_tp",
          "component_id": "Moderate to marked mononuclear cell infiltrate:comp_22",
          "class": "Moderate to marked mononuclear cell infiltrate",
          "nA": 1,
          "nB": 1,
          "cas_union": 0.7535232822930398,
          "oc_union": 0.7584650112866818,
          "ar_union": 1.2569383171014799,
          "area_a_union": 903168.0,
          "area_b_union": 718546.0,
          "area_intersection_union": 544992.0
        }
      }
    },
    {
      "type": "Feature",
      "id": "c73f74d6-b31f-47bd-b56d-8e8da48576f4",
      "geometry": {
        "type": "Polygon",
        "coordinates": [
          [
            [
              5802.0,
              8723.0
            ],
            [
              10906.0,
              8723.0
            ],
            [
              10906.0,
              16323.0
            ],
            [
              5802.0,
              16323.0
            ],
            [
              5802.0,
              8723.0
            ]
          ]
        ]
      },
      "properties": {
        "objectType": "annotation",
        "classification": {
          "name": "A | Marked (>50%) crypt distortion",
          "color": [
            0,
            51,
            0
          ]
        },
        "case_key": "S2415106A01",
        "source": "A",
        "orig_class": "Marked (>50%) crypt distortion",
        "match": {
          "status": "component_tp",
          "component_id": "Marked (>50%) crypt distortion:comp_17",
          "class": "Marked (>50%) crypt distortion",
          "nA": 1,
          "nB": 1,
          "cas_union": 0.9478025628630624,
          "oc_union": 1.0,
          "ar_union": 1.9249184349656463,
          "area_a_union": 38790400.0,
          "area_b_union": 20151711.0,
          "area_intersection_union": 20151711.0
        }
      }
    },
    {
      "type": "Feature",
      "id": "5f81ddeb-f873-4a00-a989-56eb4039f881",
      "geometry": {
        "type": "Polygon",
        "coordinates": [
          [
            [
              4570.0,
              16147.0
            ],
            [
              9834.0,
              16147.0
            ],
            [
              9834.0,
              21379.0
            ],
            [
              4570.0,
              21379.0
            ],
            [
              4570.0,
              16147.0
            ]
          ]
        ]
      },
      "properties": {
        "objectType": "annotation",
        "classification": {
          "name": "A | Marked (>50%) crypt distortion",
          "color": [
            0,
            51,
            0
          ]
        },
        "case_key": "S2415106A01",
        "source": "A",
        "orig_class": "Marked (>50%) crypt distortion",
        "match": {
          "status": "component_tp",
          "component_id": "Marked (>50%) crypt distortion:comp_18",
          "class": "Marked (>50%) crypt distortion",
          "nA": 1,
          "nB": 1,
          "cas_union": 0.9944776921143175,
          "oc_union": 1.0,
          "ar_union": 1.234267632488862,
          "area_a_union": 27541248.0,
          "area_b_union": 22313838.0,
          "area_intersection_union": 22313838.0
        }
      }
    },
    {
      "type": "Feature",
      "id": "66c7b2ec-174f-4da4-8abc-27681fe8bcb7",
      "geometry": {
        "type": "Polygon",
        "coordinates": [
          [
            [
              6885.0,
              21739.0
            ],
            [
              10117.0,
              21739.0
            ],
            [
              10117.0,
              28683.0
            ],
            [
              6885.0,
              28683.0
            ],
            [
              6885.0,
              21739.0
            ]
          ]
        ]
      },
      "properties": {
        "objectType": "annotation",
        "classification": {
          "name": "A | Marked (>50%) crypt distortion",
          "color": [
            0,
            51,
            0
          ]
        },
        "case_key": "S2415106A01",
        "source": "A",
        "orig_class": "Marked (>50%) crypt distortion",
        "match": {
          "status": "component_tp",
          "component_id": "Marked (>50%) crypt distortion:comp_19",
          "class": "Marked (>50%) crypt distortion",
          "nA": 1,
          "nB": 1,
          "cas_union": 0.9630458771744973,
          "oc_union": 1.0,
          "ar_union": 1.731256987933275,
          "area_a_union": 22443008.0,
          "area_b_union": 12963418.0,
          "area_intersection_union": 12963418.0
        }
      }
    },
    {
      "type": "Feature",
      "id": "0d33ab18-7f61-40a7-9238-89c6b6764e85",
      "geometry": {
        "type": "Polygon",
        "coordinates": [
          [
            [
              9501.0,
              19138.0
            ],
            [
              14829.0,
              19138.0
            ],
            [
              14829.0,
              30146.0
            ],
            [
              9501.0,
              30146.0
            ],
            [
              9501.0,
              19138.0
            ]
          ]
        ]
      },
      "properties": {
        "objectType": "annotation",
        "classification": {
          "name": "A | Marked (>50%) crypt distortion",
          "color": [
            0,
            51,
            0
          ]
        },
        "case_key": "S2415106A01",
        "source": "A",
        "orig_class": "Marked (>50%) crypt distortion",
        "match": {
          "status": "component_tp",
          "component_id": "Marked (>50%) crypt distortion:comp_20",
          "class": "Marked (>50%) crypt distortion",
          "nA": 1,
          "nB": 2,
          "cas_union": 0.9252220794268312,
          "oc_union": 1.0,
          "ar_union": 2.2001490908698047,
          "area_a_union": 58650624.0,
          "area_b_union": 26657568.0,
          "area_intersection_union": 26657568.0
        }
      }
    },
    {
      "type": "Feature",
      "id": "55972cbd-b469-4c5a-835f-b90c0f261d5a",
      "geometry": {
        "type": "Polygon",
        "coordinates": [
          [
            [
              6965.0,
              22848.0
            ],
            [
              7769.0,
              22848.0
            ],
            [
              7769.0,
              23164.0
            ],
            [
              6965.0,
              23164.0
            ],
            [
              6965.0,
              22848.0
            ]
          ]
        ]
      },
      "properties": {
        "objectType": "annotation",
        "classification": {
          "name": "A | Ulcer/ erosion",
          "color": [
            255,
            0,
            0
          ]
        },
        "case_key": "S2415106A01",
        "source": "A",
        "orig_class": "Ulcer/ erosion",
        "match": {
          "status": "component_tp",
          "component_id": "Ulcer/ erosion:comp_15",
          "class": "Ulcer/ erosion",
          "nA": 1,
          "nB": 1,
          "cas_union": 0.5916828749236487,
          "oc_union": 0.7177570093457943,
          "ar_union": 3.466321031448257,
          "area_a_union": 254064.0,
          "area_b_union": 73295.0,
          "area_intersection_union": 52608.0
        }
      }
    },
    {
      "type": "Feature",
      "id": "fe83e338-3e01-4510-bc1a-0e3311e3cce2",
      "geometry": {
        "type": "Polygon",
        "coordinates": [
          [
            [
              21824.0,
              6861.0
            ],
            [
              22286.0,
              6861.0
            ],
            [
              22286.0,
              7258.0
            ],
            [
              21824.0,
              7258.0
            ],
            [
              21824.0,
              6861.0
            ]
          ]
        ]
      },
      "properties": {
        "objectType": "annotation",
        "classification": {
          "name": "A | Crypt abscess",
          "color": [
            240,
            77,
            141
          ]
        },
        "case_key": "S2415106A01",
        "source": "A",
        "orig_class": "Crypt abscess",
        "match": {
          "status": "component_tp",
          "component_id": "Crypt abscess:comp_4",
          "class": "Crypt abscess",
          "nA": 2,
          "nB": 1,
          "cas_union": 0.9231321534213721,
          "oc_union": 0.9494297090168842,
          "ar_union": 1.606469285115555,
          "area_a_union": 267232.0,
          "area_b_union": 429300.0,
          "area_intersection_union": 253718.0
        }
      }
    },
    {
      "type": "Feature",
      "id": "f360c51f-f5ca-440f-9a89-111b200e560b",
      "geometry": {
        "type": "Polygon",
        "coordinates": [
          [
            [
              22084.0,
              7135.0
            ],
            [
              22460.0,
              7135.0
            ],
            [
              22460.0,
              7424.0
            ],
            [
              22084.0,
              7424.0
            ],
            [
              22084.0,
              7135.0
            ]
          ]
        ]
      },
      "properties": {
        "objectType": "annotation",
        "classification": {
          "name": "A | Crypt abscess",
          "color": [
            240,
            77,
            141
          ]
        },
        "case_key": "S2415106A01",
        "source": "A",
        "orig_class": "Crypt abscess",
        "match": {
          "status": "component_tp",
          "component_id": "Crypt abscess:comp_4",
          "class": "Crypt abscess",
          "nA": 2,
          "nB": 1,
          "cas_union": 0.9231321534213721,
          "oc_union": 0.9494297090168842,
          "ar_union": 1.606469285115555,
          "area_a_union": 267232.0,
          "area_b_union": 429300.0,
          "area_intersection_union": 253718.0
        }
      }
    },
    {
      "type": "Feature",
      "id": "3989e789-100e-46d3-b02e-415d47290e8a",
      "geometry": {
        "type": "Polygon",
        "coordinates": [
          [
            [
              19926.0,
              6717.0
            ],
            [
              23730.0,
              6717.0
            ],
            [
              23730.0,
              10636.0
            ],
            [
              19926.0,
              10636.0
            ],
            [
              19926.0,
              6717.0
            ]
          ]
        ]
      },
      "properties": {
        "objectType": "annotation",
        "classification": {
          "name": "A | Marked (>50%) crypt distortion",
          "color": [
            0,
            51,
            0
          ]
        },
        "case_key": "S2415106A01",
        "source": "A",
        "orig_class": "Marked (>50%) crypt distortion",
        "match": {
          "status": "component_tp",
          "component_id": "Marked (>50%) crypt distortion:comp_21",
          "class": "Marked (>50%) crypt distortion",
          "nA": 1,
          "nB": 1,
          "cas_union": 0.8326775819748006,
          "oc_union": 0.855792334199721,
          "ar_union": 1.596841562138027,
          "area_a_union": 14907876.0,
          "area_b_union": 23805516.0,
          "area_intersection_union": 12758046.0
        }
      }
    },
    {
      "type": "Feature",
      "id": "4b4c6d81-4cd9-4b36-8073-f21ece482988",
      "geometry": {
        "type": "Polygon",
        "coordinates": [
          [
            [
              15241.0,
              9874.0
            ],
            [
              16195.0,
              9874.0
            ],
            [
              16195.0,
              10763.0
            ],
            [
              15241.0,
              10763.0
            ],
            [
              15241.0,
              9874.0
            ]
          ]
        ]
      },
      "properties": {
        "objectType": "annotation",
        "classification": {
          "name": "A | Basal lymphoid aggregates",
          "color": [
            0,
            0,
            255
          ]
        },
        "case_key": "S2415106A01",
        "source": "A",
        "orig_class": "Basal lymphoid aggregates",
        "match": {
          "status": "component_tp",
          "component_id": "Basal lymphoid aggregates:comp_0",
          "class": "Basal lymphoid aggregates",
          "nA": 1,
          "nB": 1,
          "cas_union": 0.9422964389114401,
          "oc_union": 1.0,
          "ar_union": 1.9928239108980685,
          "area_a_union": 848106.0,
          "area_b_union": 425580.0,
          "area_intersection_union": 425580.0
        }
      }
    },
    {
      "type": "Feature",
      "id": "8a47a293-9d79-425e-8aae-799322901244",
      "geometry": {
        "type": "Polygon",
        "coordinates": [
          [
            [
              13423.0,
              6162.0
            ],
            [
              18151.0,
              6162.0
            ],
            [
              18151.0,
              11407.0
            ],
            [
              13423.0,
              11407.0
            ],
            [
              13423.0,
              6162.0
            ]
          ]
        ]
      },
      "properties": {
        "objectType": "annotation",
        "classification": {
          "name": "A | Marked (>50%) crypt distortion",
          "color": [
            0,
            51,
            0
          ]
        },
        "case_key": "S2415106A01",
        "source": "A",
        "orig_class": "Marked (>50%) crypt distortion",
        "match": {
          "status": "component_tp",
          "component_id": "Marked (>50%) crypt distortion:comp_22",
          "class": "Marked (>50%) crypt distortion",
          "nA": 1,
          "nB": 1,
          "cas_union": 0.8916642604721474,
          "oc_union": 1.0,
          "ar_union": 2.605880895381044,
          "area_a_union": 24798360.0,
          "area_b_union": 9516306.0,
          "area_intersection_union": 9516306.0
        }
      }
    },
    {
      "type": "Feature",
      "id": "8fa52ef1-39bb-4619-bdcc-c36e1f001c92",
      "geometry": {
        "type": "Polygon",
        "coordinates": [
          [
            [
              9214.0,
              16958.0
            ],
            [
              9214.0,
              17237.0
            ],
            [
              9467.0,
              17237.0
            ],
            [
              9467.0,
              16958.0
            ],
            [
              9214.0,
              16958.0
            ]
          ]
        ]
      },
      "properties": {
        "objectType": "annotation",
        "classification": {
          "name": "B | Ulcer/ erosion",
          "color": [
            255,
            0,
            0
          ]
        },
        "isLocked": true,
        "case_key": "S2415106A01",
        "source": "B",
        "orig_class": "Ulcer/ erosion",
        "match": {
          "status": "component_tp",
          "component_id": "Ulcer/ erosion:comp_8",
          "class": "Ulcer/ erosion",
          "nA": 1,
          "nB": 1,
          "cas_union": 0.8497394728134732,
          "oc_union": 1.0,
          "ar_union": 3.130888123875501,
          "area_a_union": 221000.0,
          "area_b_union": 70587.0,
          "area_intersection_union": 70587.0
        }
      }
    },
    {
      "type": "Feature",
      "id": "9cd5f82b-d654-450b-a837-ac46721f1916",
      "geometry": {
        "type": "Polygon",
        "coordinates": [
          [
            [
              5545.0,
              18719.0
            ],
            [
              5545.0,
              19266.0
            ],
            [
              6003.0,
              19266.0
            ],
            [
              6003.0,
              18719.0
            ],
            [
              5545.0,
              18719.0
            ]
          ]
        ]
      },
      "properties": {
        "objectType": "annotation",
        "classification": {
          "name": "B | Ulcer/ erosion",
          "color": [
            255,
            0,
            0
          ]
        },
        "isLocked": true,
        "case_key": "S2415106A01",
        "source": "B",
        "orig_class": "Ulcer/ erosion",
        "match": {
          "status": "component_tp",
          "component_id": "Ulcer/ erosion:comp_10",
          "class": "Ulcer/ erosion",
          "nA": 1,
          "nB": 1,
          "cas_union": 0.47664722660889725,
          "oc_union": 0.5226061576122776,
          "ar_union": 2.358779775915639,
          "area_a_union": 106210.0,
          "area_b_union": 250526.0,
          "area_intersection_union": 55506.0
        }
      }
    },
    {
      "type": "Feature",
      "id": "ad8b4789-ba36-484c-9635-8eac7e89f54a",
      "geometry": {
        "type": "Polygon",
        "coordinates": [
          [
            [
              6814.0,
              22883.0
            ],
            [
              6814.0,
              23020.0
            ],
            [
              7349.0,
              23020.0
            ],
            [
              7349.0,
              22883.0
            ],
            [
              6814.0,
              22883.0
            ]
          ]
        ]
      },
      "properties": {
        "objectType": "annotation",
        "classification": {
          "name": "B | Ulcer/ erosion",
          "color": [
            255,
            0,
            0
          ]
        },
        "isLocked": true,
        "case_key": "S2415106A01",
        "source": "B",
        "orig_class": "Ulcer/ erosion",
        "match": {
          "status": "component_tp",
          "component_id": "Ulcer/ erosion:comp_15",
          "class": "Ulcer/ erosion",
          "nA": 1,
          "nB": 1,
          "cas_union": 0.5916828749236487,
          "oc_union": 0.7177570093457943,
          "ar_union": 3.466321031448257,
          "area_a_union": 254064.0,
          "area_b_union": 73295.0,
          "area_intersection_union": 52608.0
        }
      }
    },
    {
      "type": "Feature",
      "id": "d22b92cf-3f54-4451-b0bc-e2eed49d2afd",
      "geometry": {
        "type": "Polygon",
        "coordinates": [
          [
            [
              9964.0,
              13334.0
            ],
            [
              9964.0,
              14108.0
            ],
            [
              10293.0,
              14108.0
            ],
            [
              10293.0,
              13334.0
            ],
            [
              9964.0,
              13334.0
            ]
          ]
        ]
      },
      "properties": {
        "objectType": "annotation",
        "classification": {
          "name": "B | Ulcer/ erosion",
          "color": [
            255,
            0,
            0
          ]
        },
        "isLocked": true,
        "case_key": "S2415106A01",
        "source": "B",
        "orig_class": "Ulcer/ erosion",
        "match": {
          "status": "component_tp",
          "component_id": "Ulcer/ erosion:comp_12",
          "class": "Ulcer/ erosion",
          "nA": 1,
          "nB": 1,
          "cas_union": 0.764053388631067,
          "oc_union": 0.8468468468468469,
          "ar_union": 2.477438561671823,
          "area_a_union": 102786.0,
          "area_b_union": 254646.0,
          "area_intersection_union": 87044.0
        }
      }
    },
    {
      "type": "Feature",
      "id": "33fedac3-fdc2-45ce-a2eb-0f13ac423d13",
      "geometry": {
        "type": "Polygon",
        "coordinates": [
          [
            [
              8050.0,
              18971.0
            ],
            [
              8050.0,
              19798.0
            ],
            [
              8623.0,
              19798.0
            ],
            [
              8623.0,
              18971.0
            ],
            [
              8050.0,
              18971.0
            ]
          ]
        ]
      },
      "properties": {
        "objectType": "annotation",
        "classification": {
          "name": "B | Crypt abscess",
          "color": [
            240,
            77,
            141
          ]
        },
        "isLocked": true,
        "case_key": "S2415106A01",
        "source": "B",
        "orig_class": "Crypt abscess",
        "match": {
          "status": "component_tp",
          "component_id": "Crypt abscess:comp_2",
          "class": "Crypt abscess",
          "nA": 1,
          "nB": 1,
          "cas_union": 0.9048634606954752,
          "oc_union": 0.9057591623036649,
          "ar_union": 1.0930443095272764,
          "area_a_union": 517962.0,
          "area_b_union": 473871.0,
          "area_intersection_union": 429213.0
        }
      }
    },
    {
      "type": "Feature",
      "id": "11348865-bd7b-4790-ba32-f8c9a539596a",
      "geometry": {
        "type": "Polygon",
        "coordinates": [
          [
            [
              7542.0,
              17972.0
            ],
            [
              7542.0,
              19120.0
            ],
            [
              8453.0,
              19120.0
            ],
            [
              8453.0,
              17972.0
            ],
            [
              7542.0,
              17972.0
            ]
          ]
        ]
      },
      "properties": {
        "objectType": "annotation",
        "classification": {
          "name": "B | Crypt abscess",
          "color": [
            240,
            77,
            141
          ]
        },
        "isLocked": true,
        "case_key": "S2415106A01",
        "source": "B",
        "orig_class": "Crypt abscess",
        "match": {
          "status": "component_tp",
          "component_id": "Crypt abscess:comp_1",
          "class": "Crypt abscess",
          "nA": 1,
          "nB": 1,
          "cas_union": 0.9695227560519152,
          "oc_union": 0.9712543554006968,
          "ar_union": 1.126910926079623,
          "area_a_union": 1178555.0,
          "area_b_union": 1045828.0,
          "area_intersection_union": 1015765.0
        }
      }
    },
    {
      "type": "Feature",
      "id": "45afa036-0f31-4f6a-baac-ec1872a5b230",
      "geometry": {
        "type": "Polygon",
        "coordinates": [
          [
            [
              6492.0,
              17420.0
            ],
            [
              6492.0,
              18604.0
            ],
            [
              7588.0,
              18604.0
            ],
            [
              7588.0,
              17420.0
            ],
            [
              6492.0,
              17420.0
            ]
          ]
        ]
      },
      "properties": {
        "objectType": "annotation",
        "classification": {
          "name": "B | Crypt abscess",
          "color": [
            240,
            77,
            141
          ]
        },
        "isLocked": true,
        "case_key": "S2415106A01",
        "source": "B",
        "orig_class": "Crypt abscess",
        "match": {
          "status": "component_tp",
          "component_id": "Crypt abscess:comp_0",
          "class": "Crypt abscess",
          "nA": 1,
          "nB": 1,
          "cas_union": 0.9796867364781947,
          "oc_union": 0.9799270072992701,
          "ar_union": 1.045287532057605,
          "area_a_union": 1356432.0,
          "area_b_union": 1297664.0,
          "area_intersection_union": 1271616.0
        }
      }
    },
    {
      "type": "Feature",
      "id": "4f23f5e7-d078-46df-9efc-255afa2c9f7a",
      "geometry": {
        "type": "Polygon",
        "coordinates": [
          [
            [
              21794.0,
              6735.0
            ],
            [
              21794.0,
              7410.0
            ],
            [
              22430.0,
              7410.0
            ],
            [
              22430.0,
              6735.0
            ],
            [
              21794.0,
              6735.0
            ]
          ]
        ]
      },
      "properties": {
        "objectType": "annotation",
        "classification": {
          "name": "B | Crypt abscess",
          "color": [
            240,
            77,
            141
          ]
        },
        "isLocked": true,
        "case_key": "S2415106A01",
        "source": "B",
        "orig_class": "Crypt abscess",
        "match": {
          "status": "component_tp",
          "component_id": "Crypt abscess:comp_4",
          "class": "Crypt abscess",
          "nA": 2,
          "nB": 1,
          "cas_union": 0.9231321534213721,
          "oc_union": 0.9494297090168842,
          "ar_union": 1.606469285115555,
          "area_a_union": 267232.0,
          "area_b_union": 429300.0,
          "area_intersection_union": 253718.0
        }
      }
    },
    {
      "type": "Feature",
      "id": "a78fdce5-51a3-4344-a67c-517f4e5db7f3",
      "geometry": {
        "type": "Polygon",
        "coordinates": [
          [
            [
              6275.0,
              11520.0
            ],
            [
              6275.0,
              12166.0
            ],
            [
              7041.0,
              12166.0
            ],
            [
              7041.0,
              11520.0
            ],
            [
              6275.0,
              11520.0
            ]
          ]
        ]
      },
      "properties": {
        "objectType": "annotation",
        "classification": {
          "name": "B | Basal Plasmacytosis",
          "color": [
            202,
            65,
            86
          ]
        },
        "isLocked": true,
        "case_key": "S2415106A01",
        "source": "B",
        "orig_class": "Basal Plasmacytosis",
        "match": {
          "status": "component_tp",
          "component_id": "Basal Plasmacytosis:comp_2",
          "class": "Basal Plasmacytosis",
          "nA": 1,
          "nB": 1,
          "cas_union": 0.3667787241033825,
          "oc_union": 0.3668407310704961,
          "ar_union": 1.0374588752637237,
          "area_a_union": 513372.0,
          "area_b_union": 494836.0,
          "area_intersection_union": 181526.0
        }
      }
    },
    {
      "type": "Feature",
      "id": "f0800b40-0f45-4fe7-8ccd-8a94ca3cee62",
      "geometry": {
        "type": "Polygon",
        "coordinates": [
          [
            [
              9218.0,
              13805.0
            ],
            [
              9218.0,
              14616.0
            ],
            [
              10104.0,
              14616.0
            ],
            [
              10104.0,
              13805.0
            ],
            [
              9218.0,
              13805.0
            ]
          ]
        ]
      },
      "properties": {
        "objectType": "annotation",
        "classification": {
          "name": "B | Moderate to marked mononuclear cell infiltrate",
          "color": [
            21,
            11,
            49
          ]
        },
        "isLocked": true,
        "case_key": "S2415106A01",
        "source": "B",
        "orig_class": "Moderate to marked mononuclear cell infiltrate",
        "match": {
          "status": "component_tp",
          "component_id": "Moderate to marked mononuclear cell infiltrate:comp_22",
          "class": "Moderate to marked mononuclear cell infiltrate",
          "nA": 1,
          "nB": 1,
          "cas_union": 0.7535232822930398,
          "oc_union": 0.7584650112866818,
          "ar_union": 1.2569383171014799,
          "area_a_union": 903168.0,
          "area_b_union": 718546.0,
          "area_intersection_union": 544992.0
        }
      }
    },
    {
      "type": "Feature",
      "id": "9e45e939-c543-46b8-b2ed-fb411db7bcaf",
      "geometry": {
        "type": "Polygon",
        "coordinates": [
          [
            [
              7686.0,
              10468.0
            ],
            [
              7686.0,
              10990.0
            ],
            [
              8361.0,
              10990.0
            ],
            [
              8361.0,
              10468.0
            ],
            [
              7686.0,
              10468.0
            ]
          ]
        ]
      },
      "properties": {
        "objectType": "annotation",
        "classification": {
          "name": "B | Moderate to marked mononuclear cell infiltrate",
          "color": [
            21,
            11,
            49
          ]
        },
        "isLocked": true,
        "case_key": "S2415106A01",
        "source": "B",
        "orig_class": "Moderate to marked mononuclear cell infiltrate",
        "match": {
          "status": "component_tp",
          "component_id": "Moderate to marked mononuclear cell infiltrate:comp_21",
          "class": "Moderate to marked mononuclear cell infiltrate",
          "nA": 1,
          "nB": 1,
          "cas_union": 0.9248479674144487,
          "oc_union": 0.946969696969697,
          "ar_union": 1.5447443181818181,
          "area_a_union": 228096.0,
          "area_b_union": 352350.0,
          "area_intersection_union": 216000.0
        }
      }
    },
    {
      "type": "Feature",
      "id": "dcfd8e0e-ba4a-4cb5-81d4-9a063438e957",
      "geometry": {
        "type": "Polygon",
        "coordinates": [
          [
            [
              11852.0,
              20856.0
            ],
            [
              11852.0,
              21291.0
            ],
            [
              12354.0,
              21291.0
            ],
            [
              12354.0,
              20856.0
            ],
            [
              11852.0,
              20856.0
            ]
          ]
        ]
      },
      "properties": {
        "objectType": "annotation",
        "classification": {
          "name": "B | Moderate to marked mononuclear cell infiltrate",
          "color": [
            21,
            11,
            49
          ]
        },
        "isLocked": true,
        "case_key": "S2415106A01",
        "source": "B",
        "orig_class": "Moderate to marked mononuclear cell infiltrate",
        "match": {
          "status": "component_tp",
          "component_id": "Moderate to marked mononuclear cell infiltrate:comp_6",
          "class": "Moderate to marked mononuclear cell infiltrate",
          "nA": 1,
          "nB": 1,
          "cas_union": 0.5165524142906617,
          "oc_union": 0.547808764940239,
          "ar_union": 1.984888034070614,
          "area_a_union": 433440.0,
          "area_b_union": 218370.0,
          "area_intersection_union": 119625.0
        }
      }
    },
    {
      "type": "Feature",
      "id": "07410be7-e61f-4b52-b155-1a646b037c36",
      "geometry": {
        "type": "Polygon",
        "coordinates": [
          [
            [
              11393.0,
              24867.0
            ],
            [
              11393.0,
              25584.0
            ],
            [
              11792.0,
              25584.0
            ],
            [
              11792.0,
              24867.0
            ],
            [
              11393.0,
              24867.0
            ]
          ]
        ]
      },
      "properties": {
        "objectType": "annotation",
        "classification": {
          "name": "B | Moderate to marked mononuclear cell infiltrate",
          "color": [
            21,
            11,
            49
          ]
        },
        "isLocked": true,
        "case_key": "S2415106A01",
        "source": "B",
        "orig_class": "Moderate to marked mononuclear cell infiltrate",
        "match": {
          "status": "component_tp",
          "component_id": "Moderate to marked mononuclear cell infiltrate:comp_12",
          "class": "Moderate to marked mononuclear cell infiltrate",
          "nA": 1,
          "nB": 1,
          "cas_union": 0.742988671867077,
          "oc_union": 0.7430461487740724,
          "ar_union": 1.0251886731600335,
          "area_a_union": 279054.0,
          "area_b_union": 286083.0,
          "area_intersection_union": 207350.0
        }
      }
    },
    {
      "type": "Feature",
      "id": "48fe5cef-c5ff-4031-a4cf-9f1758163c26",
      "geometry": {
        "type": "Polygon",
        "coordinates": [
          [
            [
              10430.0,
              25633.0
            ],
            [
              10430.0,
              27217.0
            ],
            [
              11603.0,
              27217.0
            ],
            [
              11603.0,
              25633.0
            ],
            [
              10430.0,
              25633.0
            ]
          ]
        ]
      },
      "properties": {
        "objectType": "annotation",
        "classification": {
          "name": "B | Moderate to marked mononuclear cell infiltrate",
          "color": [
            21,
            11,
            49
          ]
        },
        "isLocked": true,
        "case_key": "S2415106A01",
        "source": "B",
        "orig_class": "Moderate to marked mononuclear cell infiltrate",
        "match": {
          "status": "component_tp",
          "component_id": "Moderate to marked mononuclear cell infiltrate:comp_0",
          "class": "Moderate to marked mononuclear cell infiltrate",
          "nA": 1,
          "nB": 2,
          "cas_union": 0.7324427801009873,
          "oc_union": 0.7326251867744531,
          "ar_union": 1.0456435425946575,
          "area_a_union": 1983676.0,
          "area_b_union": 2074218.0,
          "area_intersection_union": 1453291.0
        }
      }
    },
    {
      "type": "Feature",
      "id": "89cead44-f121-4333-8ea4-2d28568865ab",
      "geometry": {
        "type": "Polygon",
        "coordinates": [
          [
            [
              9918.0,
              28282.0
            ],
            [
              9918.0,
              28717.0
            ],
            [
              10568.0,
              28717.0
            ],
            [
              10568.0,
              28282.0
            ],
            [
              9918.0,
              28282.0
            ]
          ]
        ]
      },
      "properties": {
        "objectType": "annotation",
        "classification": {
          "name": "B | Moderate to marked mononuclear cell infiltrate",
          "color": [
            21,
            11,
            49
          ]
        },
        "isLocked": true,
        "case_key": "S2415106A01",
        "source": "B",
        "orig_class": "Moderate to marked mononuclear cell infiltrate",
        "match": {
          "status": "component_tp",
          "component_id": "Moderate to marked mononuclear cell infiltrate:comp_15",
          "class": "Moderate to marked mononuclear cell infiltrate",
          "nA": 1,
          "nB": 1,
          "cas_union": 0.8592093209734843,
          "oc_union": 0.8620689655172413,
          "ar_union": 1.1770822281167108,
          "area_a_union": 332820.0,
          "area_b_union": 282750.0,
          "area_intersection_union": 243750.0
        }
      }
    },
    {
      "type": "Feature",
      "id": "06719e8f-3b53-4f7a-a388-8c48a369888c",
      "geometry": {
        "type": "Polygon",
        "coordinates": [
          [
            [
              11921.0,
              26448.0
            ],
            [
              11921.0,
              27335.0
            ],
            [
              12431.0,
              27335.0
            ],
            [
              12431.0,
              26448.0
            ],
            [
              11921.0,
              26448.0
            ]
          ]
        ]
      },
      "properties": {
        "objectType": "annotation",
        "classification": {
          "name": "B | Moderate to marked mononuclear cell infiltrate",
          "color": [
            21,
            11,
            49
          ]
        },
        "isLocked": true,
        "case_key": "S2415106A01",
        "source": "B",
        "orig_class": "Moderate to marked mononuclear cell infiltrate",
        "match": {
          "status": "component_tp",
          "component_id": "Moderate to marked mononuclear cell infiltrate:comp_9",
          "class": "Moderate to marked mononuclear cell infiltrate",
          "nA": 1,
          "nB": 1,
          "cas_union": 0.833622889161872,
          "oc_union": 0.9357384441939121,
          "ar_union": 2.6155580608793687,
          "area_a_union": 1183200.0,
          "area_b_union": 452370.0,
          "area_intersection_union": 423300.0
        }
      }
    },
    {
      "type": "Feature",
      "id": "5aaa0a76-0d93-4809-969a-d79524dfe13f",
      "geometry": {
        "type": "Polygon",
        "coordinates": [
          [
            [
              15307.0,
              9971.0
            ],
            [
              15307.0,
              10463.0
            ],
            [
              16172.0,
              10463.0
            ],
            [
              16172.0,
              9971.0
            ],
            [
              15307.0,
              9971.0
            ]
          ]
        ]
      },
      "properties": {
        "objectType": "annotation",
        "classification": {
          "name": "B | Basal lymphoid aggregates",
          "color": [
            0,
            0,
            255
          ]
        },
        "isLocked": true,
        "case_key": "S2415106A01",
        "source": "B",
        "orig_class": "Basal lymphoid aggregates",
        "match": {
          "status": "component_tp",
          "component_id": "Basal lymphoid aggregates:comp_0",
          "class": "Basal lymphoid aggregates",
          "nA": 1,
          "nB": 1,
          "cas_union": 0.9422964389114401,
          "oc_union": 1.0,
          "ar_union": 1.9928239108980685,
          "area_a_union": 848106.0,
          "area_b_union": 425580.0,
          "area_intersection_union": 425580.0
        }
      }
    },
    {
      "type": "Feature",
      "id": "466a6de9-a340-4996-babd-170e3502151b",
      "geometry": {
        "type": "Polygon",
        "coordinates": [
          [
            [
              6006.0,
              11054.0
            ],
            [
              6006.0,
              12174.0
            ],
            [
              6924.0,
              12174.0
            ],
            [
              6924.0,
              11054.0
            ],
            [
              6006.0,
              11054.0
            ]
          ]
        ]
      },
      "properties": {
        "objectType": "annotation",
        "classification": {
          "name": "B | Moderate to marked mononuclear cell infiltrate",
          "color": [
            21,
            11,
            49
          ]
        },
        "isLocked": true,
        "case_key": "S2415106A01",
        "source": "B",
        "orig_class": "Moderate to marked mononuclear cell infiltrate",
        "match": {
          "status": "component_tp",
          "component_id": "Moderate to marked mononuclear cell infiltrate:comp_19",
          "class": "Moderate to marked mononuclear cell infiltrate",
          "nA": 1,
          "nB": 1,
          "cas_union": 0.7954698768553837,
          "oc_union": 0.8006127450980393,
          "ar_union": 1.2549019607843137,
          "area_a_union": 1290240.0,
          "area_b_union": 1028160.0,
          "area_intersection_union": 823158.0
        }
      }
    },
    {
      "type": "Feature",
      "id": "027b1304-e7ce-42b7-a103-c920eb9ff709",
      "geometry": {
        "type": "Polygon",
        "coordinates": [
          [
            [
              8370.0,
              25514.0
            ],
            [
              8370.0,
              25906.0
            ],
            [
              8563.0,
              25906.0
            ],
            [
              8563.0,
              25514.0
            ],
            [
              8370.0,
              25514.0
            ]
          ]
        ]
      },
      "properties": {
        "objectType": "annotation",
        "classification": {
          "name": "B | Moderate to marked mononuclear cell infiltrate",
          "color": [
            21,
            11,
            49
          ]
        },
        "isLocked": true,
        "case_key": "S2415106A01",
        "source": "B",
        "orig_class": "Moderate to marked mononuclear cell infiltrate",
        "match": {
          "status": "component_tp",
          "component_id": "Moderate to marked mononuclear cell infiltrate:comp_2",
          "class": "Moderate to marked mononuclear cell infiltrate",
          "nA": 1,
          "nB": 1,
          "cas_union": 0.4334663718451571,
          "oc_union": 0.44041450777202074,
          "ar_union": 1.4285714285714286,
          "area_a_union": 108080.0,
          "area_b_union": 75656.0,
          "area_intersection_union": 33320.0
        }
      }
    },
    {
      "type": "Feature",
      "id": "9a2651c4-8514-46eb-bdaf-b1be6f34432f",
      "geometry": {
        "type": "Polygon",
        "coordinates": [
          [
            [
              10883.0,
              28360.0
            ],
            [
              10883.0,
              28889.0
            ],
            [
              11593.0,
              28889.0
            ],
            [
              11593.0,
              28360.0
            ],
            [
              10883.0,
              28360.0
            ]
          ]
        ]
      },
      "properties": {
        "objectType": "annotation",
        "classification": {
          "name": "B | Moderate to marked mononuclear cell infiltrate",
          "color": [
            21,
            11,
            49
          ]
        },
        "isLocked": true,
        "case_key": "S2415106A01",
        "source": "B",
        "orig_class": "Moderate to marked mononuclear cell infiltrate",
        "match": {
          "status": "component_tp",
          "component_id": "Moderate to marked mononuclear cell infiltrate:comp_14",
          "class": "Moderate to marked mononuclear cell infiltrate",
          "nA": 1,
          "nB": 1,
          "cas_union": 0.8202990940778786,
          "oc_union": 0.8714555765595463,
          "ar_union": 2.0050666950664287,
          "area_a_union": 753083.0,
          "area_b_union": 375590.0,
          "area_intersection_union": 327310.0
        }
      }
    },
    {
      "type": "Feature",
      "id": "5c511d84-c3e3-42e0-a152-0a9840c9d15c",
      "geometry": {
        "type": "Polygon",
        "coordinates": [
          [
            [
              10661.0,
              28861.0
            ],
            [
              10661.0,
              29588.0
            ],
            [
              11289.0,
              29588.0
            ],
            [
              11289.0,
              28861.0
            ],
            [
              10661.0,
              28861.0
            ]
          ]
        ]
      },
      "properties": {
        "objectType": "annotation",
        "classification": {
          "name": "B | Moderate to marked mononuclear cell infiltrate",
          "color": [
            21,
            11,
            49
          ]
        },
        "isLocked": true,
        "case_key": "S2415106A01",
        "source": "B",
        "orig_class": "Moderate to marked mononuclear cell infiltrate",
        "match": {
          "status": "component_tp",
          "component_id": "Moderate to marked mononuclear cell infiltrate:comp_16",
          "class": "Moderate to marked mononuclear cell infiltrate",
          "nA": 1,
          "nB": 1,
          "cas_union": 0.6618729882442916,
          "oc_union": 0.6643741403026134,
          "ar_union": 1.1897072867293388,
          "area_a_union": 543168.0,
          "area_b_union": 456556.0,
          "area_intersection_union": 303324.0
        }
      }
    },
    {
      "type": "Feature",
      "id": "fef773e9-c2d8-48b9-af5a-a5ada75aed39",
      "geometry": {
        "type": "Polygon",
        "coordinates": [
          [
            [
              10623.0,
              20210.0
            ],
            [
              10623.0,
              20616.0
            ],
            [
              11055.0,
              20616.0
            ],
            [
              11055.0,
              20210.0
            ],
            [
              10623.0,
              20210.0
            ]
          ]
        ]
      },
      "properties": {
        "objectType": "annotation",
        "classification": {
          "name": "B | Moderate to marked mononuclear cell infiltrate",
          "color": [
            21,
            11,
            49
          ]
        },
        "isLocked": true,
        "case_key": "S2415106A01",
        "source": "B",
        "orig_class": "Moderate to marked mononuclear cell infiltrate",
        "match": {
          "status": "component_tp",
          "component_id": "Moderate to marked mononuclear cell infiltrate:comp_5",
          "class": "Moderate to marked mononuclear cell infiltrate",
          "nA": 1,
          "nB": 1,
          "cas_union": 0.8846565824201308,
          "oc_union": 0.9069767441860465,
          "ar_union": 1.5627906976744186,
          "area_a_union": 112230.0,
          "area_b_union": 175392.0,
          "area_intersection_union": 101790.0
        }
      }
    },
    {
      "type": "Feature",
      "id": "453e90f7-a54e-43fe-8ef6-415e244adcd8",
      "geometry": {
        "type": "Polygon",
        "coordinates": [
          [
            [
              11102.0,
              19831.0
            ],
            [
              11102.0,
              20108.0
            ],
            [
              11557.0,
              20108.0
            ],
            [
              11557.0,
              19831.0
            ],
            [
              11102.0,
              19831.0
            ]
          ]
        ]
      },
      "properties": {
        "objectType": "annotation",
        "classification": {
          "name": "B | Moderate to marked mononuclear cell infiltrate",
          "color": [
            21,
            11,
            49
          ]
        },
        "isLocked": true,
        "case_key": "S2415106A01",
        "source": "B",
        "orig_class": "Moderate to marked mononuclear cell infiltrate",
        "match": {
          "status": "component_tp",
          "component_id": "Moderate to marked mononuclear cell infiltrate:comp_13",
          "class": "Moderate to marked mononuclear cell infiltrate",
          "nA": 1,
          "nB": 1,
          "cas_union": 0.8290554070487146,
          "oc_union": 0.8351648351648352,
          "ar_union": 1.2742492164874837,
          "area_a_union": 160600.0,
          "area_b_union": 126035.0,
          "area_intersection_union": 105260.0
        }
      }
    },
    {
      "type": "Feature",
      "id": "19de8fb0-61bd-4d28-b675-604f9615e5aa",
      "geometry": {
        "type": "Polygon",
        "coordinates": [
          [
            [
              12239.0,
              21929.0
            ],
            [
              12239.0,
              22196.0
            ],
            [
              12693.0,
              22196.0
            ],
            [
              12693.0,
              21929.0
            ],
            [
              12239.0,
              21929.0
            ]
          ]
        ]
      },
      "properties": {
        "objectType": "annotation",
        "classification": {
          "name": "B | Moderate to marked mononuclear cell infiltrate",
          "color": [
            21,
            11,
            49
          ]
        },
        "isLocked": true,
        "case_key": "S2415106A01",
        "source": "B",
        "orig_class": "Moderate to marked mononuclear cell infiltrate",
        "match": {
          "status": "component_tp",
          "component_id": "Moderate to marked mononuclear cell infiltrate:comp_7",
          "class": "Moderate to marked mononuclear cell infiltrate",
          "nA": 1,
          "nB": 1,
          "cas_union": 0.760919979193243,
          "oc_union": 0.9251101321585903,
          "ar_union": 3.4911481793133032,
          "area_a_union": 423190.0,
          "area_b_union": 121218.0,
          "area_intersection_union": 112140.0
        }
      }
    },
    {
      "type": "Feature",
      "id": "f6e18935-141d-4003-a4e9-646c811b1527",
      "geometry": {
        "type": "Polygon",
        "coordinates": [
          [
            [
              10496.0,
              25140.0
            ],
            [
              10496.0,
              25551.0
            ],
            [
              11022.0,
              25551.0
            ],
            [
              11022.0,
              25140.0
            ],
            [
              10496.0,
              25140.0
            ]
          ]
        ]
      },
      "properties": {
        "objectType": "annotation",
        "classification": {
          "name": "B | Moderate to marked mononuclear cell infiltrate",
          "color": [
            21,
            11,
            49
          ]
        },
        "isLocked": true,
        "case_key": "S2415106A01",
        "source": "B",
        "orig_class": "Moderate to marked mononuclear cell infiltrate",
        "match": {
          "status": "component_tp",
          "component_id": "Moderate to marked mononuclear cell infiltrate:comp_0",
          "class": "Moderate to marked mononuclear cell infiltrate",
          "nA": 1,
          "nB": 2,
          "cas_union": 0.7324427801009873,
          "oc_union": 0.7326251867744531,
          "ar_union": 1.0456435425946575,
          "area_a_union": 1983676.0,
          "area_b_union": 2074218.0,
          "area_intersection_union": 1453291.0
        }
      }
    },
    {
      "type": "Feature",
      "id": "5eb4c90e-cb86-400e-b986-ec2781334aee",
      "geometry": {
        "type": "Polygon",
        "coordinates": [
          [
            [
              4921.0,
              16267.0
            ],
            [
              4921.0,
              21121.0
            ],
            [
              9518.0,
              21121.0
            ],
            [
              9518.0,
              16267.0
            ],
            [
              4921.0,
              16267.0
            ]
          ]
        ]
      },
      "properties": {
        "objectType": "annotation",
        "classification": {
          "name": "B | Marked (>50%) crypt distortion",
          "color": [
            0,
            51,
            0
          ]
        },
        "isLocked": true,
        "case_key": "S2415106A01",
        "source": "B",
        "orig_class": "Marked (>50%) crypt distortion",
        "match": {
          "status": "component_tp",
          "component_id": "Marked (>50%) crypt distortion:comp_18",
          "class": "Marked (>50%) crypt distortion",
          "nA": 1,
          "nB": 1,
          "cas_union": 0.9944776921143175,
          "oc_union": 1.0,
          "ar_union": 1.234267632488862,
          "area_a_union": 27541248.0,
          "area_b_union": 22313838.0,
          "area_intersection_union": 22313838.0
        }
      }
    },
    {
      "type": "Feature",
      "id": "b2e7f418-946c-4e42-8f6d-8d029f5f6e4c",
      "geometry": {
        "type": "Polygon",
        "coordinates": [
          [
            [
              7091.0,
              9174.0
            ],
            [
              7091.0,
              15517.0
            ],
            [
              10268.0,
              15517.0
            ],
            [
              10268.0,
              9174.0
            ],
            [
              7091.0,
              9174.0
            ]
          ]
        ]
      },
      "properties": {
        "objectType": "annotation",
        "classification": {
          "name": "B | Marked (>50%) crypt distortion",
          "color": [
            0,
            51,
            0
          ]
        },
        "isLocked": true,
        "case_key": "S2415106A01",
        "source": "B",
        "orig_class": "Marked (>50%) crypt distortion",
        "match": {
          "status": "component_tp",
          "component_id": "Marked (>50%) crypt distortion:comp_17",
          "class": "Marked (>50%) crypt distortion",
          "nA": 1,
          "nB": 1,
          "cas_union": 0.9478025628630624,
          "oc_union": 1.0,
          "ar_union": 1.9249184349656463,
          "area_a_union": 38790400.0,
          "area_b_union": 20151711.0,
          "area_intersection_union": 20151711.0
        }
      }
    },
    {
      "type": "Feature",
      "id": "1c2e4277-9c7b-49a4-82f7-535607b6d0e7",
      "geometry": {
        "type": "Polygon",
        "coordinates": [
          [
            [
              14382.0,
              6767.0
            ],
            [
              14382.0,
              9500.0
            ],
            [
              17864.0,
              9500.0
            ],
            [
              17864.0,
              6767.0
            ],
            [
              14382.0,
              6767.0
            ]
          ]
        ]
      },
      "properties": {
        "objectType": "annotation",
        "classification": {
          "name": "B | Marked (>50%) crypt distortion",
          "color": [
            0,
            51,
            0
          ]
        },
        "isLocked": true,
        "case_key": "S2415106A01",
        "source": "B",
        "orig_class": "Marked (>50%) crypt distortion",
        "match": {
          "status": "component_tp",
          "component_id": "Marked (>50%) crypt distortion:comp_22",
          "class": "Marked (>50%) crypt distortion",
          "nA": 1,
          "nB": 1,
          "cas_union": 0.8916642604721474,
          "oc_union": 1.0,
          "ar_union": 2.605880895381044,
          "area_a_union": 24798360.0,
          "area_b_union": 9516306.0,
          "area_intersection_union": 9516306.0
        }
      }
    },
    {
      "type": "Feature",
      "id": "73ae4117-6c2c-4936-bb93-f009f50f8a24",
      "geometry": {
        "type": "Polygon",
        "coordinates": [
          [
            [
              20232.0,
              3462.0
            ],
            [
              20232.0,
              10476.0
            ],
            [
              23626.0,
              10476.0
            ],
            [
              23626.0,
              3462.0
            ],
            [
              20232.0,
              3462.0
            ]
          ]
        ]
      },
      "properties": {
        "objectType": "annotation",
        "classification": {
          "name": "B | Marked (>50%) crypt distortion",
          "color": [
            0,
            51,
            0
          ]
        },
        "isLocked": true,
        "case_key": "S2415106A01",
        "source": "B",
        "orig_class": "Marked (>50%) crypt distortion",
        "match": {
          "status": "component_tp",
          "component_id": "Marked (>50%) crypt distortion:comp_21",
          "class": "Marked (>50%) crypt distortion",
          "nA": 1,
          "nB": 1,
          "cas_union": 0.8326775819748006,
          "oc_union": 0.855792334199721,
          "ar_union": 1.596841562138027,
          "area_a_union": 14907876.0,
          "area_b_union": 23805516.0,
          "area_intersection_union": 12758046.0
        }
      }
    },
    {
      "type": "Feature",
      "id": "cce0ecfd-e5b3-46ce-8556-39ec677fb944",
      "geometry": {
        "type": "Polygon",
        "coordinates": [
          [
            [
              20647.0,
              12077.0
            ],
            [
              20647.0,
              17647.0
            ],
            [
              27864.0,
              17647.0
            ],
            [
              27864.0,
              12077.0
            ],
            [
              20647.0,
              12077.0
            ]
          ]
        ]
      },
      "properties": {
        "objectType": "annotation",
        "classification": {
          "name": "B | Marked (>50%) crypt distortion",
          "color": [
            0,
            51,
            0
          ]
        },
        "isLocked": true,
        "case_key": "S2415106A01",
        "source": "B",
        "orig_class": "Marked (>50%) crypt distortion",
        "match": {
          "status": "component_tp",
          "component_id": "Marked (>50%) crypt distortion:comp_15",
          "class": "Marked (>50%) crypt distortion",
          "nA": 1,
          "nB": 1,
          "cas_union": 0.9121502429890369,
          "oc_union": 0.9127061105722599,
          "ar_union": 1.0723067841265475,
          "area_a_union": 43105328.0,
          "area_b_union": 40198690.0,
          "area_intersection_union": 36689590.0
        }
      }
    },
    {
      "type": "Feature",
      "id": "668cc7d2-89bb-4979-ac7c-1b264537939e",
      "geometry": {
        "type": "Polygon",
        "coordinates": [
          [
            [
              12162.0,
              11655.0
            ],
            [
              12162.0,
              19878.0
            ],
            [
              18548.0,
              19878.0
            ],
            [
              18548.0,
              11655.0
            ],
            [
              12162.0,
              11655.0
            ]
          ]
        ]
      },
      "properties": {
        "objectType": "annotation",
        "classification": {
          "name": "B | Marked (>50%) crypt distortion",
          "color": [
            0,
            51,
            0
          ]
        },
        "isLocked": true,
        "case_key": "S2415106A01",
        "source": "B",
        "orig_class": "Marked (>50%) crypt distortion",
        "match": {
          "status": "component_tp",
          "component_id": "Marked (>50%) crypt distortion:comp_16",
          "class": "Marked (>50%) crypt distortion",
          "nA": 1,
          "nB": 1,
          "cas_union": 0.9599010066860965,
          "oc_union": 0.9946491548096802,
          "ar_union": 1.7046604782998684,
          "area_a_union": 89515264.0,
          "area_b_union": 52512078.0,
          "area_intersection_union": 52231094.0
        }
      }
    },
    {
      "type": "Feature",
      "id": "be69d6fb-8bba-4235-a60a-de0ea3466331",
      "geometry": {
        "type": "Polygon",
        "coordinates": [
          [
            [
              6972.0,
              22415.0
            ],
            [
              6972.0,
              27141.0
            ],
            [
              9715.0,
              27141.0
            ],
            [
              9715.0,
              22415.0
            ],
            [
              6972.0,
              22415.0
            ]
          ]
        ]
      },
      "properties": {
        "objectType": "annotation",
        "classification": {
          "name": "B | Marked (>50%) crypt distortion",
          "color": [
            0,
            51,
            0
          ]
        },
        "isLocked": true,
        "case_key": "S2415106A01",
        "source": "B",
        "orig_class": "Marked (>50%) crypt distortion",
        "match": {
          "status": "component_tp",
          "component_id": "Marked (>50%) crypt distortion:comp_19",
          "class": "Marked (>50%) crypt distortion",
          "nA": 1,
          "nB": 1,
          "cas_union": 0.9630458771744973,
          "oc_union": 1.0,
          "ar_union": 1.731256987933275,
          "area_a_union": 22443008.0,
          "area_b_union": 12963418.0,
          "area_intersection_union": 12963418.0
        }
      }
    },
    {
      "type": "Feature",
      "id": "5a30edca-b396-4825-a524-28e509a7be4d",
      "geometry": {
        "type": "Polygon",
        "coordinates": [
          [
            [
              10494.0,
              20571.0
            ],
            [
              10494.0,
              28533.0
            ],
            [
              13326.0,
              28533.0
            ],
            [
              13326.0,
              20571.0
            ],
            [
              10494.0,
              20571.0
            ]
          ]
        ]
      },
      "properties": {
        "objectType": "annotation",
        "classification": {
          "name": "B | Marked (>50%) crypt distortion",
          "color": [
            0,
            51,
            0
          ]
        },
        "isLocked": true,
        "case_key": "S2415106A01",
        "source": "B",
        "orig_class": "Marked (>50%) crypt distortion",
        "match": {
          "status": "component_tp",
          "component_id": "Marked (>50%) crypt distortion:comp_20",
          "class": "Marked (>50%) crypt distortion",
          "nA": 1,
          "nB": 2,
          "cas_union": 0.9252220794268312,
          "oc_union": 1.0,
          "ar_union": 2.2001490908698047,
          "area_a_union": 58650624.0,
          "area_b_union": 26657568.0,
          "area_intersection_union": 26657568.0
        }
      }
    },
    {
      "type": "Feature",
      "id": "902fb4e4-686a-4715-9f82-5d8d630cd300",
      "geometry": {
        "type": "Polygon",
        "coordinates": [
          [
            [
              9518.0,
              28663.0
            ],
            [
              9518.0,
              30139.0
            ],
            [
              12302.0,
              30139.0
            ],
            [
              12302.0,
              28663.0
            ],
            [
              9518.0,
              28663.0
            ]
          ]
        ]
      },
      "properties": {
        "objectType": "annotation",
        "classification": {
          "name": "B | Marked (>50%) crypt distortion",
          "color": [
            0,
            51,
            0
          ]
        },
        "isLocked": true,
        "case_key": "S2415106A01",
        "source": "B",
        "orig_class": "Marked (>50%) crypt distortion",
        "match": {
          "status": "component_tp",
          "component_id": "Marked (>50%) crypt distortion:comp_20",
          "class": "Marked (>50%) crypt distortion",
          "nA": 1,
          "nB": 2,
          "cas_union": 0.9252220794268312,
          "oc_union": 1.0,
          "ar_union": 2.2001490908698047,
          "area_a_union": 58650624.0,
          "area_b_union": 26657568.0,
          "area_intersection_union": 26657568.0
        }
      }
    }
  ]
}