{
  "type": "FeatureCollection",
  "features": [
    {
      "type": "Feature",
      "id": "f346ab8d-6368-41b5-ba0f-142e2d0496a8",
      "geometry": {
        "type": "Polygon",
        "coordinates": [
          [
            [
              13925.0,
              13047.0
            ],
            [
              13925.0,
              15491.0
            ],
            [
              14635.0,
              15491.0
            ],
            [
              14635.0,
              13047.0
            ],
            [
              13925.0,
              13047.0
            ]
          ]
        ]
      },
      "properties": {
        "objectType": "annotation",
        "classification": {
          "name": "B | Ulcer/ erosion",
          "color": [
            255,
            0,
            0
          ]
        },
        "isLocked": true,
        "case_key": "2346045_2",
        "source": "B",
        "orig_class": "Ulcer/ erosion",
        "match": {
          "status": "unmatched"
        }
      }
    },
    {
      "type": "Feature",
      "id": "ff8497d7-8a1c-4cca-a6e4-c1f425e846be",
      "geometry": {
        "type": "Polygon",
        "coordinates": [
          [
            [
              12922.0,
              13360.0
            ],
            [
              12922.0,
              14204.0
            ],
            [
              13362.0,
              14204.0
            ],
            [
              13362.0,
              13360.0
            ],
            [
              12922.0,
              13360.0
            ]
          ]
        ]
      },
      "properties": {
        "objectType": "annotation",
        "classification": {
          "name": "B | Ulcer/ erosion",
          "color": [
            255,
            0,
            0
          ]
        },
        "isLocked": true,
        "case_key": "2346045_2",
        "source": "B",
        "orig_class": "Ulcer/ erosion",
        "match": {
          "status": "unmatched"
        }
      }
    },
    {
      "type": "Feature",
      "id": "4ed65de5-28bd-40d5-8d98-51169e08d3db",
      "geometry": {
        "type": "Polygon",
        "coordinates": [
          [
            [
              12558.0,
              14950.0
            ],
            [
              12558.0,
              15725.0
            ],
            [
              13125.0,
              15725.0
            ],
            [
              13125.0,
              14950.0
            ],
            [
              12558.0,
              14950.0
            ]
          ]
        ]
      },
      "properties": {
        "objectType": "annotation",
        "classification": {
          "name": "B | Ulcer/ erosion",
          "color": [
            255,
            0,
            0
          ]
        },
        "isLocked": true,
        "case_key": "2346045_2",
        "source": "B",
        "orig_class": "Ulcer/ erosion",
        "match": {
          "status": "unmatched"
        }
      }
    },
    {
      "type": "Feature",
      "id": "a8e7133f-4d75-4cfe-8398-7a65fd704ba5",
      "geometry": {
        "type": "Polygon",
        "coordinates": [
          [
            [
              10104.0,
              5013.0
            ],
            [
              10104.0,
              5981.0
            ],
            [
              11176.0,
              5981.0
            ],
            [
              11176.0,
              5013.0
            ],
            [
              10104.0,
              5013.0
            ]
          ]
        ]
      },
      "properties": {
        "objectType": "annotation",
        "classification": {
          "name": "B | Ulcer/ erosion",
          "color": [
            255,
            0,
            0
          ]
        },
        "isLocked": true,
        "case_key": "2346045_2",
        "source": "B",
        "orig_class": "Ulcer/ erosion",
        "match": {
          "status": "unmatched"
        }
      }
    },
    {
      "type": "Feature",
      "id": "037f1dcb-c3cb-4d9e-8e1f-fca6b695a9c9",
      "geometry": {
        "type": "Polygon",
        "coordinates": [
          [
            [
              9347.0,
              1196.0
            ],
            [
              9347.0,
              1621.0
            ],
            [
              9955.0,
              1621.0
            ],
            [
              9955.0,
              1196.0
            ],
            [
              9347.0,
              1196.0
            ]
          ]
        ]
      },
      "properties": {
        "objectType": "annotation",
        "classification": {
          "name": "B | Ulcer/ erosion",
          "color": [
            255,
            0,
            0
          ]
        },
        "isLocked": true,
        "case_key": "2346045_2",
        "source": "B",
        "orig_class": "Ulcer/ erosion",
        "match": {
          "status": "unmatched"
        }
      }
    },
    {
      "type": "Feature",
      "id": "30a3c810-cda4-4a14-bf24-e45fad58edda",
      "geometry": {
        "type": "Polygon",
        "coordinates": [
          [
            [
              10083.0,
              1499.0
            ],
            [
              10083.0,
              1829.0
            ],
            [
              10813.0,
              1829.0
            ],
            [
              10813.0,
              1499.0
            ],
            [
              10083.0,
              1499.0
            ]
          ]
        ]
      },
      "properties": {
        "objectType": "annotation",
        "classification": {
          "name": "B | Ulcer/ erosion",
          "color": [
            255,
            0,
            0
          ]
        },
        "isLocked": true,
        "case_key": "2346045_2",
        "source": "B",
        "orig_class": "Ulcer/ erosion",
        "match": {
          "status": "unmatched"
        }
      }
    },
    {
      "type": "Feature",
      "id": "f275dac3-63c1-415e-b312-19a65fe4e632",
      "geometry": {
        "type": "Polygon",
        "coordinates": [
          [
            [
              5941.0,
              5232.0
            ],
            [
              5941.0,
              5949.0
            ],
            [
              6660.0,
              5949.0
            ],
            [
              6660.0,
              5232.0
            ],
            [
              5941.0,
              5232.0
            ]
          ]
        ]
      },
      "properties": {
        "objectType": "annotation",
        "classification": {
          "name": "B | Ulcer/ erosion",
          "color": [
            255,
            0,
            0
          ]
        },
        "isLocked": true,
        "case_key": "2346045_2",
        "source": "B",
        "orig_class": "Ulcer/ erosion",
        "match": {
          "status": "unmatched"
        }
      }
    },
    {
      "type": "Feature",
      "id": "6e96125e-c15c-46cf-9e93-b48e39f1bf58",
      "geometry": {
        "type": "Polygon",
        "coordinates": [
          [
            [
              6396.0,
              6127.0
            ],
            [
              6396.0,
              6470.0
            ],
            [
              6816.0,
              6470.0
            ],
            [
              6816.0,
              6127.0
            ],
            [
              6396.0,
              6127.0
            ]
          ]
        ]
      },
      "properties": {
        "objectType": "annotation",
        "classification": {
          "name": "B | Ulcer/ erosion",
          "color": [
            255,
            0,
            0
          ]
        },
        "isLocked": true,
        "case_key": "2346045_2",
        "source": "B",
        "orig_class": "Ulcer/ erosion",
        "match": {
          "status": "unmatched"
        }
      }
    },
    {
      "type": "Feature",
      "id": "95abb554-3b5a-49a7-a445-92f2d208a2f7",
      "geometry": {
        "type": "Polygon",
        "coordinates": [
          [
            [
              6506.0,
              6707.0
            ],
            [
              6506.0,
              7147.0
            ],
            [
              6767.0,
              7147.0
            ],
            [
              6767.0,
              6707.0
            ],
            [
              6506.0,
              6707.0
            ]
          ]
        ]
      },
      "properties": {
        "objectType": "annotation",
        "classification": {
          "name": "B | Ulcer/ erosion",
          "color": [
            255,
            0,
            0
          ]
        },
        "isLocked": true,
        "case_key": "2346045_2",
        "source": "B",
        "orig_class": "Ulcer/ erosion",
        "match": {
          "status": "unmatched"
        }
      }
    },
    {
      "type": "Feature",
      "id": "370f73b6-11be-4dfd-af8a-3248ed6741b6",
      "geometry": {
        "type": "Polygon",
        "coordinates": [
          [
            [
              7866.0,
              13946.0
            ],
            [
              7866.0,
              14326.0
            ],
            [
              9071.0,
              14326.0
            ],
            [
              9071.0,
              13946.0
            ],
            [
              7866.0,
              13946.0
            ]
          ]
        ]
      },
      "properties": {
        "objectType": "annotation",
        "classification": {
          "name": "B | Ulcer/ erosion",
          "color": [
            255,
            0,
            0
          ]
        },
        "isLocked": true,
        "case_key": "2346045_2",
        "source": "B",
        "orig_class": "Ulcer/ erosion",
        "match": {
          "status": "unmatched"
        }
      }
    },
    {
      "type": "Feature",
      "id": "efa3c6b5-2ec2-489e-95b6-952094cc1877",
      "geometry": {
        "type": "Polygon",
        "coordinates": [
          [
            [
              8249.0,
              1237.0
            ],
            [
              8249.0,
              1650.0
            ],
            [
              8909.0,
              1650.0
            ],
            [
              8909.0,
              1237.0
            ],
            [
              8249.0,
              1237.0
            ]
          ]
        ]
      },
      "properties": {
        "objectType": "annotation",
        "classification": {
          "name": "B | Ulcer/ erosion",
          "color": [
            255,
            0,
            0
          ]
        },
        "isLocked": true,
        "case_key": "2346045_2",
        "source": "B",
        "orig_class": "Ulcer/ erosion",
        "match": {
          "status": "unmatched"
        }
      }
    },
    {
      "type": "Feature",
      "id": "a28acb0b-58f7-4f30-add0-e5308215d99c",
      "geometry": {
        "type": "Polygon",
        "coordinates": [
          [
            [
              6037.0,
              2684.0
            ],
            [
              6037.0,
              3046.0
            ],
            [
              7058.0,
              3046.0
            ],
            [
              7058.0,
              2684.0
            ],
            [
              6037.0,
              2684.0
            ]
          ]
        ]
      },
      "properties": {
        "objectType": "annotation",
        "classification": {
          "name": "B | Ulcer/ erosion",
          "color": [
            255,
            0,
            0
          ]
        },
        "isLocked": true,
        "case_key": "2346045_2",
        "source": "B",
        "orig_class": "Ulcer/ erosion",
        "match": {
          "status": "unmatched"
        }
      }
    },
    {
      "type": "Feature",
      "id": "3ca69180-6f1a-4b37-8f34-dbc82b37a2da",
      "geometry": {
        "type": "Polygon",
        "coordinates": [
          [
            [
              5883.0,
              3069.0
            ],
            [
              5883.0,
              3628.0
            ],
            [
              6090.0,
              3628.0
            ],
            [
              6090.0,
              3069.0
            ],
            [
              5883.0,
              3069.0
            ]
          ]
        ]
      },
      "properties": {
        "objectType": "annotation",
        "classification": {
          "name": "B | Ulcer/ erosion",
          "color": [
            255,
            0,
            0
          ]
        },
        "isLocked": true,
        "case_key": "2346045_2",
        "source": "B",
        "orig_class": "Ulcer/ erosion",
        "match": {
          "status": "unmatched"
        }
      }
    },
    {
      "type": "Feature",
      "id": "24fcd1d6-2bbe-4add-8dd7-844ae36b3cd7",
      "geometry": {
        "type": "Polygon",
        "coordinates": [
          [
            [
              6072.0,
              4469.0
            ],
            [
              6072.0,
              5004.0
            ],
            [
              6832.0,
              5004.0
            ],
            [
              6832.0,
              4469.0
            ],
            [
              6072.0,
              4469.0
            ]
          ]
        ]
      },
      "properties": {
        "objectType": "annotation",
        "classification": {
          "name": "B | Ulcer/ erosion",
          "color": [
            255,
            0,
            0
          ]
        },
        "isLocked": true,
        "case_key": "2346045_2",
        "source": "B",
        "orig_class": "Ulcer/ erosion",
        "match": {
          "status": "unmatched"
        }
      }
    },
    {
      "type": "Feature",
      "id": "f6357420-8631-4cfe-9890-2e328c7cda91",
      "geometry": {
        "type": "Polygon",
        "coordinates": [
          [
            [
              7355.0,
              11967.0
            ],
            [
              7355.0,
              13823.0
            ],
            [
              9448.0,
              13823.0
            ],
            [
              9448.0,
              11967.0
            ],
            [
              7355.0,
              11967.0
            ]
          ]
        ]
      },
      "properties": {
        "objectType": "annotation",
        "classification": {
          "name": "B | Basal lymphoid aggregates",
          "color": [
            0,
            0,
            255
          ]
        },
        "isLocked": true,
        "case_key": "2346045_2",
        "source": "B",
        "orig_class": "Basal lymphoid aggregates",
        "match": {
          "status": "unmatched"
        }
      }
    },
    {
      "type": "Feature",
      "id": "f128fe24-8f1d-417c-98c3-74ae6071fd68",
      "geometry": {
        "type": "Polygon",
        "coordinates": [
          [
            [
              10956.0,
              9471.0
            ],
            [
              10956.0,
              10218.0
            ],
            [
              11977.0,
              10218.0
            ],
            [
              11977.0,
              9471.0
            ],
            [
              10956.0,
              9471.0
            ]
          ]
        ]
      },
      "properties": {
        "objectType": "annotation",
        "classification": {
          "name": "B | Basal lymphoid aggregates",
          "color": [
            0,
            0,
            255
          ]
        },
        "isLocked": true,
        "case_key": "2346045_2",
        "source": "B",
        "orig_class": "Basal lymphoid aggregates",
        "match": {
          "status": "unmatched"
        }
      }
    },
    {
      "type": "Feature",
      "id": "9af6a838-dc90-4b55-9313-670777d61a0f",
      "geometry": {
        "type": "Polygon",
        "coordinates": [
          [
            [
              6443.0,
              7452.0
            ],
            [
              6443.0,
              8121.0
            ],
            [
              6876.0,
              8121.0
            ],
            [
              6876.0,
              7452.0
            ],
            [
              6443.0,
              7452.0
            ]
          ]
        ]
      },
      "properties": {
        "objectType": "annotation",
        "classification": {
          "name": "B | Basal lymphoid aggregates",
          "color": [
            0,
            0,
            255
          ]
        },
        "case_key": "2346045_2",
        "source": "B",
        "orig_class": "Basal lymphoid aggregates",
        "match": {
          "status": "unmatched"
        }
      }
    },
    {
      "type": "Feature",
      "id": "7999325b-f43a-4015-bff1-29e091e5f5fc",
      "geometry": {
        "type": "Polygon",
        "coordinates": [
          [
            [
              9821.0,
              7861.0
            ],
            [
              9821.0,
              9160.0
            ],
            [
              10971.0,
              9160.0
            ],
            [
              10971.0,
              7861.0
            ],
            [
              9821.0,
              7861.0
            ]
          ]
        ]
      },
      "properties": {
        "objectType": "annotation",
        "classification": {
          "name": "B | Basal lymphoid aggregates",
          "color": [
            0,
            0,
            255
          ]
        },
        "isLocked": true,
        "case_key": "2346045_2",
        "source": "B",
        "orig_class": "Basal lymphoid aggregates",
        "match": {
          "status": "unmatched"
        }
      }
    },
    {
      "type": "Feature",
      "id": "44020d9e-77b1-4f05-a7ba-f67368f6343c",
      "geometry": {
        "type": "Polygon",
        "coordinates": [
          [
            [
              8459.0,
              8829.0
            ],
            [
              8459.0,
              9798.0
            ],
            [
              9617.0,
              9798.0
            ],
            [
              9617.0,
              8829.0
            ],
            [
              8459.0,
              8829.0
            ]
          ]
        ]
      },
      "properties": {
        "objectType": "annotation",
        "classification": {
          "name": "B | Moderate to marked mononuclear cell infiltrate",
          "color": [
            21,
            11,
            49
          ]
        },
        "isLocked": true,
        "case_key": "2346045_2",
        "source": "B",
        "orig_class": "Moderate to marked mononuclear cell infiltrate",
        "match": {
          "status": "unmatched"
        }
      }
    },
    {
      "type": "Feature",
      "id": "890ed760-e8dc-44cc-84e8-20ad03096874",
      "geometry": {
        "type": "Polygon",
        "coordinates": [
          [
            [
              8995.0,
              10682.0
            ],
            [
              8995.0,
              11695.0
            ],
            [
              10192.0,
              11695.0
            ],
            [
              10192.0,
              10682.0
            ],
            [
              8995.0,
              10682.0
            ]
          ]
        ]
      },
      "properties": {
        "objectType": "annotation",
        "classification": {
          "name": "B | Moderate to marked mononuclear cell infiltrate",
          "color": [
            21,
            11,
            49
          ]
        },
        "isLocked": true,
        "case_key": "2346045_2",
        "source": "B",
        "orig_class": "Moderate to marked mononuclear cell infiltrate",
        "match": {
          "status": "unmatched"
        }
      }
    },
    {
      "type": "Feature",
      "id": "9f903598-81c9-4fe2-b7d9-ad50a5547077",
      "geometry": {
        "type": "Polygon",
        "coordinates": [
          [
            [
              9257.0,
              11977.0
            ],
            [
              9257.0,
              12890.0
            ],
            [
              10591.0,
              12890.0
            ],
            [
              10591.0,
              11977.0
            ],
            [
              9257.0,
              11977.0
            ]
          ]
        ]
      },
      "properties": {
        "objectType": "annotation",
        "classification": {
          "name": "B | Moderate to marked mononuclear cell infiltrate",
          "color": [
            21,
            11,
            49
          ]
        },
        "isLocked": true,
        "case_key": "2346045_2",
        "source": "B",
        "orig_class": "Moderate to marked mononuclear cell infiltrate",
        "match": {
          "status": "unmatched"
        }
      }
    },
    {
      "type": "Feature",
      "id": "78197f0e-c199-4789-af62-f283fc3ba5f2",
      "geometry": {
        "type": "Polygon",
        "coordinates": [
          [
            [
              10282.0,
              14077.0
            ],
            [
              10282.0,
              14467.0
            ],
            [
              11138.0,
              14467.0
            ],
            [
              11138.0,
              14077.0
            ],
            [
              10282.0,
              14077.0
            ]
          ]
        ]
      },
      "properties": {
        "objectType": "annotation",
        "classification": {
          "name": "B | Ulcer/ erosion",
          "color": [
            255,
            0,
            0
          ]
        },
        "isLocked": true,
        "case_key": "2346045_2",
        "source": "B",
        "orig_class": "Ulcer/ erosion",
        "match": {
          "status": "unmatched"
        }
      }
    },
    {
      "type": "Feature",
      "id": "1f0b2137-6c41-477f-a0f3-ad2c6f71311a",
      "geometry": {
        "type": "Polygon",
        "coordinates": [
          [
            [
              9492.0,
              9364.0
            ],
            [
              9492.0,
              10635.0
            ],
            [
              11115.0,
              10635.0
            ],
            [
              11115.0,
              9364.0
            ],
            [
              9492.0,
              9364.0
            ]
          ]
        ]
      },
      "properties": {
        "objectType": "annotation",
        "classification": {
          "name": "B | Moderate to marked mononuclear cell infiltrate",
          "color": [
            21,
            11,
            49
          ]
        },
        "isLocked": true,
        "case_key": "2346045_2",
        "source": "B",
        "orig_class": "Moderate to marked mononuclear cell infiltrate",
        "match": {
          "status": "unmatched"
        }
      }
    },
    {
      "type": "Feature",
      "id": "8dd1643e-6d59-47c2-a554-f28697323abd",
      "geometry": {
        "type": "Polygon",
        "coordinates": [
          [
            [
              8411.0,
              9805.0
            ],
            [
              8411.0,
              11266.0
            ],
            [
              9564.0,
              11266.0
            ],
            [
              9564.0,
              9805.0
            ],
            [
              8411.0,
              9805.0
            ]
          ]
        ]
      },
      "properties": {
        "objectType": "annotation",
        "classification": {
          "name": "B | Moderate to marked mononuclear cell infiltrate",
          "color": [
            21,
            11,
            49
          ]
        },
        "isLocked": true,
        "case_key": "2346045_2",
        "source": "B",
        "orig_class": "Moderate to marked mononuclear cell infiltrate",
        "match": {
          "status": "unmatched"
        }
      }
    },
    {
      "type": "Feature",
      "id": "f3380924-015a-484e-b9a0-9b1a62a9114d",
      "geometry": {
        "type": "Polygon",
        "coordinates": [
          [
            [
              7732.0,
              7300.0
            ],
            [
              7732.0,
              8913.0
            ],
            [
              9094.0,
              8913.0
            ],
            [
              9094.0,
              7300.0
            ],
            [
              7732.0,
              7300.0
            ]
          ]
        ]
      },
      "properties": {
        "objectType": "annotation",
        "classification": {
          "name": "B | Moderate to marked mononuclear cell infiltrate",
          "color": [
            21,
            11,
            49
          ]
        },
        "isLocked": true,
        "case_key": "2346045_2",
        "source": "B",
        "orig_class": "Moderate to marked mononuclear cell infiltrate",
        "match": {
          "status": "unmatched"
        }
      }
    },
    {
      "type": "Feature",
      "id": "445d2f7c-739f-49f7-9b84-437c12a7b7a1",
      "geometry": {
        "type": "Polygon",
        "coordinates": [
          [
            [
              7497.0,
              9345.0
            ],
            [
              7497.0,
              10467.0
            ],
            [
              8565.0,
              10467.0
            ],
            [
              8565.0,
              9345.0
            ],
            [
              7497.0,
              9345.0
            ]
          ]
        ]
      },
      "properties": {
        "objectType": "annotation",
        "classification": {
          "name": "B | Moderate to marked mononuclear cell infiltrate",
          "color": [
            21,
            11,
            49
          ]
        },
        "isLocked": true,
        "case_key": "2346045_2",
        "source": "B",
        "orig_class": "Moderate to marked mononuclear cell infiltrate",
        "match": {
          "status": "unmatched"
        }
      }
    },
    {
      "type": "Feature",
      "id": "eb4c47fa-4119-4e9e-a83e-fd5db170f185",
      "geometry": {
        "type": "Polygon",
        "coordinates": [
          [
            [
              7657.0,
              3895.0
            ],
            [
              7657.0,
              5057.0
            ],
            [
              9023.0,
              5057.0
            ],
            [
              9023.0,
              3895.0
            ],
            [
              7657.0,
              3895.0
            ]
          ]
        ]
      },
      "properties": {
        "objectType": "annotation",
        "classification": {
          "name": "B | Moderate to marked mononuclear cell infiltrate",
          "color": [
            21,
            11,
            49
          ]
        },
        "isLocked": true,
        "case_key": "2346045_2",
        "source": "B",
        "orig_class": "Moderate to marked mononuclear cell infiltrate",
        "match": {
          "status": "unmatched"
        }
      }
    },
    {
      "type": "Feature",
      "id": "b2e63d12-06e8-40a5-8b60-8f2aaecae437",
      "geometry": {
        "type": "Polygon",
        "coordinates": [
          [
            [
              7495.0,
              6721.0
            ],
            [
              7495.0,
              7206.0
            ],
            [
              7986.0,
              7206.0
            ],
            [
              7986.0,
              6721.0
            ],
            [
              7495.0,
              6721.0
            ]
          ]
        ]
      },
      "properties": {
        "objectType": "annotation",
        "classification": {
          "name": "B | Moderate to marked mononuclear cell infiltrate",
          "color": [
            21,
            11,
            49
          ]
        },
        "isLocked": true,
        "case_key": "2346045_2",
        "source": "B",
        "orig_class": "Moderate to marked mononuclear cell infiltrate",
        "match": {
          "status": "unmatched"
        }
      }
    },
    {
      "type": "Feature",
      "id": "0f3b6eb1-9346-4d67-85b2-371defd2da17",
      "geometry": {
        "type": "Polygon",
        "coordinates": [
          [
            [
              10063.0,
              6494.0
            ],
            [
              10063.0,
              7477.0
            ],
            [
              10508.0,
              7477.0
            ],
            [
              10508.0,
              6494.0
            ],
            [
              10063.0,
              6494.0
            ]
          ]
        ]
      },
      "properties": {
        "objectType": "annotation",
        "classification": {
          "name": "B | Moderate to marked mononuclear cell infiltrate",
          "color": [
            21,
            11,
            49
          ]
        },
        "isLocked": true,
        "case_key": "2346045_2",
        "source": "B",
        "orig_class": "Moderate to marked mononuclear cell infiltrate",
        "match": {
          "status": "unmatched"
        }
      }
    },
    {
      "type": "Feature",
      "id": "b4cb074f-99e1-4ad6-ab6e-ebbb3887166b",
      "geometry": {
        "type": "Polygon",
        "coordinates": [
          [
            [
              11109.0,
              10828.0
            ],
            [
              11109.0,
              11808.0
            ],
            [
              11805.0,
              11808.0
            ],
            [
              11805.0,
              10828.0
            ],
            [
              11109.0,
              10828.0
            ]
          ]
        ]
      },
      "properties": {
        "objectType": "annotation",
        "classification": {
          "name": "B | Moderate to marked mononuclear cell infiltrate",
          "color": [
            21,
            11,
            49
          ]
        },
        "isLocked": true,
        "case_key": "2346045_2",
        "source": "B",
        "orig_class": "Moderate to marked mononuclear cell infiltrate",
        "match": {
          "status": "unmatched"
        }
      }
    },
    {
      "type": "Feature",
      "id": "1952ed50-dfeb-4f73-b473-2bbc66525108",
      "geometry": {
        "type": "Polygon",
        "coordinates": [
          [
            [
              10228.0,
              11015.0
            ],
            [
              10228.0,
              11850.0
            ],
            [
              11090.0,
              11850.0
            ],
            [
              11090.0,
              11015.0
            ],
            [
              10228.0,
              11015.0
            ]
          ]
        ]
      },
      "properties": {
        "objectType": "annotation",
        "classification": {
          "name": "B | Moderate to marked mononuclear cell infiltrate",
          "color": [
            21,
            11,
            49
          ]
        },
        "isLocked": true,
        "case_key": "2346045_2",
        "source": "B",
        "orig_class": "Moderate to marked mononuclear cell infiltrate",
        "match": {
          "status": "unmatched"
        }
      }
    },
    {
      "type": "Feature",
      "id": "573b891c-8e4a-4f80-8a94-927d25e47183",
      "geometry": {
        "type": "Polygon",
        "coordinates": [
          [
            [
              10016.0,
              3053.0
            ],
            [
              10016.0,
              4063.0
            ],
            [
              10346.0,
              4063.0
            ],
            [
              10346.0,
              3053.0
            ],
            [
              10016.0,
              3053.0
            ]
          ]
        ]
      },
      "properties": {
        "objectType": "annotation",
        "classification": {
          "name": "B | Ulcer/ erosion",
          "color": [
            255,
            0,
            0
          ]
        },
        "isLocked": true,
        "case_key": "2346045_2",
        "source": "B",
        "orig_class": "Ulcer/ erosion",
        "match": {
          "status": "unmatched"
        }
      }
    },
    {
      "type": "Feature",
      "id": "576748c6-56e7-4920-ba90-a5824d0884bc",
      "geometry": {
        "type": "Polygon",
        "coordinates": [
          [
            [
              6071.0,
              1945.0
            ],
            [
              6071.0,
              5696.0
            ],
            [
              10402.0,
              5696.0
            ],
            [
              10402.0,
              1945.0
            ],
            [
              6071.0,
              1945.0
            ]
          ]
        ]
      },
      "properties": {
        "objectType": "annotation",
        "classification": {
          "name": "B | Marked (>50%) crypt distortion",
          "color": [
            0,
            51,
            0
          ]
        },
        "isLocked": true,
        "case_key": "2346045_2",
        "source": "B",
        "orig_class": "Marked (>50%) crypt distortion",
        "match": {
          "status": "unmatched"
        }
      }
    },
    {
      "type": "Feature",
      "id": "7818f944-4694-4961-abfe-51c7c31d0ca9",
      "geometry": {
        "type": "Polygon",
        "coordinates": [
          [
            [
              7652.0,
              10317.0
            ],
            [
              7652.0,
              14665.0
            ],
            [
              11838.0,
              14665.0
            ],
            [
              11838.0,
              10317.0
            ],
            [
              7652.0,
              10317.0
            ]
          ]
        ]
      },
      "properties": {
        "objectType": "annotation",
        "classification": {
          "name": "B | Marked (>50%) crypt distortion",
          "color": [
            0,
            51,
            0
          ]
        },
        "isLocked": true,
        "case_key": "2346045_2",
        "source": "B",
        "orig_class": "Marked (>50%) crypt distortion",
        "match": {
          "status": "unmatched"
        }
      }
    },
    {
      "type": "Feature",
      "id": "10431a9d-dd01-4a00-8172-90d0f5bf0ebc",
      "geometry": {
        "type": "Polygon",
        "coordinates": [
          [
            [
              38310.0,
              10392.0
            ],
            [
              38310.0,
              11886.0
            ],
            [
              42590.0,
              11886.0
            ],
            [
              42590.0,
              10392.0
            ],
            [
              38310.0,
              10392.0
            ]
          ]
        ]
      },
      "properties": {
        "objectType": "annotation",
        "case_key": "2346045_2",
        "source": "C",
        "orig_class": "unknown",
        "classification": {
          "name": "C | unknown"
        },
        "match": {
          "status": "unmatched"
        }
      }
    },
    {
      "type": "Feature",
      "id": "b425c2c2-b331-4f5c-b146-98fb7804e534",
      "geometry": {
        "type": "Polygon",
        "coordinates": [
          [
            [
              36492.0,
              11140.0
            ],
            [
              36492.0,
              18942.0
            ],
            [
              38143.0,
              18942.0
            ],
            [
              38143.0,
              11140.0
            ],
            [
              36492.0,
              11140.0
            ]
          ]
        ]
      },
      "properties": {
        "objectType": "annotation",
        "classification": {
          "name": "C | Ulcer/ erosions",
          "color": [
            255,
            0,
            0
          ]
        },
        "case_key": "2346045_2",
        "source": "C",
        "orig_class": "Ulcer/ erosions",
        "match": {
          "status": "unmatched"
        }
      }
    },
    {
      "type": "Feature",
      "id": "2f230092-d889-4dd9-9f7e-20062ff7f316",
      "geometry": {
        "type": "Polygon",
        "coordinates": [
          [
            [
              37318.0,
              18989.0
            ],
            [
              37318.0,
              24078.0
            ],
            [
              39262.0,
              24078.0
            ],
            [
              39262.0,
              18989.0
            ],
            [
              37318.0,
              18989.0
            ]
          ]
        ]
      },
      "properties": {
        "objectType": "annotation",
        "case_key": "2346045_2",
        "source": "C",
        "orig_class": "unknown",
        "classification": {
          "name": "C | unknown"
        },
        "match": {
          "status": "unmatched"
        }
      }
    },
    {
      "type": "Feature",
      "id": "87a0323f-0a43-47d3-8ca8-b6f78bc8ab81",
      "geometry": {
        "type": "Polygon",
        "coordinates": [
          [
            [
              40758.0,
              11935.0
            ],
            [
              40758.0,
              16245.0
            ],
            [
              42288.0,
              16245.0
            ],
            [
              42288.0,
              11935.0
            ],
            [
              40758.0,
              11935.0
            ]
          ]
        ]
      },
      "properties": {
        "objectType": "annotation",
        "classification": {
          "name": "C | Ulcer/ erosions",
          "color": [
            255,
            0,
            0
          ]
        },
        "case_key": "2346045_2",
        "source": "C",
        "orig_class": "Ulcer/ erosions",
        "match": {
          "status": "unmatched"
        }
      }
    },
    {
      "type": "Feature",
      "id": "f3ae6d8a-634f-40dd-9bd6-87cc26b68ec9",
      "geometry": {
        "type": "Polygon",
        "coordinates": [
          [
            [
              41042.0,
              16269.0
            ],
            [
              41042.0,
              21060.0
            ],
            [
              43312.0,
              21060.0
            ],
            [
              43312.0,
              16269.0
            ],
            [
              41042.0,
              16269.0
            ]
          ]
        ]
      },
      "properties": {
        "objectType": "annotation",
        "case_key": "2346045_2",
        "source": "C",
        "orig_class": "unknown",
        "classification": {
          "name": "C | unknown"
        },
        "match": {
          "status": "unmatched"
        }
      }
    },
    {
      "type": "Feature",
      "id": "12cc278a-91f5-461e-bd30-4d4ff82ed2cc",
      "geometry": {
        "type": "Polygon",
        "coordinates": [
          [
            [
              39449.0,
              23853.0
            ],
            [
              39449.0,
              25593.0
            ],
            [
              45867.0,
              25593.0
            ],
            [
              45867.0,
              23853.0
            ],
            [
              39449.0,
              23853.0
            ]
          ]
        ]
      },
      "properties": {
        "objectType": "annotation",
        "case_key": "2346045_2",
        "source": "C",
        "orig_class": "unknown",
        "classification": {
          "name": "C | unknown"
        },
        "match": {
          "status": "unmatched"
        }
      }
    },
    {
      "type": "Feature",
      "id": "3511344c-d15e-4b6b-bd03-ae6a1b1884c9",
      "geometry": {
        "type": "Polygon",
        "coordinates": [
          [
            [
              38189.0,
              11922.0
            ],
            [
              38189.0,
              15179.0
            ],
            [
              40758.0,
              15179.0
            ],
            [
              40758.0,
              11922.0
            ],
            [
              38189.0,
              11922.0
            ]
          ]
        ]
      },
      "properties": {
        "objectType": "annotation",
        "classification": {
          "name": "C | No ulcer/ moderate to severe activity",
          "color": [
            128,
            0,
            0
          ]
        },
        "case_key": "2346045_2",
        "source": "C",
        "orig_class": "No ulcer/ moderate to severe activity",
        "match": {
          "status": "unmatched"
        }
      }
    },
    {
      "type": "Feature",
      "id": "be658c37-95bb-4c67-b848-98f155500fef",
      "geometry": {
        "type": "Polygon",
        "coordinates": [
          [
            [
              38751.0,
              21478.0
            ],
            [
              38751.0,
              23522.0
            ],
            [
              40315.0,
              23522.0
            ],
            [
              40315.0,
              21478.0
            ],
            [
              38751.0,
              21478.0
            ]
          ]
        ]
      },
      "properties": {
        "objectType": "annotation",
        "classification": {
          "name": "C | Basal lymphoid aggregates",
          "color": [
            0,
            0,
            255
          ]
        },
        "case_key": "2346045_2",
        "source": "C",
        "orig_class": "Basal lymphoid aggregates",
        "match": {
          "status": "unmatched"
        }
      }
    },
    {
      "type": "Feature",
      "id": "d30e0550-1b49-4621-9e14-5ff0e3c14815",
      "geometry": {
        "type": "Polygon",
        "coordinates": [
          [
            [
              39792.0,
              20332.0
            ],
            [
              39792.0,
              21724.0
            ],
            [
              40909.0,
              21724.0
            ],
            [
              40909.0,
              20332.0
            ],
            [
              39792.0,
              20332.0
            ]
          ]
        ]
      },
      "properties": {
        "objectType": "annotation",
        "case_key": "2346045_2",
        "source": "C",
        "orig_class": "unknown",
        "classification": {
          "name": "C | unknown"
        },
        "match": {
          "status": "unmatched"
        }
      }
    },
    {
      "type": "Feature",
      "id": "656c4a18-21f3-4f1d-8515-747c83a8d0ae",
      "geometry": {
        "type": "Polygon",
        "coordinates": [
          [
            [
              39403.0,
              18129.0
            ],
            [
              39403.0,
              19872.0
            ],
            [
              40612.0,
              19872.0
            ],
            [
              40612.0,
              18129.0
            ],
            [
              39403.0,
              18129.0
            ]
          ]
        ]
      },
      "properties": {
        "objectType": "annotation",
        "classification": {
          "name": "C | Basal lymphoid aggregates",
          "color": [
            0,
            0,
            255
          ]
        },
        "case_key": "2346045_2",
        "source": "C",
        "orig_class": "Basal lymphoid aggregates",
        "match": {
          "status": "unmatched"
        }
      }
    },
    {
      "type": "Feature",
      "id": "b7d1208d-5c2d-4755-83d8-555d53445997",
      "geometry": {
        "type": "Polygon",
        "coordinates": [
          [
            [
              38804.0,
              14271.0
            ],
            [
              38804.0,
              18180.0
            ],
            [
              39931.0,
              18180.0
            ],
            [
              39931.0,
              14271.0
            ],
            [
              38804.0,
              14271.0
            ]
          ]
        ]
      },
      "properties": {
        "objectType": "annotation",
        "classification": {
          "name": "C | Basal plasmacytosis",
          "color": [
            202,
            65,
            86
          ]
        },
        "case_key": "2346045_2",
        "source": "C",
        "orig_class": "Basal plasmacytosis",
        "match": {
          "status": "unmatched"
        }
      }
    },
    {
      "type": "Feature",
      "id": "7ac204ca-563f-4778-95c2-5386ab851ae8",
      "geometry": {
        "type": "Polygon",
        "coordinates": [
          [
            [
              40370.0,
              18308.0
            ],
            [
              40370.0,
              21278.0
            ],
            [
              41288.0,
              21278.0
            ],
            [
              41288.0,
              18308.0
            ],
            [
              40370.0,
              18308.0
            ]
          ]
        ]
      },
      "properties": {
        "objectType": "annotation",
        "classification": {
          "name": "C | Basal plasmacytosis",
          "color": [
            202,
            65,
            86
          ]
        },
        "case_key": "2346045_2",
        "source": "C",
        "orig_class": "Basal plasmacytosis",
        "match": {
          "status": "unmatched"
        }
      }
    },
    {
      "type": "Feature",
      "id": "ad2e76a2-494a-4a5e-9cb7-b601468df3ae",
      "geometry": {
        "type": "Polygon",
        "coordinates": [
          [
            [
              40368.0,
              21230.0
            ],
            [
              40368.0,
              23872.0
            ],
            [
              42991.0,
              23872.0
            ],
            [
              42991.0,
              21230.0
            ],
            [
              40368.0,
              21230.0
            ]
          ]
        ]
      },
      "properties": {
        "objectType": "annotation",
        "classification": {
          "name": "C | No ulcer/ moderate to severe activity",
          "color": [
            128,
            0,
            0
          ]
        },
        "case_key": "2346045_2",
        "source": "C",
        "orig_class": "No ulcer/ moderate to severe activity",
        "match": {
          "status": "unmatched"
        }
      }
    },
    {
      "type": "Feature",
      "id": "6ff690da-8481-474f-9186-855ec5ee3677",
      "geometry": {
        "type": "Polygon",
        "coordinates": [
          [
            [
              38150.0,
              15193.0
            ],
            [
              38150.0,
              18886.0
            ],
            [
              38844.0,
              18886.0
            ],
            [
              38844.0,
              15193.0
            ],
            [
              38150.0,
              15193.0
            ]
          ]
        ]
      },
      "properties": {
        "objectType": "annotation",
        "classification": {
          "name": "C | Ulcer/ erosions",
          "color": [
            255,
            0,
            0
          ]
        },
        "case_key": "2346045_2",
        "source": "C",
        "orig_class": "Ulcer/ erosions",
        "match": {
          "status": "unmatched"
        }
      }
    },
    {
      "type": "Feature",
      "id": "034fc020-5f1e-494d-bdb7-b9e1a07d6095",
      "geometry": {
        "type": "Polygon",
        "coordinates": [
          [
            [
              39967.0,
              15188.0
            ],
            [
              39967.0,
              18414.0
            ],
            [
              41071.0,
              18414.0
            ],
            [
              41071.0,
              15188.0
            ],
            [
              39967.0,
              15188.0
            ]
          ]
        ]
      },
      "properties": {
        "objectType": "annotation",
        "classification": {
          "name": "C | No ulcer/ moderate to severe activity",
          "color": [
            128,
            0,
            0
          ]
        },
        "case_key": "2346045_2",
        "source": "C",
        "orig_class": "No ulcer/ moderate to severe activity",
        "match": {
          "status": "unmatched"
        }
      }
    },
    {
      "type": "Feature",
      "id": "934eceeb-5d3a-46c1-8502-607f6eaf9350",
      "geometry": {
        "type": "Polygon",
        "coordinates": [
          [
            [
              43062.0,
              21960.0
            ],
            [
              43062.0,
              23829.0
            ],
            [
              45406.0,
              23829.0
            ],
            [
              45406.0,
              21960.0
            ],
            [
              43062.0,
              21960.0
            ]
          ]
        ]
      },
      "properties": {
        "objectType": "annotation",
        "classification": {
          "name": "C | Ulcer/ erosions",
          "color": [
            255,
            0,
            0
          ]
        },
        "case_key": "2346045_2",
        "source": "C",
        "orig_class": "Ulcer/ erosions",
        "match": {
          "status": "unmatched"
        }
      }
    },
    {
      "type": "Feature",
      "id": "af08e451-d8b6-4207-9d4b-de5092148085",
      "geometry": {
        "type": "Polygon",
        "coordinates": [
          [
            [
              39295.0,
              19826.0
            ],
            [
              39295.0,
              21460.0
            ],
            [
              40407.0,
              21460.0
            ],
            [
              40407.0,
              19826.0
            ],
            [
              39295.0,
              19826.0
            ]
          ]
        ]
      },
      "properties": {
        "objectType": "annotation",
        "classification": {
          "name": "C | Ulcer/ erosions",
          "color": [
            255,
            0,
            0
          ]
        },
        "case_key": "2346045_2",
        "source": "C",
        "orig_class": "Ulcer/ erosions",
        "match": {
          "status": "unmatched"
        }
      }
    },
    {
      "type": "Feature",
      "id": "049f0dd0-c624-4a89-a854-09dee4193da9",
      "geometry": {
        "type": "Polygon",
        "coordinates": [
          [
            [
              39257.0,
              23551.0
            ],
            [
              39257.0,
              23834.0
            ],
            [
              40410.0,
              23834.0
            ],
            [
              40410.0,
              23551.0
            ],
            [
              39257.0,
              23551.0
            ]
          ]
        ]
      },
      "properties": {
        "objectType": "annotation",
        "case_key": "2346045_2",
        "source": "C",
        "orig_class": "unknown",
        "classification": {
          "name": "C | unknown"
        },
        "match": {
          "status": "unmatched"
        }
      }
    },
    {
      "type": "Feature",
      "id": "5860d87f-43ac-46c9-92f6-3b8f0fee8cb7",
      "geometry": {
        "type": "Polygon",
        "coordinates": [
          [
            [
              36245.0,
              10249.0
            ],
            [
              36245.0,
              25452.0
            ],
            [
              45634.0,
              25452.0
            ],
            [
              45634.0,
              10249.0
            ],
            [
              36245.0,
              10249.0
            ]
          ]
        ]
      },
      "properties": {
        "objectType": "annotation",
        "case_key": "2346045_2",
        "source": "C",
        "orig_class": "unknown",
        "classification": {
          "name": "C | unknown"
        },
        "match": {
          "status": "unmatched"
        }
      }
    }
  ]
}