{
  "type": "FeatureCollection",
  "features": [
    {
      "type": "Feature",
      "id": "39ec5544-2053-48a2-9e08-59a1b757ac8b",
      "geometry": {
        "type": "Polygon",
        "coordinates": [
          [
            [
              15742.0,
              32481.0
            ],
            [
              17693.0,
              32481.0
            ],
            [
              17693.0,
              33433.0
            ],
            [
              15742.0,
              33433.0
            ],
            [
              15742.0,
              32481.0
            ]
          ]
        ]
      },
      "properties": {
        "objectType": "annotation",
        "classification": {
          "name": "A | Basal Plasmacytosis",
          "color": [
            202,
            65,
            86
          ]
        },
        "case_key": "2346972",
        "source": "A",
        "orig_class": "Basal Plasmacytosis",
        "match": {
          "status": "component_fn",
          "component_id": "Basal Plasmacytosis:comp_0",
          "class": "Basal Plasmacytosis",
          "nA": 1,
          "nB": 0,
          "cas_union": 0.0,
          "oc_union": 0.0,
          "ar_union": Infinity,
          "area_a_union": 1857352.0,
          "area_b_union": 0.0,
          "area_intersection_union": 0.0
        }
      }
    },
    {
      "type": "Feature",
      "id": "fbff25a0-f256-4a9b-8c93-ac028da5fda0",
      "geometry": {
        "type": "Polygon",
        "coordinates": [
          [
            [
              16916.0,
              31863.0
            ],
            [
              17852.0,
              31863.0
            ],
            [
              17852.0,
              32426.0
            ],
            [
              16916.0,
              32426.0
            ],
            [
              16916.0,
              31863.0
            ]
          ]
        ]
      },
      "properties": {
        "objectType": "annotation",
        "classification": {
          "name": "A | Basal Plasmacytosis",
          "color": [
            202,
            65,
            86
          ]
        },
        "case_key": "2346972",
        "source": "A",
        "orig_class": "Basal Plasmacytosis",
        "match": {
          "status": "component_fn",
          "component_id": "Basal Plasmacytosis:comp_1",
          "class": "Basal Plasmacytosis",
          "nA": 1,
          "nB": 0,
          "cas_union": 0.0,
          "oc_union": 0.0,
          "ar_union": Infinity,
          "area_a_union": 526968.0,
          "area_b_union": 0.0,
          "area_intersection_union": 0.0
        }
      }
    },
    {
      "type": "Feature",
      "id": "5e5c5024-0ef9-4fe7-ba47-78c8c1d35fac",
      "geometry": {
        "type": "Polygon",
        "coordinates": [
          [
            [
              18843.0,
              31204.0
            ],
            [
              19390.0,
              31204.0
            ],
            [
              19390.0,
              32156.0
            ],
            [
              18843.0,
              32156.0
            ],
            [
              18843.0,
              31204.0
            ]
          ]
        ]
      },
      "properties": {
        "objectType": "annotation",
        "classification": {
          "name": "A | Basal Plasmacytosis",
          "color": [
            202,
            65,
            86
          ]
        },
        "case_key": "2346972",
        "source": "A",
        "orig_class": "Basal Plasmacytosis",
        "match": {
          "status": "component_fn",
          "component_id": "Basal Plasmacytosis:comp_2",
          "class": "Basal Plasmacytosis",
          "nA": 1,
          "nB": 0,
          "cas_union": 0.0,
          "oc_union": 0.0,
          "ar_union": Infinity,
          "area_a_union": 520744.0,
          "area_b_union": 0.0,
          "area_intersection_union": 0.0
        }
      }
    },
    {
      "type": "Feature",
      "id": "9211c88e-74cf-41b4-b80e-bf967b940e37",
      "geometry": {
        "type": "Polygon",
        "coordinates": [
          [
            [
              14354.0,
              32899.0
            ],
            [
              16900.0,
              32899.0
            ],
            [
              16900.0,
              35120.0
            ],
            [
              14354.0,
              35120.0
            ],
            [
              14354.0,
              32899.0
            ]
          ]
        ]
      },
      "properties": {
        "objectType": "annotation",
        "classification": {
          "name": "A | Basal lymphoid aggregates",
          "color": [
            0,
            0,
            255
          ]
        },
        "case_key": "2346972",
        "source": "A",
        "orig_class": "Basal lymphoid aggregates",
        "match": {
          "status": "component_fn",
          "component_id": "Basal lymphoid aggregates:comp_0",
          "class": "Basal lymphoid aggregates",
          "nA": 1,
          "nB": 0,
          "cas_union": 0.0,
          "oc_union": 0.0,
          "ar_union": Infinity,
          "area_a_union": 5654666.0,
          "area_b_union": 0.0,
          "area_intersection_union": 0.0
        }
      }
    },
    {
      "type": "Feature",
      "id": "0dd0ed20-2e60-4c52-8bcc-1c896648b6d4",
      "geometry": {
        "type": "Polygon",
        "coordinates": [
          [
            [
              21762.0,
              29419.0
            ],
            [
              22063.0,
              29419.0
            ],
            [
              22063.0,
              30145.0
            ],
            [
              21762.0,
              30145.0
            ],
            [
              21762.0,
              29419.0
            ]
          ]
        ]
      },
      "properties": {
        "objectType": "annotation",
        "classification": {
          "name": "A | Ulcer/ erosion",
          "color": [
            255,
            0,
            0
          ]
        },
        "case_key": "2346972",
        "source": "A",
        "orig_class": "Ulcer/ erosion",
        "match": {
          "status": "component_fn",
          "component_id": "Ulcer/ erosion:comp_0",
          "class": "Ulcer/ erosion",
          "nA": 1,
          "nB": 0,
          "cas_union": 0.0,
          "oc_union": 0.0,
          "ar_union": Infinity,
          "area_a_union": 218526.0,
          "area_b_union": 0.0,
          "area_intersection_union": 0.0
        }
      }
    },
    {
      "type": "Feature",
      "id": "023275e7-c925-477e-a1e1-e3af140648f4",
      "geometry": {
        "type": "Polygon",
        "coordinates": [
          [
            [
              21744.0,
              30220.0
            ],
            [
              21987.0,
              30220.0
            ],
            [
              21987.0,
              30700.0
            ],
            [
              21744.0,
              30700.0
            ],
            [
              21744.0,
              30220.0
            ]
          ]
        ]
      },
      "properties": {
        "objectType": "annotation",
        "classification": {
          "name": "A | Ulcer/ erosion",
          "color": [
            255,
            0,
            0
          ]
        },
        "case_key": "2346972",
        "source": "A",
        "orig_class": "Ulcer/ erosion",
        "match": {
          "status": "component_fn",
          "component_id": "Ulcer/ erosion:comp_1",
          "class": "Ulcer/ erosion",
          "nA": 1,
          "nB": 0,
          "cas_union": 0.0,
          "oc_union": 0.0,
          "ar_union": Infinity,
          "area_a_union": 116640.0,
          "area_b_union": 0.0,
          "area_intersection_union": 0.0
        }
      }
    },
    {
      "type": "Feature",
      "id": "f361b6a6-fd09-4898-b482-59dd459248b2",
      "geometry": {
        "type": "Polygon",
        "coordinates": [
          [
            [
              16801.0,
              33504.0
            ],
            [
              17634.0,
              33504.0
            ],
            [
              17634.0,
              34606.0
            ],
            [
              16801.0,
              34606.0
            ],
            [
              16801.0,
              33504.0
            ]
          ]
        ]
      },
      "properties": {
        "objectType": "annotation",
        "classification": {
          "name": "A | Moderate to marked mononuclear cell infiltrate",
          "color": [
            21,
            11,
            49
          ]
        },
        "case_key": "2346972",
        "source": "A",
        "orig_class": "Moderate to marked mononuclear cell infiltrate",
        "match": {
          "status": "component_fn",
          "component_id": "Moderate to marked mononuclear cell infiltrate:comp_0",
          "class": "Moderate to marked mononuclear cell infiltrate",
          "nA": 1,
          "nB": 0,
          "cas_union": 0.0,
          "oc_union": 0.0,
          "ar_union": Infinity,
          "area_a_union": 917966.0,
          "area_b_union": 0.0,
          "area_intersection_union": 0.0
        }
      }
    },
    {
      "type": "Feature",
      "id": "bef3e2bd-a3fd-4ba7-9bd0-57e61c41b067",
      "geometry": {
        "type": "Polygon",
        "coordinates": [
          [
            [
              13700.0,
              33091.0
            ],
            [
              14184.0,
              33091.0
            ],
            [
              14184.0,
              33750.0
            ],
            [
              13700.0,
              33750.0
            ],
            [
              13700.0,
              33091.0
            ]
          ]
        ]
      },
      "properties": {
        "objectType": "annotation",
        "classification": {
          "name": "A | Moderate to marked mononuclear cell infiltrate",
          "color": [
            21,
            11,
            49
          ]
        },
        "case_key": "2346972",
        "source": "A",
        "orig_class": "Moderate to marked mononuclear cell infiltrate",
        "match": {
          "status": "component_fn",
          "component_id": "Moderate to marked mononuclear cell infiltrate:comp_1",
          "class": "Moderate to marked mononuclear cell infiltrate",
          "nA": 1,
          "nB": 0,
          "cas_union": 0.0,
          "oc_union": 0.0,
          "ar_union": Infinity,
          "area_a_union": 318956.0,
          "area_b_union": 0.0,
          "area_intersection_union": 0.0
        }
      }
    },
    {
      "type": "Feature",
      "id": "755ff8a4-5397-4c80-a45b-5118685dad29",
      "geometry": {
        "type": "Polygon",
        "coordinates": [
          [
            [
              19356.0,
              33139.0
            ],
            [
              20069.0,
              33139.0
            ],
            [
              20069.0,
              33369.0
            ],
            [
              19356.0,
              33369.0
            ],
            [
              19356.0,
              33139.0
            ]
          ]
        ]
      },
      "properties": {
        "objectType": "annotation",
        "classification": {
          "name": "A | Moderate to marked mononuclear cell infiltrate",
          "color": [
            21,
            11,
            49
          ]
        },
        "case_key": "2346972",
        "source": "A",
        "orig_class": "Moderate to marked mononuclear cell infiltrate",
        "match": {
          "status": "component_fn",
          "component_id": "Moderate to marked mononuclear cell infiltrate:comp_2",
          "class": "Moderate to marked mononuclear cell infiltrate",
          "nA": 1,
          "nB": 0,
          "cas_union": 0.0,
          "oc_union": 0.0,
          "ar_union": Infinity,
          "area_a_union": 163990.0,
          "area_b_union": 0.0,
          "area_intersection_union": 0.0
        }
      }
    },
    {
      "type": "Feature",
      "id": "7c8959ea-bf96-47b4-912d-f8b9b0b4c598",
      "geometry": {
        "type": "Polygon",
        "coordinates": [
          [
            [
              19649.0,
              31037.0
            ],
            [
              19911.0,
              31037.0
            ],
            [
              19911.0,
              31394.0
            ],
            [
              19649.0,
              31394.0
            ],
            [
              19649.0,
              31037.0
            ]
          ]
        ]
      },
      "properties": {
        "objectType": "annotation",
        "classification": {
          "name": "A | Moderate to marked mononuclear cell infiltrate",
          "color": [
            21,
            11,
            49
          ]
        },
        "case_key": "2346972",
        "source": "A",
        "orig_class": "Moderate to marked mononuclear cell infiltrate",
        "match": {
          "status": "component_fn",
          "component_id": "Moderate to marked mononuclear cell infiltrate:comp_3",
          "class": "Moderate to marked mononuclear cell infiltrate",
          "nA": 1,
          "nB": 0,
          "cas_union": 0.0,
          "oc_union": 0.0,
          "ar_union": Infinity,
          "area_a_union": 93534.0,
          "area_b_union": 0.0,
          "area_intersection_union": 0.0
        }
      }
    },
    {
      "type": "Feature",
      "id": "ba95d299-958f-4ae2-abb2-62c3190e189a",
      "geometry": {
        "type": "Polygon",
        "coordinates": [
          [
            [
              20157.0,
              32203.0
            ],
            [
              20625.0,
              32203.0
            ],
            [
              20625.0,
              32401.0
            ],
            [
              20157.0,
              32401.0
            ],
            [
              20157.0,
              32203.0
            ]
          ]
        ]
      },
      "properties": {
        "objectType": "annotation",
        "classification": {
          "name": "A | Moderate to marked mononuclear cell infiltrate",
          "color": [
            21,
            11,
            49
          ]
        },
        "case_key": "2346972",
        "source": "A",
        "orig_class": "Moderate to marked mononuclear cell infiltrate",
        "match": {
          "status": "component_fn",
          "component_id": "Moderate to marked mononuclear cell infiltrate:comp_4",
          "class": "Moderate to marked mononuclear cell infiltrate",
          "nA": 1,
          "nB": 0,
          "cas_union": 0.0,
          "oc_union": 0.0,
          "ar_union": Infinity,
          "area_a_union": 92664.0,
          "area_b_union": 0.0,
          "area_intersection_union": 0.0
        }
      }
    },
    {
      "type": "Feature",
      "id": "a19d4f55-b692-4d00-a4ab-10d4dfde1ab7",
      "geometry": {
        "type": "Polygon",
        "coordinates": [
          [
            [
              20284.0,
              32750.0
            ],
            [
              20791.0,
              32750.0
            ],
            [
              20791.0,
              32964.0
            ],
            [
              20284.0,
              32964.0
            ],
            [
              20284.0,
              32750.0
            ]
          ]
        ]
      },
      "properties": {
        "objectType": "annotation",
        "classification": {
          "name": "A | Moderate to marked mononuclear cell infiltrate",
          "color": [
            21,
            11,
            49
          ]
        },
        "case_key": "2346972",
        "source": "A",
        "orig_class": "Moderate to marked mononuclear cell infiltrate",
        "match": {
          "status": "component_fn",
          "component_id": "Moderate to marked mononuclear cell infiltrate:comp_5",
          "class": "Moderate to marked mononuclear cell infiltrate",
          "nA": 1,
          "nB": 0,
          "cas_union": 0.0,
          "oc_union": 0.0,
          "ar_union": Infinity,
          "area_a_union": 108498.0,
          "area_b_union": 0.0,
          "area_intersection_union": 0.0
        }
      }
    },
    {
      "type": "Feature",
      "id": "d05154bd-bbef-43f7-870f-6994b08ca75d",
      "geometry": {
        "type": "Polygon",
        "coordinates": [
          [
            [
              19126.0,
              30133.0
            ],
            [
              19490.0,
              30133.0
            ],
            [
              19490.0,
              30442.0
            ],
            [
              19126.0,
              30442.0
            ],
            [
              19126.0,
              30133.0
            ]
          ]
        ]
      },
      "properties": {
        "objectType": "annotation",
        "classification": {
          "name": "A | Moderate to marked mononuclear cell infiltrate",
          "color": [
            21,
            11,
            49
          ]
        },
        "case_key": "2346972",
        "source": "A",
        "orig_class": "Moderate to marked mononuclear cell infiltrate",
        "match": {
          "status": "component_fn",
          "component_id": "Moderate to marked mononuclear cell infiltrate:comp_6",
          "class": "Moderate to marked mononuclear cell infiltrate",
          "nA": 1,
          "nB": 0,
          "cas_union": 0.0,
          "oc_union": 0.0,
          "ar_union": Infinity,
          "area_a_union": 112476.0,
          "area_b_union": 0.0,
          "area_intersection_union": 0.0
        }
      }
    },
    {
      "type": "Feature",
      "id": "6211c0d0-b849-4b6c-a9bf-6ca6934f1af9",
      "geometry": {
        "type": "Polygon",
        "coordinates": [
          [
            [
              21148.0,
              29070.0
            ],
            [
              21489.0,
              29070.0
            ],
            [
              21489.0,
              29530.0
            ],
            [
              21148.0,
              29530.0
            ],
            [
              21148.0,
              29070.0
            ]
          ]
        ]
      },
      "properties": {
        "objectType": "annotation",
        "classification": {
          "name": "A | Moderate to marked mononuclear cell infiltrate",
          "color": [
            21,
            11,
            49
          ]
        },
        "case_key": "2346972",
        "source": "A",
        "orig_class": "Moderate to marked mononuclear cell infiltrate",
        "match": {
          "status": "component_fn",
          "component_id": "Moderate to marked mononuclear cell infiltrate:comp_7",
          "class": "Moderate to marked mononuclear cell infiltrate",
          "nA": 1,
          "nB": 0,
          "cas_union": 0.0,
          "oc_union": 0.0,
          "ar_union": Infinity,
          "area_a_union": 156860.0,
          "area_b_union": 0.0,
          "area_intersection_union": 0.0
        }
      }
    },
    {
      "type": "Feature",
      "id": "b17c1d17-3f55-4c99-82e3-5819dd639970",
      "geometry": {
        "type": "Polygon",
        "coordinates": [
          [
            [
              20730.0,
              27812.0
            ],
            [
              21261.0,
              27812.0
            ],
            [
              21261.0,
              28367.0
            ],
            [
              20730.0,
              28367.0
            ],
            [
              20730.0,
              27812.0
            ]
          ]
        ]
      },
      "properties": {
        "objectType": "annotation",
        "classification": {
          "name": "A | Moderate to marked mononuclear cell infiltrate",
          "color": [
            21,
            11,
            49
          ]
        },
        "case_key": "2346972",
        "source": "A",
        "orig_class": "Moderate to marked mononuclear cell infiltrate",
        "match": {
          "status": "component_fn",
          "component_id": "Moderate to marked mononuclear cell infiltrate:comp_8",
          "class": "Moderate to marked mononuclear cell infiltrate",
          "nA": 1,
          "nB": 0,
          "cas_union": 0.0,
          "oc_union": 0.0,
          "ar_union": Infinity,
          "area_a_union": 294705.0,
          "area_b_union": 0.0,
          "area_intersection_union": 0.0
        }
      }
    },
    {
      "type": "Feature",
      "id": "440bf614-18d3-4121-af61-606aa0db20fa",
      "geometry": {
        "type": "Polygon",
        "coordinates": [
          [
            [
              18382.0,
              27661.0
            ],
            [
              18818.0,
              27661.0
            ],
            [
              18818.0,
              28161.0
            ],
            [
              18382.0,
              28161.0
            ],
            [
              18382.0,
              27661.0
            ]
          ]
        ]
      },
      "properties": {
        "objectType": "annotation",
        "classification": {
          "name": "A | No/ mild mononuclear cell infiltrate",
          "color": [
            185,
            185,
            116
          ]
        },
        "case_key": "2346972",
        "source": "A",
        "orig_class": "No/ mild mononuclear cell infiltrate",
        "match": {
          "status": "component_fn",
          "component_id": "No/ mild mononuclear cell infiltrate:comp_0",
          "class": "No/ mild mononuclear cell infiltrate",
          "nA": 1,
          "nB": 0,
          "cas_union": 0.0,
          "oc_union": 0.0,
          "ar_union": Infinity,
          "area_a_union": 218000.0,
          "area_b_union": 0.0,
          "area_intersection_union": 0.0
        }
      }
    },
    {
      "type": "Feature",
      "id": "37b16c09-fec9-483e-8a3d-b345b2a967ac",
      "geometry": {
        "type": "Polygon",
        "coordinates": [
          [
            [
              17874.0,
              28312.0
            ],
            [
              18112.0,
              28312.0
            ],
            [
              18112.0,
              29034.0
            ],
            [
              17874.0,
              29034.0
            ],
            [
              17874.0,
              28312.0
            ]
          ]
        ]
      },
      "properties": {
        "objectType": "annotation",
        "classification": {
          "name": "A | No/ mild mononuclear cell infiltrate",
          "color": [
            185,
            185,
            116
          ]
        },
        "case_key": "2346972",
        "source": "A",
        "orig_class": "No/ mild mononuclear cell infiltrate",
        "match": {
          "status": "component_fn",
          "component_id": "No/ mild mononuclear cell infiltrate:comp_1",
          "class": "No/ mild mononuclear cell infiltrate",
          "nA": 1,
          "nB": 0,
          "cas_union": 0.0,
          "oc_union": 0.0,
          "ar_union": Infinity,
          "area_a_union": 171836.0,
          "area_b_union": 0.0,
          "area_intersection_union": 0.0
        }
      }
    },
    {
      "type": "Feature",
      "id": "314cd2a6-8169-46c0-bfd1-2185848ed7ba",
      "geometry": {
        "type": "Polygon",
        "coordinates": [
          [
            [
              16891.0,
              27455.0
            ],
            [
              17208.0,
              27455.0
            ],
            [
              17208.0,
              27868.0
            ],
            [
              16891.0,
              27868.0
            ],
            [
              16891.0,
              27455.0
            ]
          ]
        ]
      },
      "properties": {
        "objectType": "annotation",
        "classification": {
          "name": "A | No/ mild mononuclear cell infiltrate",
          "color": [
            185,
            185,
            116
          ]
        },
        "case_key": "2346972",
        "source": "A",
        "orig_class": "No/ mild mononuclear cell infiltrate",
        "match": {
          "status": "component_fn",
          "component_id": "No/ mild mononuclear cell infiltrate:comp_2",
          "class": "No/ mild mononuclear cell infiltrate",
          "nA": 1,
          "nB": 0,
          "cas_union": 0.0,
          "oc_union": 0.0,
          "ar_union": Infinity,
          "area_a_union": 130921.0,
          "area_b_union": 0.0,
          "area_intersection_union": 0.0
        }
      }
    },
    {
      "type": "Feature",
      "id": "47ff20b1-ddf5-44e8-b92d-3b6b6a906714",
      "geometry": {
        "type": "Polygon",
        "coordinates": [
          [
            [
              17827.0,
              27265.0
            ],
            [
              18223.0,
              27265.0
            ],
            [
              18223.0,
              27669.0
            ],
            [
              17827.0,
              27669.0
            ],
            [
              17827.0,
              27265.0
            ]
          ]
        ]
      },
      "properties": {
        "objectType": "annotation",
        "classification": {
          "name": "A | No/ mild mononuclear cell infiltrate",
          "color": [
            185,
            185,
            116
          ]
        },
        "case_key": "2346972",
        "source": "A",
        "orig_class": "No/ mild mononuclear cell infiltrate",
        "match": {
          "status": "component_fn",
          "component_id": "No/ mild mononuclear cell infiltrate:comp_3",
          "class": "No/ mild mononuclear cell infiltrate",
          "nA": 1,
          "nB": 0,
          "cas_union": 0.0,
          "oc_union": 0.0,
          "ar_union": Infinity,
          "area_a_union": 159984.0,
          "area_b_union": 0.0,
          "area_intersection_union": 0.0
        }
      }
    },
    {
      "type": "Feature",
      "id": "07eb052b-4827-4f50-934e-4409f688264e",
      "geometry": {
        "type": "Polygon",
        "coordinates": [
          [
            [
              19175.0,
              27384.0
            ],
            [
              19572.0,
              27384.0
            ],
            [
              19572.0,
              28121.0
            ],
            [
              19175.0,
              28121.0
            ],
            [
              19175.0,
              27384.0
            ]
          ]
        ]
      },
      "properties": {
        "objectType": "annotation",
        "classification": {
          "name": "A | No/ mild mononuclear cell infiltrate",
          "color": [
            185,
            185,
            116
          ]
        },
        "case_key": "2346972",
        "source": "A",
        "orig_class": "No/ mild mononuclear cell infiltrate",
        "match": {
          "status": "component_fn",
          "component_id": "No/ mild mononuclear cell infiltrate:comp_4",
          "class": "No/ mild mononuclear cell infiltrate",
          "nA": 1,
          "nB": 0,
          "cas_union": 0.0,
          "oc_union": 0.0,
          "ar_union": Infinity,
          "area_a_union": 292589.0,
          "area_b_union": 0.0,
          "area_intersection_union": 0.0
        }
      }
    },
    {
      "type": "Feature",
      "id": "17741a95-a085-4575-8c6c-b5cda1baaba4",
      "geometry": {
        "type": "Polygon",
        "coordinates": [
          [
            [
              19643.0,
              29319.0
            ],
            [
              19976.0,
              29319.0
            ],
            [
              19976.0,
              29644.0
            ],
            [
              19643.0,
              29644.0
            ],
            [
              19643.0,
              29319.0
            ]
          ]
        ]
      },
      "properties": {
        "objectType": "annotation",
        "classification": {
          "name": "A | No/ mild mononuclear cell infiltrate",
          "color": [
            185,
            185,
            116
          ]
        },
        "case_key": "2346972",
        "source": "A",
        "orig_class": "No/ mild mononuclear cell infiltrate",
        "match": {
          "status": "component_fn",
          "component_id": "No/ mild mononuclear cell infiltrate:comp_5",
          "class": "No/ mild mononuclear cell infiltrate",
          "nA": 1,
          "nB": 0,
          "cas_union": 0.0,
          "oc_union": 0.0,
          "ar_union": Infinity,
          "area_a_union": 108225.0,
          "area_b_union": 0.0,
          "area_intersection_union": 0.0
        }
      }
    },
    {
      "type": "Feature",
      "id": "82230f3c-7f0a-4444-8acb-f29dc8d3d9e2",
      "geometry": {
        "type": "Polygon",
        "coordinates": [
          [
            [
              15828.0,
              28732.0
            ],
            [
              16336.0,
              28732.0
            ],
            [
              16336.0,
              29113.0
            ],
            [
              15828.0,
              29113.0
            ],
            [
              15828.0,
              28732.0
            ]
          ]
        ]
      },
      "properties": {
        "objectType": "annotation",
        "classification": {
          "name": "A | No/ mild mononuclear cell infiltrate",
          "color": [
            185,
            185,
            116
          ]
        },
        "case_key": "2346972",
        "source": "A",
        "orig_class": "No/ mild mononuclear cell infiltrate",
        "match": {
          "status": "component_fn",
          "component_id": "No/ mild mononuclear cell infiltrate:comp_6",
          "class": "No/ mild mononuclear cell infiltrate",
          "nA": 1,
          "nB": 0,
          "cas_union": 0.0,
          "oc_union": 0.0,
          "ar_union": Infinity,
          "area_a_union": 193548.0,
          "area_b_union": 0.0,
          "area_intersection_union": 0.0
        }
      }
    },
    {
      "type": "Feature",
      "id": "a2239dbd-e3b9-4aea-9810-8e5a2f9596c4",
      "geometry": {
        "type": "Polygon",
        "coordinates": [
          [
            [
              14972.0,
              26535.0
            ],
            [
              15559.0,
              26535.0
            ],
            [
              15559.0,
              27114.0
            ],
            [
              14972.0,
              27114.0
            ],
            [
              14972.0,
              26535.0
            ]
          ]
        ]
      },
      "properties": {
        "objectType": "annotation",
        "classification": {
          "name": "A | No/ mild mononuclear cell infiltrate",
          "color": [
            185,
            185,
            116
          ]
        },
        "case_key": "2346972",
        "source": "A",
        "orig_class": "No/ mild mononuclear cell infiltrate",
        "match": {
          "status": "component_fn",
          "component_id": "No/ mild mononuclear cell infiltrate:comp_7",
          "class": "No/ mild mononuclear cell infiltrate",
          "nA": 1,
          "nB": 0,
          "cas_union": 0.0,
          "oc_union": 0.0,
          "ar_union": Infinity,
          "area_a_union": 339873.0,
          "area_b_union": 0.0,
          "area_intersection_union": 0.0
        }
      }
    },
    {
      "type": "Feature",
      "id": "ffcb398f-8fe7-4a22-83eb-4b5af279bab8",
      "geometry": {
        "type": "Polygon",
        "coordinates": [
          [
            [
              15534.0,
              27138.0
            ],
            [
              15725.0,
              27138.0
            ],
            [
              15725.0,
              27479.0
            ],
            [
              15534.0,
              27479.0
            ],
            [
              15534.0,
              27138.0
            ]
          ]
        ]
      },
      "properties": {
        "objectType": "annotation",
        "classification": {
          "name": "A | No/ mild mononuclear cell infiltrate",
          "color": [
            185,
            185,
            116
          ]
        },
        "case_key": "2346972",
        "source": "A",
        "orig_class": "No/ mild mononuclear cell infiltrate",
        "match": {
          "status": "component_fn",
          "component_id": "No/ mild mononuclear cell infiltrate:comp_8",
          "class": "No/ mild mononuclear cell infiltrate",
          "nA": 1,
          "nB": 0,
          "cas_union": 0.0,
          "oc_union": 0.0,
          "ar_union": Infinity,
          "area_a_union": 65131.0,
          "area_b_union": 0.0,
          "area_intersection_union": 0.0
        }
      }
    },
    {
      "type": "Feature",
      "id": "c634d6cf-8b10-4b00-ad61-e24e7dbe17b8",
      "geometry": {
        "type": "Polygon",
        "coordinates": [
          [
            [
              14019.0,
              26567.0
            ],
            [
              14464.0,
              26567.0
            ],
            [
              14464.0,
              26939.0
            ],
            [
              14019.0,
              26939.0
            ],
            [
              14019.0,
              26567.0
            ]
          ]
        ]
      },
      "properties": {
        "objectType": "annotation",
        "classification": {
          "name": "A | No/ mild mononuclear cell infiltrate",
          "color": [
            185,
            185,
            116
          ]
        },
        "case_key": "2346972",
        "source": "A",
        "orig_class": "No/ mild mononuclear cell infiltrate",
        "match": {
          "status": "component_fn",
          "component_id": "No/ mild mononuclear cell infiltrate:comp_9",
          "class": "No/ mild mononuclear cell infiltrate",
          "nA": 1,
          "nB": 0,
          "cas_union": 0.0,
          "oc_union": 0.0,
          "ar_union": Infinity,
          "area_a_union": 165540.0,
          "area_b_union": 0.0,
          "area_intersection_union": 0.0
        }
      }
    },
    {
      "type": "Feature",
      "id": "7bdf514b-5c64-439e-a518-3eff9597c291",
      "geometry": {
        "type": "Polygon",
        "coordinates": [
          [
            [
              14464.0,
              26281.0
            ],
            [
              14821.0,
              26281.0
            ],
            [
              14821.0,
              26694.0
            ],
            [
              14464.0,
              26694.0
            ],
            [
              14464.0,
              26281.0
            ]
          ]
        ]
      },
      "properties": {
        "objectType": "annotation",
        "classification": {
          "name": "A | No/ mild mononuclear cell infiltrate",
          "color": [
            185,
            185,
            116
          ]
        },
        "case_key": "2346972",
        "source": "A",
        "orig_class": "No/ mild mononuclear cell infiltrate",
        "match": {
          "status": "component_fn",
          "component_id": "No/ mild mononuclear cell infiltrate:comp_10",
          "class": "No/ mild mononuclear cell infiltrate",
          "nA": 1,
          "nB": 0,
          "cas_union": 0.0,
          "oc_union": 0.0,
          "ar_union": Infinity,
          "area_a_union": 147441.0,
          "area_b_union": 0.0,
          "area_intersection_union": 0.0
        }
      }
    },
    {
      "type": "Feature",
      "id": "e63228a2-2f3f-40b7-bf4c-75101ab632e0",
      "geometry": {
        "type": "Polygon",
        "coordinates": [
          [
            [
              14678.0,
              28002.0
            ],
            [
              14995.0,
              28002.0
            ],
            [
              14995.0,
              28597.0
            ],
            [
              14678.0,
              28597.0
            ],
            [
              14678.0,
              28002.0
            ]
          ]
        ]
      },
      "properties": {
        "objectType": "annotation",
        "classification": {
          "name": "A | No/ mild mononuclear cell infiltrate",
          "color": [
            185,
            185,
            116
          ]
        },
        "case_key": "2346972",
        "source": "A",
        "orig_class": "No/ mild mononuclear cell infiltrate",
        "match": {
          "status": "component_fn",
          "component_id": "No/ mild mononuclear cell infiltrate:comp_11",
          "class": "No/ mild mononuclear cell infiltrate",
          "nA": 1,
          "nB": 0,
          "cas_union": 0.0,
          "oc_union": 0.0,
          "ar_union": Infinity,
          "area_a_union": 188615.0,
          "area_b_union": 0.0,
          "area_intersection_union": 0.0
        }
      }
    },
    {
      "type": "Feature",
      "id": "e154bae7-1066-4f10-a27a-a50c0c5d0d96",
      "geometry": {
        "type": "Polygon",
        "coordinates": [
          [
            [
              13020.0,
              25885.0
            ],
            [
              13401.0,
              25885.0
            ],
            [
              13401.0,
              26194.0
            ],
            [
              13020.0,
              26194.0
            ],
            [
              13020.0,
              25885.0
            ]
          ]
        ]
      },
      "properties": {
        "objectType": "annotation",
        "classification": {
          "name": "A | No/ mild mononuclear cell infiltrate",
          "color": [
            185,
            185,
            116
          ]
        },
        "case_key": "2346972",
        "source": "A",
        "orig_class": "No/ mild mononuclear cell infiltrate",
        "match": {
          "status": "component_fn",
          "component_id": "No/ mild mononuclear cell infiltrate:comp_12",
          "class": "No/ mild mononuclear cell infiltrate",
          "nA": 1,
          "nB": 0,
          "cas_union": 0.0,
          "oc_union": 0.0,
          "ar_union": Infinity,
          "area_a_union": 117729.0,
          "area_b_union": 0.0,
          "area_intersection_union": 0.0
        }
      }
    },
    {
      "type": "Feature",
      "id": "ed0fb912-1c31-4329-80d6-91df4d39e648",
      "geometry": {
        "type": "Polygon",
        "coordinates": [
          [
            [
              12814.0,
              27733.0
            ],
            [
              13361.0,
              27733.0
            ],
            [
              13361.0,
              28066.0
            ],
            [
              12814.0,
              28066.0
            ],
            [
              12814.0,
              27733.0
            ]
          ]
        ]
      },
      "properties": {
        "objectType": "annotation",
        "classification": {
          "name": "A | No/ mild mononuclear cell infiltrate",
          "color": [
            185,
            185,
            116
          ]
        },
        "case_key": "2346972",
        "source": "A",
        "orig_class": "No/ mild mononuclear cell infiltrate",
        "match": {
          "status": "component_fn",
          "component_id": "No/ mild mononuclear cell infiltrate:comp_13",
          "class": "No/ mild mononuclear cell infiltrate",
          "nA": 1,
          "nB": 0,
          "cas_union": 0.0,
          "oc_union": 0.0,
          "ar_union": Infinity,
          "area_a_union": 182151.0,
          "area_b_union": 0.0,
          "area_intersection_union": 0.0
        }
      }
    },
    {
      "type": "Feature",
      "id": "27014354-cfa0-41e4-a598-9639875a97bb",
      "geometry": {
        "type": "Polygon",
        "coordinates": [
          [
            [
              12124.0,
              26741.0
            ],
            [
              12536.0,
              26741.0
            ],
            [
              12536.0,
              27003.0
            ],
            [
              12124.0,
              27003.0
            ],
            [
              12124.0,
              26741.0
            ]
          ]
        ]
      },
      "properties": {
        "objectType": "annotation",
        "classification": {
          "name": "A | No/ mild mononuclear cell infiltrate",
          "color": [
            185,
            185,
            116
          ]
        },
        "case_key": "2346972",
        "source": "A",
        "orig_class": "No/ mild mononuclear cell infiltrate",
        "match": {
          "status": "component_fn",
          "component_id": "No/ mild mononuclear cell infiltrate:comp_14",
          "class": "No/ mild mononuclear cell infiltrate",
          "nA": 1,
          "nB": 0,
          "cas_union": 0.0,
          "oc_union": 0.0,
          "ar_union": Infinity,
          "area_a_union": 107944.0,
          "area_b_union": 0.0,
          "area_intersection_union": 0.0
        }
      }
    },
    {
      "type": "Feature",
      "id": "3ebae961-cb42-4eb0-876c-f0740e593ddd",
      "geometry": {
        "type": "Polygon",
        "coordinates": [
          [
            [
              11521.0,
              27051.0
            ],
            [
              11735.0,
              27051.0
            ],
            [
              11735.0,
              27431.0
            ],
            [
              11521.0,
              27431.0
            ],
            [
              11521.0,
              27051.0
            ]
          ]
        ]
      },
      "properties": {
        "objectType": "annotation",
        "classification": {
          "name": "A | No/ mild mononuclear cell infiltrate",
          "color": [
            185,
            185,
            116
          ]
        },
        "case_key": "2346972",
        "source": "A",
        "orig_class": "No/ mild mononuclear cell infiltrate",
        "match": {
          "status": "component_fn",
          "component_id": "No/ mild mononuclear cell infiltrate:comp_15",
          "class": "No/ mild mononuclear cell infiltrate",
          "nA": 1,
          "nB": 0,
          "cas_union": 0.0,
          "oc_union": 0.0,
          "ar_union": Infinity,
          "area_a_union": 81320.0,
          "area_b_union": 0.0,
          "area_intersection_union": 0.0
        }
      }
    },
    {
      "type": "Feature",
      "id": "09a96728-9515-458e-916d-577c8d3e56e0",
      "geometry": {
        "type": "Polygon",
        "coordinates": [
          [
            [
              11029.0,
              26662.0
            ],
            [
              11259.0,
              26662.0
            ],
            [
              11259.0,
              26987.0
            ],
            [
              11029.0,
              26987.0
            ],
            [
              11029.0,
              26662.0
            ]
          ]
        ]
      },
      "properties": {
        "objectType": "annotation",
        "classification": {
          "name": "A | No/ mild mononuclear cell infiltrate",
          "color": [
            185,
            185,
            116
          ]
        },
        "case_key": "2346972",
        "source": "A",
        "orig_class": "No/ mild mononuclear cell infiltrate",
        "match": {
          "status": "component_fn",
          "component_id": "No/ mild mononuclear cell infiltrate:comp_16",
          "class": "No/ mild mononuclear cell infiltrate",
          "nA": 1,
          "nB": 0,
          "cas_union": 0.0,
          "oc_union": 0.0,
          "ar_union": Infinity,
          "area_a_union": 74750.0,
          "area_b_union": 0.0,
          "area_intersection_union": 0.0
        }
      }
    },
    {
      "type": "Feature",
      "id": "571c04d3-08cb-403b-b127-d76f8c94a98e",
      "geometry": {
        "type": "Polygon",
        "coordinates": [
          [
            [
              10116.0,
              26106.0
            ],
            [
              10742.0,
              26106.0
            ],
            [
              10742.0,
              26304.0
            ],
            [
              10116.0,
              26304.0
            ],
            [
              10116.0,
              26106.0
            ]
          ]
        ]
      },
      "properties": {
        "objectType": "annotation",
        "classification": {
          "name": "A | No/ mild mononuclear cell infiltrate",
          "color": [
            185,
            185,
            116
          ]
        },
        "case_key": "2346972",
        "source": "A",
        "orig_class": "No/ mild mononuclear cell infiltrate",
        "match": {
          "status": "component_fn",
          "component_id": "No/ mild mononuclear cell infiltrate:comp_17",
          "class": "No/ mild mononuclear cell infiltrate",
          "nA": 1,
          "nB": 0,
          "cas_union": 0.0,
          "oc_union": 0.0,
          "ar_union": Infinity,
          "area_a_union": 123948.0,
          "area_b_union": 0.0,
          "area_intersection_union": 0.0
        }
      }
    },
    {
      "type": "Feature",
      "id": "0bcb6efb-95a7-4da3-beac-6ba0624e157a",
      "geometry": {
        "type": "Polygon",
        "coordinates": [
          [
            [
              11099.0,
              27478.0
            ],
            [
              11377.0,
              27478.0
            ],
            [
              11377.0,
              27740.0
            ],
            [
              11099.0,
              27740.0
            ],
            [
              11099.0,
              27478.0
            ]
          ]
        ]
      },
      "properties": {
        "objectType": "annotation",
        "classification": {
          "name": "A | No/ mild mononuclear cell infiltrate",
          "color": [
            185,
            185,
            116
          ]
        },
        "case_key": "2346972",
        "source": "A",
        "orig_class": "No/ mild mononuclear cell infiltrate",
        "match": {
          "status": "component_fn",
          "component_id": "No/ mild mononuclear cell infiltrate:comp_18",
          "class": "No/ mild mononuclear cell infiltrate",
          "nA": 1,
          "nB": 0,
          "cas_union": 0.0,
          "oc_union": 0.0,
          "ar_union": Infinity,
          "area_a_union": 72836.0,
          "area_b_union": 0.0,
          "area_intersection_union": 0.0
        }
      }
    },
    {
      "type": "Feature",
      "id": "48db9fde-6e8c-477d-a693-58fd3c94084a",
      "geometry": {
        "type": "Polygon",
        "coordinates": [
          [
            [
              11647.0,
              28771.0
            ],
            [
              12051.0,
              28771.0
            ],
            [
              12051.0,
              29009.0
            ],
            [
              11647.0,
              29009.0
            ],
            [
              11647.0,
              28771.0
            ]
          ]
        ]
      },
      "properties": {
        "objectType": "annotation",
        "classification": {
          "name": "A | No/ mild mononuclear cell infiltrate",
          "color": [
            185,
            185,
            116
          ]
        },
        "case_key": "2346972",
        "source": "A",
        "orig_class": "No/ mild mononuclear cell infiltrate",
        "match": {
          "status": "component_fn",
          "component_id": "No/ mild mononuclear cell infiltrate:comp_19",
          "class": "No/ mild mononuclear cell infiltrate",
          "nA": 1,
          "nB": 0,
          "cas_union": 0.0,
          "oc_union": 0.0,
          "ar_union": Infinity,
          "area_a_union": 96152.0,
          "area_b_union": 0.0,
          "area_intersection_union": 0.0
        }
      }
    },
    {
      "type": "Feature",
      "id": "72e6e26e-8562-4576-b473-bf4f709a2ead",
      "geometry": {
        "type": "Polygon",
        "coordinates": [
          [
            [
              13597.0,
              31434.0
            ],
            [
              18801.0,
              31434.0
            ],
            [
              18801.0,
              36621.0
            ],
            [
              13597.0,
              36621.0
            ],
            [
              13597.0,
              31434.0
            ]
          ]
        ]
      },
      "properties": {
        "objectType": "annotation",
        "classification": {
          "name": "A | Marked (>50%) crypt distortion",
          "color": [
            0,
            51,
            0
          ]
        },
        "case_key": "2346972",
        "source": "A",
        "orig_class": "Marked (>50%) crypt distortion",
        "match": {
          "status": "component_fn",
          "component_id": "Marked (>50%) crypt distortion:comp_0",
          "class": "Marked (>50%) crypt distortion",
          "nA": 1,
          "nB": 0,
          "cas_union": 0.0,
          "oc_union": 0.0,
          "ar_union": Infinity,
          "area_a_union": 26993148.0,
          "area_b_union": 0.0,
          "area_intersection_union": 0.0
        }
      }
    },
    {
      "type": "Feature",
      "id": "095a1b7c-4514-490b-af5d-7375943d5f9f",
      "geometry": {
        "type": "Polygon",
        "coordinates": [
          [
            [
              10607.0,
              26177.0
            ],
            [
              13772.0,
              26177.0
            ],
            [
              13772.0,
              28199.0
            ],
            [
              10607.0,
              28199.0
            ],
            [
              10607.0,
              26177.0
            ]
          ]
        ]
      },
      "properties": {
        "objectType": "annotation",
        "classification": {
          "name": "A | Architecture normal",
          "color": [
            0,
            255,
            255
          ]
        },
        "case_key": "2346972",
        "source": "A",
        "orig_class": "Architecture normal",
        "match": {
          "status": "component_fn",
          "component_id": "Architecture normal:comp_0",
          "class": "Architecture normal",
          "nA": 1,
          "nB": 0,
          "cas_union": 0.0,
          "oc_union": 0.0,
          "ar_union": Infinity,
          "area_a_union": 6399630.0,
          "area_b_union": 0.0,
          "area_intersection_union": 0.0
        }
      }
    },
    {
      "type": "Feature",
      "id": "7b261346-d0ab-44f9-9706-dc16cb703a78",
      "geometry": {
        "type": "Polygon",
        "coordinates": [
          [
            [
              14019.0,
              25966.0
            ],
            [
              17834.0,
              25966.0
            ],
            [
              17834.0,
              29535.0
            ],
            [
              14019.0,
              29535.0
            ],
            [
              14019.0,
              25966.0
            ]
          ]
        ]
      },
      "properties": {
        "objectType": "annotation",
        "classification": {
          "name": "A | Architecture normal",
          "color": [
            0,
            255,
            255
          ]
        },
        "case_key": "2346972",
        "source": "A",
        "orig_class": "Architecture normal",
        "match": {
          "status": "component_fn",
          "component_id": "Architecture normal:comp_1",
          "class": "Architecture normal",
          "nA": 1,
          "nB": 0,
          "cas_union": 0.0,
          "oc_union": 0.0,
          "ar_union": Infinity,
          "area_a_union": 13615735.0,
          "area_b_union": 0.0,
          "area_intersection_union": 0.0
        }
      }
    },
    {
      "type": "Feature",
      "id": "036cbe16-06cd-4356-b00c-853565adbe2a",
      "geometry": {
        "type": "Polygon",
        "coordinates": [
          [
            [
              18462.0,
              25200.0
            ],
            [
              22506.0,
              25200.0
            ],
            [
              22506.0,
              33534.0
            ],
            [
              18462.0,
              33534.0
            ],
            [
              18462.0,
              25200.0
            ]
          ]
        ]
      },
      "properties": {
        "objectType": "annotation",
        "classification": {
          "name": "A | Marked (>50%) crypt distortion",
          "color": [
            0,
            51,
            0
          ]
        },
        "case_key": "2346972",
        "source": "A",
        "orig_class": "Marked (>50%) crypt distortion",
        "match": {
          "status": "component_fn",
          "component_id": "Marked (>50%) crypt distortion:comp_1",
          "class": "Marked (>50%) crypt distortion",
          "nA": 1,
          "nB": 0,
          "cas_union": 0.0,
          "oc_union": 0.0,
          "ar_union": Infinity,
          "area_a_union": 33702696.0,
          "area_b_union": 0.0,
          "area_intersection_union": 0.0
        }
      }
    },
    {
      "type": "Feature",
      "id": "b39a1771-d31b-40c3-babd-13906b004e78",
      "geometry": {
        "type": "Polygon",
        "coordinates": [
          [
            [
              18307.0,
              34498.0
            ],
            [
              19505.0,
              34498.0
            ],
            [
              19505.0,
              35076.0
            ],
            [
              18307.0,
              35076.0
            ],
            [
              18307.0,
              34498.0
            ]
          ]
        ]
      },
      "properties": {
        "objectType": "annotation",
        "classification": {
          "name": "A | Ulcer/ erosion",
          "color": [
            255,
            0,
            0
          ]
        },
        "case_key": "2346972",
        "source": "A",
        "orig_class": "Ulcer/ erosion",
        "match": {
          "status": "component_fn",
          "component_id": "Ulcer/ erosion:comp_2",
          "class": "Ulcer/ erosion",
          "nA": 1,
          "nB": 0,
          "cas_union": 0.0,
          "oc_union": 0.0,
          "ar_union": Infinity,
          "area_a_union": 692444.0,
          "area_b_union": 0.0,
          "area_intersection_union": 0.0
        }
      }
    },
    {
      "type": "Feature",
      "id": "25148798-b9f0-4f5a-9f22-dc54a4e5136f",
      "geometry": {
        "type": "Polygon",
        "coordinates": [
          [
            [
              16015.0,
              35775.0
            ],
            [
              16337.0,
              35775.0
            ],
            [
              16337.0,
              36054.0
            ],
            [
              16015.0,
              36054.0
            ],
            [
              16015.0,
              35775.0
            ]
          ]
        ]
      },
      "properties": {
        "objectType": "annotation",
        "classification": {
          "name": "A | Crypt abscess",
          "color": [
            240,
            77,
            141
          ]
        },
        "case_key": "2346972",
        "source": "A",
        "orig_class": "Crypt abscess",
        "match": {
          "status": "component_fn",
          "component_id": "Crypt abscess:comp_0",
          "class": "Crypt abscess",
          "nA": 1,
          "nB": 0,
          "cas_union": 0.0,
          "oc_union": 0.0,
          "ar_union": Infinity,
          "area_a_union": 89838.0,
          "area_b_union": 0.0,
          "area_intersection_union": 0.0
        }
      }
    },
    {
      "type": "Feature",
      "id": "54564c1d-230a-4aa3-923b-be710a671da9",
      "geometry": {
        "type": "Polygon",
        "coordinates": [
          [
            [
              12747.0,
              25071.0
            ],
            [
              14585.0,
              25071.0
            ],
            [
              14585.0,
              25630.0
            ],
            [
              12747.0,
              25630.0
            ],
            [
              12747.0,
              25071.0
            ]
          ]
        ]
      },
      "properties": {
        "objectType": "annotation",
        "classification": {
          "name": "A | Ulcer/ erosion",
          "color": [
            255,
            0,
            0
          ]
        },
        "case_key": "2346972",
        "source": "A",
        "orig_class": "Ulcer/ erosion",
        "match": {
          "status": "component_fn",
          "component_id": "Ulcer/ erosion:comp_3",
          "class": "Ulcer/ erosion",
          "nA": 1,
          "nB": 0,
          "cas_union": 0.0,
          "oc_union": 0.0,
          "ar_union": Infinity,
          "area_a_union": 1027442.0,
          "area_b_union": 0.0,
          "area_intersection_union": 0.0
        }
      }
    },
    {
      "type": "Feature",
      "id": "98ea3842-1776-49c4-b74f-5fce1abe89d4",
      "geometry": {
        "type": "Polygon",
        "coordinates": [
          [
            [
              4461.0,
              47252.0
            ],
            [
              4461.0,
              52701.0
            ],
            [
              13371.0,
              52701.0
            ],
            [
              13371.0,
              47252.0
            ],
            [
              4461.0,
              47252.0
            ]
          ]
        ]
      },
      "properties": {
        "objectType": "annotation",
        "case_key": "2346972",
        "source": "C",
        "orig_class": "unknown",
        "classification": {
          "name": "C | unknown"
        },
        "match": {
          "status": "component_fp",
          "component_id": "unknown:comp_0",
          "class": "unknown",
          "nA": 0,
          "nB": 1,
          "cas_union": 0.0,
          "oc_union": 0.0,
          "ar_union": Infinity,
          "area_a_union": 0.0,
          "area_b_union": 48550590.0,
          "area_intersection_union": 0.0
        }
      }
    },
    {
      "type": "Feature",
      "id": "784dbf61-5c45-48de-9624-d8231d6be7a8",
      "geometry": {
        "type": "Polygon",
        "coordinates": [
          [
            [
              12584.0,
              50297.0
            ],
            [
              12584.0,
              52060.0
            ],
            [
              15374.0,
              52060.0
            ],
            [
              15374.0,
              50297.0
            ],
            [
              12584.0,
              50297.0
            ]
          ]
        ]
      },
      "properties": {
        "objectType": "annotation",
        "classification": {
          "name": "C | Architecture normal",
          "color": [
            0,
            255,
            255
          ]
        },
        "case_key": "2346972",
        "source": "C",
        "orig_class": "Architecture normal",
        "match": {
          "status": "component_fp",
          "component_id": "Architecture normal:comp_2",
          "class": "Architecture normal",
          "nA": 0,
          "nB": 1,
          "cas_union": 0.0,
          "oc_union": 0.0,
          "ar_union": Infinity,
          "area_a_union": 0.0,
          "area_b_union": 4918770.0,
          "area_intersection_union": 0.0
        }
      }
    },
    {
      "type": "Feature",
      "id": "8391cdd8-b370-4eae-be54-ec87e95bec8c",
      "geometry": {
        "type": "Polygon",
        "coordinates": [
          [
            [
              12438.0,
              51980.0
            ],
            [
              12438.0,
              53685.0
            ],
            [
              14114.0,
              53685.0
            ],
            [
              14114.0,
              51980.0
            ],
            [
              12438.0,
              51980.0
            ]
          ]
        ]
      },
      "properties": {
        "objectType": "annotation",
        "case_key": "2346972",
        "source": "C",
        "orig_class": "unknown",
        "classification": {
          "name": "C | unknown"
        },
        "match": {
          "status": "component_fp",
          "component_id": "unknown:comp_1",
          "class": "unknown",
          "nA": 0,
          "nB": 1,
          "cas_union": 0.0,
          "oc_union": 0.0,
          "ar_union": Infinity,
          "area_a_union": 0.0,
          "area_b_union": 2857580.0,
          "area_intersection_union": 0.0
        }
      }
    },
    {
      "type": "Feature",
      "id": "23db421d-6361-4776-b08c-6f2a2396d548",
      "geometry": {
        "type": "Polygon",
        "coordinates": [
          [
            [
              16151.0,
              49668.0
            ],
            [
              16151.0,
              57257.0
            ],
            [
              18193.0,
              57257.0
            ],
            [
              18193.0,
              49668.0
            ],
            [
              16151.0,
              49668.0
            ]
          ]
        ]
      },
      "properties": {
        "objectType": "annotation",
        "classification": {
          "name": "C | Ulcer/ erosions",
          "color": [
            255,
            0,
            0
          ]
        },
        "case_key": "2346972",
        "source": "C",
        "orig_class": "Ulcer/ erosions",
        "match": {
          "status": "component_fp",
          "component_id": "Ulcer/ erosions:comp_0",
          "class": "Ulcer/ erosions",
          "nA": 0,
          "nB": 1,
          "cas_union": 0.0,
          "oc_union": 0.0,
          "ar_union": Infinity,
          "area_a_union": 0.0,
          "area_b_union": 15496738.0,
          "area_intersection_union": 0.0
        }
      }
    },
    {
      "type": "Feature",
      "id": "44cd90bf-134c-4cad-be3e-8be7f58cb2bd",
      "geometry": {
        "type": "Polygon",
        "coordinates": [
          [
            [
              8968.0,
              55434.0
            ],
            [
              8968.0,
              57399.0
            ],
            [
              13391.0,
              57399.0
            ],
            [
              13391.0,
              55434.0
            ],
            [
              8968.0,
              55434.0
            ]
          ]
        ]
      },
      "properties": {
        "objectType": "annotation",
        "classification": {
          "name": "C | Basal plasmacytosis",
          "color": [
            202,
            65,
            86
          ]
        },
        "case_key": "2346972",
        "source": "C",
        "orig_class": "Basal plasmacytosis",
        "match": {
          "status": "component_fp",
          "component_id": "Basal plasmacytosis:comp_0",
          "class": "Basal plasmacytosis",
          "nA": 0,
          "nB": 1,
          "cas_union": 0.0,
          "oc_union": 0.0,
          "ar_union": Infinity,
          "area_a_union": 0.0,
          "area_b_union": 8691195.0,
          "area_intersection_union": 0.0
        }
      }
    },
    {
      "type": "Feature",
      "id": "3ab44737-6555-4216-b38b-ebfdaf30cfac",
      "geometry": {
        "type": "Polygon",
        "coordinates": [
          [
            [
              9534.0,
              57415.0
            ],
            [
              9534.0,
              58261.0
            ],
            [
              14089.0,
              58261.0
            ],
            [
              14089.0,
              57415.0
            ],
            [
              9534.0,
              57415.0
            ]
          ]
        ]
      },
      "properties": {
        "objectType": "annotation",
        "classification": {
          "name": "C | No ulcer/ moderate to severe activity",
          "color": [
            128,
            0,
            0
          ]
        },
        "case_key": "2346972",
        "source": "C",
        "orig_class": "No ulcer/ moderate to severe activity",
        "match": {
          "status": "component_fp",
          "component_id": "No ulcer/ moderate to severe activity:comp_0",
          "class": "No ulcer/ moderate to severe activity",
          "nA": 0,
          "nB": 1,
          "cas_union": 0.0,
          "oc_union": 0.0,
          "ar_union": Infinity,
          "area_a_union": 0.0,
          "area_b_union": 3853530.0,
          "area_intersection_union": 0.0
        }
      }
    },
    {
      "type": "Feature",
      "id": "ba0a8e89-b160-45d5-be9d-6805acdf3dbc",
      "geometry": {
        "type": "Polygon",
        "coordinates": [
          [
            [
              10207.0,
              58289.0
            ],
            [
              10207.0,
              59171.0
            ],
            [
              13403.0,
              59171.0
            ],
            [
              13403.0,
              58289.0
            ],
            [
              10207.0,
              58289.0
            ]
          ]
        ]
      },
      "properties": {
        "objectType": "annotation",
        "case_key": "2346972",
        "source": "C",
        "orig_class": "unknown",
        "classification": {
          "name": "C | unknown"
        },
        "match": {
          "status": "component_fp",
          "component_id": "unknown:comp_2",
          "class": "unknown",
          "nA": 0,
          "nB": 1,
          "cas_union": 0.0,
          "oc_union": 0.0,
          "ar_union": Infinity,
          "area_a_union": 0.0,
          "area_b_union": 2818872.0,
          "area_intersection_union": 0.0
        }
      }
    },
    {
      "type": "Feature",
      "id": "84f2684a-a0bd-404d-91e7-b20dd92f63b6",
      "geometry": {
        "type": "Polygon",
        "coordinates": [
          [
            [
              13459.0,
              55616.0
            ],
            [
              13459.0,
              58249.0
            ],
            [
              17053.0,
              58249.0
            ],
            [
              17053.0,
              55616.0
            ],
            [
              13459.0,
              55616.0
            ]
          ]
        ]
      },
      "properties": {
        "objectType": "annotation",
        "classification": {
          "name": "C | Focal crypt distortion (50% area of each fragment)",
          "color": [
            0,
            255,
            0
          ]
        },
        "case_key": "2346972",
        "source": "C",
        "orig_class": "Focal crypt distortion (50% area of each fragment)",
        "match": {
          "status": "component_fp",
          "component_id": "Focal crypt distortion (50% area of each fragment):comp_0",
          "class": "Focal crypt distortion (50% area of each fragment)",
          "nA": 0,
          "nB": 1,
          "cas_union": 0.0,
          "oc_union": 0.0,
          "ar_union": Infinity,
          "area_a_union": 0.0,
          "area_b_union": 9463002.0,
          "area_intersection_union": 0.0
        }
      }
    },
    {
      "type": "Feature",
      "id": "667b81f4-38f2-4441-b604-bbd1341585ab",
      "geometry": {
        "type": "Polygon",
        "coordinates": [
          [
            [
              10839.0,
              59187.0
            ],
            [
              10839.0,
              60563.0
            ],
            [
              13907.0,
              60563.0
            ],
            [
              13907.0,
              59187.0
            ],
            [
              10839.0,
              59187.0
            ]
          ]
        ]
      },
      "properties": {
        "objectType": "annotation",
        "case_key": "2346972",
        "source": "C",
        "orig_class": "unknown",
        "classification": {
          "name": "C | unknown"
        },
        "match": {
          "status": "component_fp",
          "component_id": "unknown:comp_3",
          "class": "unknown",
          "nA": 0,
          "nB": 1,
          "cas_union": 0.0,
          "oc_union": 0.0,
          "ar_union": Infinity,
          "area_a_union": 0.0,
          "area_b_union": 4221568.0,
          "area_intersection_union": 0.0
        }
      }
    },
    {
      "type": "Feature",
      "id": "2543353e-6b3c-4268-9ad1-d9d12808325d",
      "geometry": {
        "type": "Polygon",
        "coordinates": [
          [
            [
              14158.0,
              52091.0
            ],
            [
              14158.0,
              53896.0
            ],
            [
              16161.0,
              53896.0
            ],
            [
              16161.0,
              52091.0
            ],
            [
              14158.0,
              52091.0
            ]
          ]
        ]
      },
      "properties": {
        "objectType": "annotation",
        "classification": {
          "name": "C | Architecture normal",
          "color": [
            0,
            255,
            255
          ]
        },
        "case_key": "2346972",
        "source": "C",
        "orig_class": "Architecture normal",
        "match": {
          "status": "component_fp",
          "component_id": "Architecture normal:comp_3",
          "class": "Architecture normal",
          "nA": 0,
          "nB": 1,
          "cas_union": 0.0,
          "oc_union": 0.0,
          "ar_union": Infinity,
          "area_a_union": 0.0,
          "area_b_union": 3615415.0,
          "area_intersection_union": 0.0
        }
      }
    },
    {
      "type": "Feature",
      "id": "245ff9d8-a3f1-4e41-b551-899468cd9c89",
      "geometry": {
        "type": "Polygon",
        "coordinates": [
          [
            [
              14832.0,
              54079.0
            ],
            [
              14832.0,
              55595.0
            ],
            [
              16141.0,
              55595.0
            ],
            [
              16141.0,
              54079.0
            ],
            [
              14832.0,
              54079.0
            ]
          ]
        ]
      },
      "properties": {
        "objectType": "annotation",
        "case_key": "2346972",
        "source": "C",
        "orig_class": "unknown",
        "classification": {
          "name": "C | unknown"
        },
        "match": {
          "status": "component_fp",
          "component_id": "unknown:comp_4",
          "class": "unknown",
          "nA": 0,
          "nB": 1,
          "cas_union": 0.0,
          "oc_union": 0.0,
          "ar_union": Infinity,
          "area_a_union": 0.0,
          "area_b_union": 1984444.0,
          "area_intersection_union": 0.0
        }
      }
    }
  ]
}