{
  "type": "FeatureCollection",
  "features": [
    {
      "type": "Feature",
      "geometry": {
        "type": "Polygon",
        "coordinates": [
          [
            [
              36133.0,
              4658.0
            ],
            [
              36133.0,
              5368.0
            ],
            [
              34912.0,
              5368.0
            ],
            [
              34912.0,
              4658.0
            ],
            [
              36133.0,
              4658.0
            ]
          ]
        ]
      },
      "properties": {
        "case_id": "2224413",
        "merged_id": 0
      }
    },
    {
      "type": "Feature",
      "geometry": {
        "type": "Polygon",
        "coordinates": [
          [
            [
              43836.0,
              14849.0
            ],
            [
              43836.0,
              15262.0
            ],
            [
              43389.0,
              15262.0
            ],
            [
              43389.0,
              14849.0
            ],
            [
              43836.0,
              14849.0
            ]
          ]
        ]
      },
      "properties": {
        "case_id": "2224413",
        "merged_id": 1
      }
    },
    {
      "type": "Feature",
      "geometry": {
        "type": "Polygon",
        "coordinates": [
          [
            [
              46179.0,
              15600.0
            ],
            [
              46179.0,
              15991.0
            ],
            [
              45561.0,
              15991.0
            ],
            [
              45561.0,
              15600.0
            ],
            [
              46179.0,
              15600.0
            ]
          ]
        ]
      },
      "properties": {
        "case_id": "2224413",
        "merged_id": 2
      }
    },
    {
      "type": "Feature",
      "geometry": {
        "type": "Polygon",
        "coordinates": [
          [
            [
              40043.0,
              20130.0
            ],
            [
              40043.0,
              21010.0
            ],
            [
              39246.0,
              21010.0
            ],
            [
              39246.0,
              20130.0
            ],
            [
              40043.0,
              20130.0
            ]
          ]
        ]
      },
      "properties": {
        "case_id": "2224413",
        "merged_id": 3
      }
    },
    {
      "type": "Feature",
      "geometry": {
        "type": "Polygon",
        "coordinates": [
          [
            [
              35861.0,
              5386.0
            ],
            [
              35861.0,
              6086.0
            ],
            [
              35035.0,
              6086.0
            ],
            [
              35035.0,
              5386.0
            ],
            [
              35861.0,
              5386.0
            ]
          ]
        ]
      },
      "properties": {
        "case_id": "2224413",
        "merged_id": 4
      }
    },
    {
      "type": "Feature",
      "geometry": {
        "type": "Polygon",
        "coordinates": [
          [
            [
              38974.0,
              3054.0
            ],
            [
              38974.0,
              3527.0
            ],
            [
              38415.0,
              3527.0
            ],
            [
              38415.0,
              3054.0
            ],
            [
              38974.0,
              3054.0
            ]
          ]
        ]
      },
      "properties": {
        "case_id": "2224413",
        "merged_id": 5
      }
    },
    {
      "type": "Feature",
      "geometry": {
        "type": "Polygon",
        "coordinates": [
          [
            [
              40405.0,
              3928.0
            ],
            [
              40405.0,
              4494.0
            ],
            [
              40017.0,
              4494.0
            ],
            [
              40017.0,
              3928.0
            ],
            [
              40405.0,
              3928.0
            ]
          ]
        ]
      },
      "properties": {
        "case_id": "2224413",
        "merged_id": 6
      }
    },
    {
      "type": "Feature",
      "geometry": {
        "type": "Polygon",
        "coordinates": [
          [
            [
              47007.0,
              10820.0
            ],
            [
              47007.0,
              11322.0
            ],
            [
              46103.0,
              11322.0
            ],
            [
              46103.0,
              10820.0
            ],
            [
              47007.0,
              10820.0
            ]
          ]
        ]
      },
      "properties": {
        "case_id": "2224413",
        "merged_id": 7
      }
    },
    {
      "type": "Feature",
      "geometry": {
        "type": "Polygon",
        "coordinates": [
          [
            [
              42902.0,
              17794.0
            ],
            [
              42902.0,
              18316.0
            ],
            [
              42262.0,
              18316.0
            ],
            [
              42262.0,
              17794.0
            ],
            [
              42902.0,
              17794.0
            ]
          ]
        ]
      },
      "properties": {
        "case_id": "2224413",
        "merged_id": 8
      }
    },
    {
      "type": "Feature",
      "geometry": {
        "type": "Polygon",
        "coordinates": [
          [
            [
              36902.0,
              8780.0
            ],
            [
              36902.0,
              9372.0
            ],
            [
              36246.0,
              9372.0
            ],
            [
              36246.0,
              8780.0
            ],
            [
              36902.0,
              8780.0
            ]
          ]
        ]
      },
      "properties": {
        "case_id": "2224413",
        "merged_id": 9
      }
    },
    {
      "type": "Feature",
      "geometry": {
        "type": "Polygon",
        "coordinates": [
          [
            [
              39112.0,
              9767.0
            ],
            [
              39112.0,
              10264.0
            ],
            [
              38498.0,
              10264.0
            ],
            [
              38498.0,
              9767.0
            ],
            [
              39112.0,
              9767.0
            ]
          ]
        ]
      },
      "properties": {
        "case_id": "2224413",
        "merged_id": 10
      }
    },
    {
      "type": "Feature",
      "geometry": {
        "type": "Polygon",
        "coordinates": [
          [
            [
              38335.0,
              10008.0
            ],
            [
              38335.0,
              10309.0
            ],
            [
              37752.0,
              10309.0
            ],
            [
              37752.0,
              10008.0
            ],
            [
              38335.0,
              10008.0
            ]
          ]
        ]
      },
      "properties": {
        "case_id": "2224413",
        "merged_id": 11
      }
    },
    {
      "type": "Feature",
      "geometry": {
        "type": "Polygon",
        "coordinates": [
          [
            [
              38694.0,
              8822.0
            ],
            [
              38694.0,
              9215.0
            ],
            [
              38242.0,
              9215.0
            ],
            [
              38242.0,
              8822.0
            ],
            [
              38694.0,
              8822.0
            ]
          ]
        ]
      },
      "properties": {
        "case_id": "2224413",
        "merged_id": 12
      }
    },
    {
      "type": "Feature",
      "geometry": {
        "type": "Polygon",
        "coordinates": [
          [
            [
              37044.0,
              10134.0
            ],
            [
              37044.0,
              10405.0
            ],
            [
              36612.0,
              10405.0
            ],
            [
              36612.0,
              10134.0
            ],
            [
              37044.0,
              10134.0
            ]
          ]
        ]
      },
      "properties": {
        "case_id": "2224413",
        "merged_id": 13
      }
    },
    {
      "type": "Feature",
      "geometry": {
        "type": "Polygon",
        "coordinates": [
          [
            [
              36180.0,
              10439.0
            ],
            [
              36180.0,
              10847.0
            ],
            [
              35726.0,
              10847.0
            ],
            [
              35726.0,
              10439.0
            ],
            [
              36180.0,
              10439.0
            ]
          ]
        ]
      },
      "properties": {
        "case_id": "2224413",
        "merged_id": 14
      }
    },
    {
      "type": "Feature",
      "geometry": {
        "type": "Polygon",
        "coordinates": [
          [
            [
              36206.0,
              11596.0
            ],
            [
              36206.0,
              11846.0
            ],
            [
              35745.0,
              11846.0
            ],
            [
              35745.0,
              11596.0
            ],
            [
              36206.0,
              11596.0
            ]
          ]
        ]
      },
      "properties": {
        "case_id": "2224413",
        "merged_id": 15
      }
    },
    {
      "type": "Feature",
      "geometry": {
        "type": "Polygon",
        "coordinates": [
          [
            [
              45449.0,
              13804.0
            ],
            [
              45449.0,
              14344.0
            ],
            [
              44866.0,
              14344.0
            ],
            [
              44866.0,
              13804.0
            ],
            [
              45449.0,
              13804.0
            ]
          ]
        ]
      },
      "properties": {
        "case_id": "2224413",
        "merged_id": 16
      }
    },
    {
      "type": "Feature",
      "geometry": {
        "type": "Polygon",
        "coordinates": [
          [
            [
              44134.0,
              18460.0
            ],
            [
              44134.0,
              19052.0
            ],
            [
              43233.0,
              19052.0
            ],
            [
              43233.0,
              18460.0
            ],
            [
              44134.0,
              18460.0
            ]
          ]
        ]
      },
      "properties": {
        "case_id": "2224413",
        "merged_id": 17
      }
    },
    {
      "type": "Feature",
      "geometry": {
        "type": "Polygon",
        "coordinates": [
          [
            [
              44870.0,
              17531.0
            ],
            [
              44870.0,
              18112.0
            ],
            [
              44438.0,
              18112.0
            ],
            [
              44438.0,
              17531.0
            ],
            [
              44870.0,
              17531.0
            ]
          ]
        ]
      },
      "properties": {
        "case_id": "2224413",
        "merged_id": 18
      }
    },
    {
      "type": "Feature",
      "geometry": {
        "type": "Polygon",
        "coordinates": [
          [
            [
              43750.0,
              18790.0
            ],
            [
              43750.0,
              19788.0
            ],
            [
              43392.0,
              19788.0
            ],
            [
              43392.0,
              18790.0
            ],
            [
              43750.0,
              18790.0
            ]
          ]
        ]
      },
      "properties": {
        "case_id": "2224413",
        "merged_id": 19
      }
    },
    {
      "type": "Feature",
      "geometry": {
        "type": "Polygon",
        "coordinates": [
          [
            [
              44481.0,
              18442.0
            ],
            [
              44481.0,
              18879.0
            ],
            [
              44235.0,
              18879.0
            ],
            [
              44235.0,
              18442.0
            ],
            [
              44481.0,
              18442.0
            ]
          ]
        ]
      },
      "properties": {
        "case_id": "2224413",
        "merged_id": 20
      }
    },
    {
      "type": "Feature",
      "geometry": {
        "type": "Polygon",
        "coordinates": [
          [
            [
              45196.0,
              16892.0
            ],
            [
              45196.0,
              17909.0
            ],
            [
              44605.0,
              17909.0
            ],
            [
              44605.0,
              16892.0
            ],
            [
              45196.0,
              16892.0
            ]
          ]
        ]
      },
      "properties": {
        "case_id": "2224413",
        "merged_id": 21
      }
    },
    {
      "type": "Feature",
      "geometry": {
        "type": "Polygon",
        "coordinates": [
          [
            [
              45308.0,
              17273.0
            ],
            [
              45308.0,
              17978.0
            ],
            [
              44991.0,
              17978.0
            ],
            [
              44991.0,
              17273.0
            ],
            [
              45308.0,
              17273.0
            ]
          ]
        ]
      },
      "properties": {
        "case_id": "2224413",
        "merged_id": 22
      }
    },
    {
      "type": "Feature",
      "geometry": {
        "type": "Polygon",
        "coordinates": [
          [
            [
              42974.0,
              18672.0
            ],
            [
              42974.0,
              19119.0
            ],
            [
              42646.0,
              19119.0
            ],
            [
              42646.0,
              18672.0
            ],
            [
              42974.0,
              18672.0
            ]
          ]
        ]
      },
      "properties": {
        "case_id": "2224413",
        "merged_id": 23
      }
    },
    {
      "type": "Feature",
      "geometry": {
        "type": "Polygon",
        "coordinates": [
          [
            [
              41712.0,
              19522.0
            ],
            [
              41712.0,
              20040.0
            ],
            [
              41237.0,
              20040.0
            ],
            [
              41237.0,
              19522.0
            ],
            [
              41712.0,
              19522.0
            ]
          ]
        ]
      },
      "properties": {
        "case_id": "2224413",
        "merged_id": 24
      }
    },
    {
      "type": "Feature",
      "geometry": {
        "type": "Polygon",
        "coordinates": [
          [
            [
              44252.0,
              19984.0
            ],
            [
              44252.0,
              20451.0
            ],
            [
              43691.0,
              20451.0
            ],
            [
              43691.0,
              19984.0
            ],
            [
              44252.0,
              19984.0
            ]
          ]
        ]
      },
      "properties": {
        "case_id": "2224413",
        "merged_id": 25
      }
    },
    {
      "type": "Feature",
      "geometry": {
        "type": "Polygon",
        "coordinates": [
          [
            [
              42361.0,
              18089.0
            ],
            [
              42361.0,
              18636.0
            ],
            [
              41848.0,
              18636.0
            ],
            [
              41848.0,
              18089.0
            ],
            [
              42361.0,
              18089.0
            ]
          ]
        ]
      },
      "properties": {
        "case_id": "2224413",
        "merged_id": 26
      }
    },
    {
      "type": "Feature",
      "geometry": {
        "type": "Polygon",
        "coordinates": [
          [
            [
              41371.0,
              17484.0
            ],
            [
              41371.0,
              18087.0
            ],
            [
              40790.0,
              18087.0
            ],
            [
              40790.0,
              17484.0
            ],
            [
              41371.0,
              17484.0
            ]
          ]
        ]
      },
      "properties": {
        "case_id": "2224413",
        "merged_id": 27
      }
    },
    {
      "type": "Feature",
      "geometry": {
        "type": "Polygon",
        "coordinates": [
          [
            [
              41338.0,
              12353.0
            ],
            [
              41338.0,
              13078.0
            ],
            [
              40710.0,
              13078.0
            ],
            [
              40710.0,
              12353.0
            ],
            [
              41338.0,
              12353.0
            ]
          ]
        ]
      },
      "properties": {
        "case_id": "2224413",
        "merged_id": 28
      }
    },
    {
      "type": "Feature",
      "geometry": {
        "type": "Polygon",
        "coordinates": [
          [
            [
              43680.0,
              8802.0
            ],
            [
              43680.0,
              9406.0
            ],
            [
              43049.0,
              9406.0
            ],
            [
              43049.0,
              8802.0
            ],
            [
              43680.0,
              8802.0
            ]
          ]
        ]
      },
      "properties": {
        "case_id": "2224413",
        "merged_id": 29
      }
    },
    {
      "type": "Feature",
      "geometry": {
        "type": "Polygon",
        "coordinates": [
          [
            [
              39494.0,
              6508.0
            ],
            [
              39494.0,
              7100.0
            ],
            [
              38694.0,
              7100.0
            ],
            [
              38694.0,
              6508.0
            ],
            [
              39494.0,
              6508.0
            ]
          ]
        ]
      },
      "properties": {
        "case_id": "2224413",
        "merged_id": 30
      }
    },
    {
      "type": "Feature",
      "geometry": {
        "type": "Polygon",
        "coordinates": [
          [
            [
              35183.0,
              8987.0
            ],
            [
              35183.0,
              9616.0
            ],
            [
              34552.0,
              9616.0
            ],
            [
              34552.0,
              8987.0
            ],
            [
              35183.0,
              8987.0
            ]
          ]
        ]
      },
      "properties": {
        "case_id": "2224413",
        "merged_id": 31
      }
    },
    {
      "type": "Feature",
      "geometry": {
        "type": "Polygon",
        "coordinates": [
          [
            [
              43869.0,
              6440.0
            ],
            [
              43869.0,
              7150.0
            ],
            [
              43428.0,
              7150.0
            ],
            [
              43428.0,
              6440.0
            ],
            [
              43869.0,
              6440.0
            ]
          ]
        ]
      },
      "properties": {
        "case_id": "2224413",
        "merged_id": 32
      }
    },
    {
      "type": "Feature",
      "geometry": {
        "type": "Polygon",
        "coordinates": [
          [
            [
              43998.0,
              4033.0
            ],
            [
              43998.0,
              8076.0
            ],
            [
              41830.0,
              8076.0
            ],
            [
              41830.0,
              4033.0
            ],
            [
              43998.0,
              4033.0
            ]
          ]
        ]
      },
      "properties": {
        "case_id": "2224413",
        "merged_id": 33
      }
    },
    {
      "type": "Feature",
      "geometry": {
        "type": "Polygon",
        "coordinates": [
          [
            [
              48182.0,
              10884.0
            ],
            [
              48182.0,
              15047.0
            ],
            [
              43333.0,
              15047.0
            ],
            [
              43333.0,
              10884.0
            ],
            [
              48182.0,
              10884.0
            ]
          ]
        ]
      },
      "properties": {
        "case_id": "2224413",
        "merged_id": 34
      }
    },
    {
      "type": "Feature",
      "geometry": {
        "type": "Polygon",
        "coordinates": [
          [
            [
              45305.0,
              17065.0
            ],
            [
              45305.0,
              20850.0
            ],
            [
              39358.0,
              20850.0
            ],
            [
              39358.0,
              17065.0
            ],
            [
              45305.0,
              17065.0
            ]
          ]
        ]
      },
      "properties": {
        "case_id": "2224413",
        "merged_id": 35
      }
    },
    {
      "type": "Feature",
      "geometry": {
        "type": "Polygon",
        "coordinates": [
          [
            [
              35824.0,
              7170.0
            ],
            [
              35824.0,
              8761.0
            ],
            [
              34385.0,
              8761.0
            ],
            [
              34385.0,
              7170.0
            ],
            [
              35824.0,
              7170.0
            ]
          ]
        ]
      },
      "properties": {
        "case_id": "2224413",
        "merged_id": 36
      }
    },
    {
      "type": "Feature",
      "geometry": {
        "type": "Polygon",
        "coordinates": [
          [
            [
              41310.0,
              11366.0
            ],
            [
              41310.0,
              15190.0
            ],
            [
              39111.0,
              15190.0
            ],
            [
              39111.0,
              11366.0
            ],
            [
              41310.0,
              11366.0
            ]
          ]
        ]
      },
      "properties": {
        "case_id": "2224413",
        "merged_id": 37
      }
    },
    {
      "type": "Feature",
      "geometry": {
        "type": "Polygon",
        "coordinates": [
          [
            [
              43029.0,
              9378.0
            ],
            [
              43029.0,
              11123.0
            ],
            [
              41281.0,
              11123.0
            ],
            [
              41281.0,
              9378.0
            ],
            [
              43029.0,
              9378.0
            ]
          ]
        ]
      },
      "properties": {
        "case_id": "2224413",
        "merged_id": 38
      }
    },
    {
      "type": "Feature",
      "geometry": {
        "type": "Polygon",
        "coordinates": [
          [
            [
              38758.0,
              8878.0
            ],
            [
              38758.0,
              12364.0
            ],
            [
              33318.0,
              12364.0
            ],
            [
              33318.0,
              8878.0
            ],
            [
              38758.0,
              8878.0
            ]
          ]
        ]
      },
      "properties": {
        "case_id": "2224413",
        "merged_id": 39
      }
    },
    {
      "type": "Feature",
      "geometry": {
        "type": "Polygon",
        "coordinates": [
          [
            [
              39350.0,
              3788.0
            ],
            [
              39350.0,
              6428.0
            ],
            [
              36566.0,
              6428.0
            ],
            [
              36566.0,
              3788.0
            ],
            [
              39350.0,
              3788.0
            ]
          ]
        ]
      },
      "properties": {
        "case_id": "2224413",
        "merged_id": 40
      }
    },
    {
      "type": "Feature",
      "geometry": {
        "type": "Polygon",
        "coordinates": [
          [
            [
              40678.0,
              6114.0
            ],
            [
              40678.0,
              9324.0
            ],
            [
              34886.0,
              9324.0
            ],
            [
              34886.0,
              6114.0
            ],
            [
              40678.0,
              6114.0
            ]
          ]
        ]
      },
      "properties": {
        "case_id": "2224413",
        "merged_id": 41
      }
    },
    {
      "type": "Feature",
      "geometry": {
        "type": "Polygon",
        "coordinates": [
          [
            [
              46982.0,
              5244.0
            ],
            [
              46982.0,
              9148.0
            ],
            [
              44102.0,
              9148.0
            ],
            [
              44102.0,
              5244.0
            ],
            [
              46982.0,
              5244.0
            ]
          ]
        ]
      },
      "properties": {
        "case_id": "2224413",
        "merged_id": 42
      }
    },
    {
      "type": "Feature",
      "geometry": {
        "type": "Polygon",
        "coordinates": [
          [
            [
              45932.0,
              8995.0
            ],
            [
              45932.0,
              9243.0
            ],
            [
              45614.0,
              9243.0
            ],
            [
              45614.0,
              8995.0
            ],
            [
              45932.0,
              8995.0
            ]
          ]
        ]
      },
      "properties": {
        "case_id": "2224413",
        "merged_id": 43
      }
    },
    {
      "type": "Feature",
      "geometry": {
        "type": "Polygon",
        "coordinates": [
          [
            [
              36463.0,
              9390.0
            ],
            [
              36463.0,
              10076.0
            ],
            [
              35882.0,
              10076.0
            ],
            [
              35882.0,
              9390.0
            ],
            [
              36463.0,
              9390.0
            ]
          ]
        ]
      },
      "properties": {
        "case_id": "2224413",
        "merged_id": 44
      }
    },
    {
      "type": "Feature",
      "geometry": {
        "type": "Polygon",
        "coordinates": [
          [
            [
              40327.0,
              5084.0
            ],
            [
              40327.0,
              6140.0
            ],
            [
              38982.0,
              6140.0
            ],
            [
              38982.0,
              5084.0
            ],
            [
              40327.0,
              5084.0
            ]
          ]
        ]
      },
      "properties": {
        "case_id": "2224413",
        "merged_id": 45
      }
    },
    {
      "type": "Feature",
      "geometry": {
        "type": "Polygon",
        "coordinates": [
          [
            [
              36916.0,
              2092.0
            ],
            [
              36916.0,
              3142.0
            ],
            [
              36438.0,
              3142.0
            ],
            [
              36438.0,
              2092.0
            ],
            [
              36916.0,
              2092.0
            ]
          ]
        ]
      },
      "properties": {
        "case_id": "2224413",
        "merged_id": 46
      }
    },
    {
      "type": "Feature",
      "geometry": {
        "type": "Polygon",
        "coordinates": [
          [
            [
              37699.0,
              8313.0
            ],
            [
              37699.0,
              8830.0
            ],
            [
              37190.0,
              8830.0
            ],
            [
              37190.0,
              8313.0
            ],
            [
              37699.0,
              8313.0
            ]
          ]
        ]
      },
      "properties": {
        "case_id": "2224413",
        "merged_id": 47
      }
    },
    {
      "type": "Feature",
      "geometry": {
        "type": "Polygon",
        "coordinates": [
          [
            [
              37243.0,
              3466.0
            ],
            [
              37243.0,
              3837.0
            ],
            [
              36375.0,
              3837.0
            ],
            [
              36375.0,
              3466.0
            ],
            [
              37243.0,
              3466.0
            ]
          ]
        ]
      },
      "properties": {
        "case_id": "2224413",
        "merged_id": 48
      }
    },
    {
      "type": "Feature",
      "geometry": {
        "type": "Polygon",
        "coordinates": [
          [
            [
              42889.0,
              20218.0
            ],
            [
              42889.0,
              20778.0
            ],
            [
              42057.0,
              20778.0
            ],
            [
              42057.0,
              20218.0
            ],
            [
              42889.0,
              20218.0
            ]
          ]
        ]
      },
      "properties": {
        "case_id": "2224413",
        "merged_id": 49
      }
    },
    {
      "type": "Feature",
      "geometry": {
        "type": "Polygon",
        "coordinates": [
          [
            [
              43561.0,
              19914.0
            ],
            [
              43561.0,
              20282.0
            ],
            [
              42969.0,
              20282.0
            ],
            [
              42969.0,
              19914.0
            ],
            [
              43561.0,
              19914.0
            ]
          ]
        ]
      },
      "properties": {
        "case_id": "2224413",
        "merged_id": 50
      }
    },
    {
      "type": "Feature",
      "geometry": {
        "type": "Polygon",
        "coordinates": [
          [
            [
              44801.0,
              9160.0
            ],
            [
              44801.0,
              9408.0
            ],
            [
              44602.0,
              9408.0
            ],
            [
              44602.0,
              9160.0
            ],
            [
              44801.0,
              9160.0
            ]
          ]
        ]
      },
      "properties": {
        "case_id": "2224413",
        "merged_id": 51
      }
    },
    {
      "type": "Feature",
      "geometry": {
        "type": "Polygon",
        "coordinates": [
          [
            [
              44983.0,
              9369.0
            ],
            [
              44983.0,
              9655.0
            ],
            [
              44823.0,
              9655.0
            ],
            [
              44823.0,
              9369.0
            ],
            [
              44983.0,
              9369.0
            ]
          ]
        ]
      },
      "properties": {
        "case_id": "2224413",
        "merged_id": 52
      }
    },
    {
      "type": "Feature",
      "geometry": {
        "type": "Polygon",
        "coordinates": [
          [
            [
              47083.0,
              10685.0
            ],
            [
              47083.0,
              11212.0
            ],
            [
              46592.0,
              11212.0
            ],
            [
              46592.0,
              10685.0
            ],
            [
              47083.0,
              10685.0
            ]
          ]
        ]
      },
      "properties": {
        "case_id": "2224413",
        "merged_id": 53
      }
    },
    {
      "type": "Feature",
      "geometry": {
        "type": "Polygon",
        "coordinates": [
          [
            [
              47321.0,
              8794.0
            ],
            [
              47321.0,
              9220.0
            ],
            [
              46924.0,
              9220.0
            ],
            [
              46924.0,
              8794.0
            ],
            [
              47321.0,
              8794.0
            ]
          ]
        ]
      },
      "properties": {
        "case_id": "2224413",
        "merged_id": 54
      }
    },
    {
      "type": "Feature",
      "geometry": {
        "type": "Polygon",
        "coordinates": [
          [
            [
              45387.0,
              4521.0
            ],
            [
              45387.0,
              4976.0
            ],
            [
              45033.0,
              4976.0
            ],
            [
              45033.0,
              4521.0
            ],
            [
              45387.0,
              4521.0
            ]
          ]
        ]
      },
      "properties": {
        "case_id": "2224413",
        "merged_id": 55
      }
    },
    {
      "type": "Feature",
      "geometry": {
        "type": "Polygon",
        "coordinates": [
          [
            [
              33738.0,
              3995.0
            ],
            [
              33738.0,
              4145.0
            ],
            [
              33180.0,
              4145.0
            ],
            [
              33180.0,
              3995.0
            ],
            [
              33738.0,
              3995.0
            ]
          ]
        ]
      },
      "properties": {
        "case_id": "2224413",
        "merged_id": 56
      }
    },
    {
      "type": "Feature",
      "geometry": {
        "type": "Polygon",
        "coordinates": [
          [
            [
              43783.0,
              16849.0
            ],
            [
              43783.0,
              17072.0
            ],
            [
              43242.0,
              17072.0
            ],
            [
              43242.0,
              16849.0
            ],
            [
              43783.0,
              16849.0
            ]
          ]
        ]
      },
      "properties": {
        "case_id": "2224413",
        "merged_id": 57
      }
    },
    {
      "type": "Feature",
      "geometry": {
        "type": "Polygon",
        "coordinates": [
          [
            [
              41791.0,
              16148.0
            ],
            [
              41791.0,
              16502.0
            ],
            [
              41343.0,
              16502.0
            ],
            [
              41343.0,
              16148.0
            ],
            [
              41791.0,
              16148.0
            ]
          ]
        ]
      },
      "properties": {
        "case_id": "2224413",
        "merged_id": 58
      }
    },
    {
      "type": "Feature",
      "geometry": {
        "type": "Polygon",
        "coordinates": [
          [
            [
              39375.0,
              3680.0
            ],
            [
              39375.0,
              3995.0
            ],
            [
              38973.0,
              3995.0
            ],
            [
              38973.0,
              3680.0
            ],
            [
              39375.0,
              3680.0
            ]
          ]
        ]
      },
      "properties": {
        "case_id": "2224413",
        "merged_id": 59
      }
    },
    {
      "type": "Feature",
      "geometry": {
        "type": "Polygon",
        "coordinates": [
          [
            [
              40495.0,
              3825.0
            ],
            [
              40495.0,
              4126.0
            ],
            [
              39869.0,
              4126.0
            ],
            [
              39869.0,
              3825.0
            ],
            [
              40495.0,
              3825.0
            ]
          ]
        ]
      },
      "properties": {
        "case_id": "2224413",
        "merged_id": 60
      }
    },
    {
      "type": "Feature",
      "geometry": {
        "type": "Polygon",
        "coordinates": [
          [
            [
              38838.0,
              9868.0
            ],
            [
              38838.0,
              10428.0
            ],
            [
              37478.0,
              10428.0
            ],
            [
              37478.0,
              9868.0
            ],
            [
              38838.0,
              9868.0
            ]
          ]
        ]
      },
      "properties": {
        "case_id": "2224413",
        "merged_id": 61
      }
    },
    {
      "type": "Feature",
      "geometry": {
        "type": "Polygon",
        "coordinates": [
          [
            [
              36710.0,
              7596.0
            ],
            [
              36710.0,
              8188.0
            ],
            [
              36038.0,
              8188.0
            ],
            [
              36038.0,
              7596.0
            ],
            [
              36710.0,
              7596.0
            ]
          ]
        ]
      },
      "properties": {
        "case_id": "2224413",
        "merged_id": 62
      }
    },
    {
      "type": "Feature",
      "geometry": {
        "type": "Polygon",
        "coordinates": [
          [
            [
              37590.0,
              4972.0
            ],
            [
              37590.0,
              5452.0
            ],
            [
              36998.0,
              5452.0
            ],
            [
              36998.0,
              4972.0
            ],
            [
              37590.0,
              4972.0
            ]
          ]
        ]
      },
      "properties": {
        "case_id": "2224413",
        "merged_id": 63
      }
    },
    {
      "type": "Feature",
      "geometry": {
        "type": "Polygon",
        "coordinates": [
          [
            [
              37510.0,
              3500.0
            ],
            [
              37510.0,
              4060.0
            ],
            [
              36950.0,
              4060.0
            ],
            [
              36950.0,
              3500.0
            ],
            [
              37510.0,
              3500.0
            ]
          ]
        ]
      },
      "properties": {
        "case_id": "2224413",
        "merged_id": 64
      }
    },
    {
      "type": "Feature",
      "geometry": {
        "type": "Polygon",
        "coordinates": [
          [
            [
              40614.0,
              6972.0
            ],
            [
              40614.0,
              7484.0
            ],
            [
              40070.0,
              7484.0
            ],
            [
              40070.0,
              6972.0
            ],
            [
              40614.0,
              6972.0
            ]
          ]
        ]
      },
      "properties": {
        "case_id": "2224413",
        "merged_id": 65
      }
    },
    {
      "type": "Feature",
      "geometry": {
        "type": "Polygon",
        "coordinates": [
          [
            [
              36966.0,
              9996.0
            ],
            [
              36966.0,
              10396.0
            ],
            [
              36214.0,
              10396.0
            ],
            [
              36214.0,
              9996.0
            ],
            [
              36966.0,
              9996.0
            ]
          ]
        ]
      },
      "properties": {
        "case_id": "2224413",
        "merged_id": 66
      }
    },
    {
      "type": "Feature",
      "geometry": {
        "type": "Polygon",
        "coordinates": [
          [
            [
              37494.0,
              8188.0
            ],
            [
              37494.0,
              8588.0
            ],
            [
              36998.0,
              8588.0
            ],
            [
              36998.0,
              8188.0
            ],
            [
              37494.0,
              8188.0
            ]
          ]
        ]
      },
      "properties": {
        "case_id": "2224413",
        "merged_id": 67
      }
    },
    {
      "type": "Feature",
      "geometry": {
        "type": "Polygon",
        "coordinates": [
          [
            [
              44870.0,
              13180.0
            ],
            [
              44870.0,
              14220.0
            ],
            [
              44198.0,
              14220.0
            ],
            [
              44198.0,
              13180.0
            ],
            [
              44870.0,
              13180.0
            ]
          ]
        ]
      },
      "properties": {
        "case_id": "2224413",
        "merged_id": 68
      }
    },
    {
      "type": "Feature",
      "geometry": {
        "type": "Polygon",
        "coordinates": [
          [
            [
              41398.0,
              13420.0
            ],
            [
              41398.0,
              13772.0
            ],
            [
              40598.0,
              13772.0
            ],
            [
              40598.0,
              13420.0
            ],
            [
              41398.0,
              13420.0
            ]
          ]
        ]
      },
      "properties": {
        "case_id": "2224413",
        "merged_id": 69
      }
    },
    {
      "type": "Feature",
      "geometry": {
        "type": "Polygon",
        "coordinates": [
          [
            [
              43734.0,
              13724.0
            ],
            [
              43734.0,
              15132.0
            ],
            [
              43382.0,
              15132.0
            ],
            [
              43382.0,
              13724.0
            ],
            [
              43734.0,
              13724.0
            ]
          ]
        ]
      },
      "properties": {
        "case_id": "2224413",
        "merged_id": 70
      }
    },
    {
      "type": "Feature",
      "geometry": {
        "type": "Polygon",
        "coordinates": [
          [
            [
              41430.0,
              18828.0
            ],
            [
              41430.0,
              19356.0
            ],
            [
              41014.0,
              19356.0
            ],
            [
              41014.0,
              18828.0
            ],
            [
              41430.0,
              18828.0
            ]
          ]
        ]
      },
      "properties": {
        "case_id": "2224413",
        "merged_id": 71
      }
    },
    {
      "type": "Feature",
      "geometry": {
        "type": "Polygon",
        "coordinates": [
          [
            [
              41862.0,
              17820.0
            ],
            [
              41862.0,
              18156.0
            ],
            [
              41270.0,
              18156.0
            ],
            [
              41270.0,
              17820.0
            ],
            [
              41862.0,
              17820.0
            ]
          ]
        ]
      },
      "properties": {
        "case_id": "2224413",
        "merged_id": 72
      }
    },
    {
      "type": "Feature",
      "geometry": {
        "type": "Polygon",
        "coordinates": [
          [
            [
              46758.0,
              16076.0
            ],
            [
              46758.0,
              16604.0
            ],
            [
              46150.0,
              16604.0
            ],
            [
              46150.0,
              16076.0
            ],
            [
              46758.0,
              16076.0
            ]
          ]
        ]
      },
      "properties": {
        "case_id": "2224413",
        "merged_id": 73
      }
    },
    {
      "type": "Feature",
      "geometry": {
        "type": "Polygon",
        "coordinates": [
          [
            [
              42662.0,
              17228.0
            ],
            [
              42662.0,
              17852.0
            ],
            [
              42198.0,
              17852.0
            ],
            [
              42198.0,
              17228.0
            ],
            [
              42662.0,
              17228.0
            ]
          ]
        ]
      },
      "properties": {
        "case_id": "2224413",
        "merged_id": 74
      }
    },
    {
      "type": "Feature",
      "geometry": {
        "type": "Polygon",
        "coordinates": [
          [
            [
              40486.0,
              17308.0
            ],
            [
              40486.0,
              17804.0
            ],
            [
              40054.0,
              17804.0
            ],
            [
              40054.0,
              17308.0
            ],
            [
              40486.0,
              17308.0
            ]
          ]
        ]
      },
      "properties": {
        "case_id": "2224413",
        "merged_id": 75
      }
    },
    {
      "type": "Feature",
      "geometry": {
        "type": "Polygon",
        "coordinates": [
          [
            [
              41622.0,
              20300.0
            ],
            [
              41622.0,
              20732.0
            ],
            [
              40998.0,
              20732.0
            ],
            [
              40998.0,
              20300.0
            ],
            [
              41622.0,
              20300.0
            ]
          ]
        ]
      },
      "properties": {
        "case_id": "2224413",
        "merged_id": 76
      }
    },
    {
      "type": "Feature",
      "geometry": {
        "type": "Polygon",
        "coordinates": [
          [
            [
              44838.0,
              12748.0
            ],
            [
              44838.0,
              13036.0
            ],
            [
              44278.0,
              13036.0
            ],
            [
              44278.0,
              12748.0
            ],
            [
              44838.0,
              12748.0
            ]
          ]
        ]
      },
      "properties": {
        "case_id": "2224413",
        "merged_id": 77
      }
    },
    {
      "type": "Feature",
      "geometry": {
        "type": "Polygon",
        "coordinates": [
          [
            [
              46790.0,
              12172.0
            ],
            [
              46790.0,
              12860.0
            ],
            [
              46326.0,
              12860.0
            ],
            [
              46326.0,
              12172.0
            ],
            [
              46790.0,
              12172.0
            ]
          ]
        ]
      },
      "properties": {
        "case_id": "2224413",
        "merged_id": 78
      }
    },
    {
      "type": "Feature",
      "geometry": {
        "type": "Polygon",
        "coordinates": [
          [
            [
              40630.0,
              11196.0
            ],
            [
              40630.0,
              11564.0
            ],
            [
              40038.0,
              11564.0
            ],
            [
              40038.0,
              11196.0
            ],
            [
              40630.0,
              11196.0
            ]
          ]
        ]
      },
      "properties": {
        "case_id": "2224413",
        "merged_id": 79
      }
    },
    {
      "type": "Feature",
      "geometry": {
        "type": "Polygon",
        "coordinates": [
          [
            [
              41590.0,
              13004.0
            ],
            [
              41590.0,
              13404.0
            ],
            [
              41270.0,
              13404.0
            ],
            [
              41270.0,
              13004.0
            ],
            [
              41590.0,
              13004.0
            ]
          ]
        ]
      },
      "properties": {
        "case_id": "2224413",
        "merged_id": 80
      }
    },
    {
      "type": "Feature",
      "geometry": {
        "type": "Polygon",
        "coordinates": [
          [
            [
              40486.0,
              14252.0
            ],
            [
              40486.0,
              15068.0
            ],
            [
              39974.0,
              15068.0
            ],
            [
              39974.0,
              14252.0
            ],
            [
              40486.0,
              14252.0
            ]
          ]
        ]
      },
      "properties": {
        "case_id": "2224413",
        "merged_id": 81
      }
    },
    {
      "type": "Feature",
      "geometry": {
        "type": "Polygon",
        "coordinates": [
          [
            [
              41894.0,
              11900.0
            ],
            [
              41894.0,
              12300.0
            ],
            [
              41430.0,
              12300.0
            ],
            [
              41430.0,
              11900.0
            ],
            [
              41894.0,
              11900.0
            ]
          ]
        ]
      },
      "properties": {
        "case_id": "2224413",
        "merged_id": 82
      }
    },
    {
      "type": "Feature",
      "geometry": {
        "type": "Polygon",
        "coordinates": [
          [
            [
              43334.0,
              4620.0
            ],
            [
              43334.0,
              5212.0
            ],
            [
              42374.0,
              5212.0
            ],
            [
              42374.0,
              4620.0
            ],
            [
              43334.0,
              4620.0
            ]
          ]
        ]
      },
      "properties": {
        "case_id": "2224413",
        "merged_id": 83
      }
    },
    {
      "type": "Feature",
      "geometry": {
        "type": "Polygon",
        "coordinates": [
          [
            [
              44374.0,
              7276.0
            ],
            [
              44374.0,
              7708.0
            ],
            [
              43862.0,
              7708.0
            ],
            [
              43862.0,
              7276.0
            ],
            [
              44374.0,
              7276.0
            ]
          ]
        ]
      },
      "properties": {
        "case_id": "2224413",
        "merged_id": 84
      }
    },
    {
      "type": "Feature",
      "geometry": {
        "type": "Polygon",
        "coordinates": [
          [
            [
              38486.0,
              11916.0
            ],
            [
              38486.0,
              12604.0
            ],
            [
              36822.0,
              12604.0
            ],
            [
              36822.0,
              11916.0
            ],
            [
              38486.0,
              11916.0
            ]
          ]
        ]
      },
      "properties": {
        "case_id": "2224413",
        "merged_id": 85
      }
    },
    {
      "type": "Feature",
      "geometry": {
        "type": "Polygon",
        "coordinates": [
          [
            [
              44358.0,
              3612.0
            ],
            [
              44358.0,
              5308.0
            ],
            [
              42294.0,
              5308.0
            ],
            [
              42294.0,
              3612.0
            ],
            [
              44358.0,
              3612.0
            ]
          ]
        ]
      },
      "properties": {
        "case_id": "2224413",
        "merged_id": 86
      }
    },
    {
      "type": "Feature",
      "geometry": {
        "type": "Polygon",
        "coordinates": [
          [
            [
              40102.0,
              11836.0
            ],
            [
              40102.0,
              14028.0
            ],
            [
              38454.0,
              14028.0
            ],
            [
              38454.0,
              11836.0
            ],
            [
              40102.0,
              11836.0
            ]
          ]
        ]
      },
      "properties": {
        "case_id": "2224413",
        "merged_id": 87
      }
    },
    {
      "type": "Feature",
      "geometry": {
        "type": "Polygon",
        "coordinates": [
          [
            [
              41350.0,
              13916.0
            ],
            [
              41350.0,
              15596.0
            ],
            [
              39766.0,
              15596.0
            ],
            [
              39766.0,
              13916.0
            ],
            [
              41350.0,
              13916.0
            ]
          ]
        ]
      },
      "properties": {
        "case_id": "2224413",
        "merged_id": 88
      }
    },
    {
      "type": "Feature",
      "geometry": {
        "type": "Polygon",
        "coordinates": [
          [
            [
              47014.0,
              15484.0
            ],
            [
              47014.0,
              16844.0
            ],
            [
              44038.0,
              16844.0
            ],
            [
              44038.0,
              15484.0
            ],
            [
              47014.0,
              15484.0
            ]
          ]
        ]
      },
      "properties": {
        "case_id": "2224413",
        "merged_id": 89
      }
    },
    {
      "type": "Feature",
      "geometry": {
        "type": "Polygon",
        "coordinates": [
          [
            [
              43446.0,
              16332.0
            ],
            [
              43446.0,
              17740.0
            ],
            [
              39606.0,
              17740.0
            ],
            [
              39606.0,
              16332.0
            ],
            [
              43446.0,
              16332.0
            ]
          ]
        ]
      },
      "properties": {
        "case_id": "2224413",
        "merged_id": 90
      }
    },
    {
      "type": "Feature",
      "geometry": {
        "type": "Polygon",
        "coordinates": [
          [
            [
              42902.0,
              8716.0
            ],
            [
              42902.0,
              12796.0
            ],
            [
              40630.0,
              12796.0
            ],
            [
              40630.0,
              8716.0
            ],
            [
              42902.0,
              8716.0
            ]
          ]
        ]
      },
      "properties": {
        "case_id": "2224413",
        "merged_id": 91
      }
    },
    {
      "type": "Feature",
      "geometry": {
        "type": "Polygon",
        "coordinates": [
          [
            [
              40598.0,
              4284.0
            ],
            [
              40598.0,
              6316.0
            ],
            [
              39638.0,
              6316.0
            ],
            [
              39638.0,
              4284.0
            ],
            [
              40598.0,
              4284.0
            ]
          ]
        ]
      },
      "properties": {
        "case_id": "2224413",
        "merged_id": 92
      }
    },
    {
      "type": "Feature",
      "geometry": {
        "type": "Polygon",
        "coordinates": [
          [
            [
              39961.0,
              19513.0
            ],
            [
              39961.0,
              20191.0
            ],
            [
              39376.0,
              20191.0
            ],
            [
              39376.0,
              19513.0
            ],
            [
              39961.0,
              19513.0
            ]
          ]
        ]
      },
      "properties": {
        "case_id": "2224413",
        "merged_id": 93
      }
    }
  ]
}