{
  "type": "FeatureCollection",
  "features": [
    {
      "type": "Feature",
      "geometry": {
        "type": "Polygon",
        "coordinates": [
          [
            [
              22394.0,
              26286.0
            ],
            [
              22394.0,
              26898.0
            ],
            [
              21381.0,
              26898.0
            ],
            [
              21381.0,
              26286.0
            ],
            [
              22394.0,
              26286.0
            ]
          ]
        ]
      },
      "properties": {
        "case_id": "2346175",
        "merged_id": 0
      }
    },
    {
      "type": "Feature",
      "geometry": {
        "type": "Polygon",
        "coordinates": [
          [
            [
              28004.0,
              25023.0
            ],
            [
              28004.0,
              25290.0
            ],
            [
              27750.0,
              25290.0
            ],
            [
              27750.0,
              25023.0
            ],
            [
              28004.0,
              25023.0
            ]
          ]
        ]
      },
      "properties": {
        "case_id": "2346175",
        "merged_id": 1
      }
    },
    {
      "type": "Feature",
      "geometry": {
        "type": "Polygon",
        "coordinates": [
          [
            [
              30415.0,
              16180.0
            ],
            [
              30415.0,
              16472.0
            ],
            [
              30070.0,
              16472.0
            ],
            [
              30070.0,
              16180.0
            ],
            [
              30415.0,
              16180.0
            ]
          ]
        ]
      },
      "properties": {
        "case_id": "2346175",
        "merged_id": 2
      }
    },
    {
      "type": "Feature",
      "geometry": {
        "type": "Polygon",
        "coordinates": [
          [
            [
              27673.0,
              15297.0
            ],
            [
              27673.0,
              15531.0
            ],
            [
              27380.0,
              15531.0
            ],
            [
              27380.0,
              15297.0
            ],
            [
              27673.0,
              15297.0
            ]
          ]
        ]
      },
      "properties": {
        "case_id": "2346175",
        "merged_id": 3
      }
    },
    {
      "type": "Feature",
      "geometry": {
        "type": "Polygon",
        "coordinates": [
          [
            [
              28089.0,
              15729.0
            ],
            [
              28089.0,
              16169.0
            ],
            [
              27706.0,
              16169.0
            ],
            [
              27706.0,
              15729.0
            ],
            [
              28089.0,
              15729.0
            ]
          ]
        ]
      },
      "properties": {
        "case_id": "2346175",
        "merged_id": 4
      }
    },
    {
      "type": "Feature",
      "geometry": {
        "type": "Polygon",
        "coordinates": [
          [
            [
              28704.0,
              15837.0
            ],
            [
              28704.0,
              16154.0
            ],
            [
              28489.0,
              16154.0
            ],
            [
              28489.0,
              15837.0
            ],
            [
              28704.0,
              15837.0
            ]
          ]
        ]
      },
      "properties": {
        "case_id": "2346175",
        "merged_id": 5
      }
    },
    {
      "type": "Feature",
      "geometry": {
        "type": "Polygon",
        "coordinates": [
          [
            [
              29491.0,
              16047.0
            ],
            [
              29491.0,
              16500.0
            ],
            [
              29087.0,
              16500.0
            ],
            [
              29087.0,
              16047.0
            ],
            [
              29491.0,
              16047.0
            ]
          ]
        ]
      },
      "properties": {
        "case_id": "2346175",
        "merged_id": 6
      }
    },
    {
      "type": "Feature",
      "geometry": {
        "type": "Polygon",
        "coordinates": [
          [
            [
              30047.0,
              17320.0
            ],
            [
              30047.0,
              17826.0
            ],
            [
              29601.0,
              17826.0
            ],
            [
              29601.0,
              17320.0
            ],
            [
              30047.0,
              17320.0
            ]
          ]
        ]
      },
      "properties": {
        "case_id": "2346175",
        "merged_id": 7
      }
    },
    {
      "type": "Feature",
      "geometry": {
        "type": "Polygon",
        "coordinates": [
          [
            [
              26298.0,
              30758.0
            ],
            [
              26298.0,
              31882.0
            ],
            [
              25553.0,
              31882.0
            ],
            [
              25553.0,
              30758.0
            ],
            [
              26298.0,
              30758.0
            ]
          ]
        ]
      },
      "properties": {
        "case_id": "2346175",
        "merged_id": 8
      }
    },
    {
      "type": "Feature",
      "geometry": {
        "type": "Polygon",
        "coordinates": [
          [
            [
              27960.0,
              31461.0
            ],
            [
              27960.0,
              32313.0
            ],
            [
              26934.0,
              32313.0
            ],
            [
              26934.0,
              31461.0
            ],
            [
              27960.0,
              31461.0
            ]
          ]
        ]
      },
      "properties": {
        "case_id": "2346175",
        "merged_id": 9
      }
    },
    {
      "type": "Feature",
      "geometry": {
        "type": "Polygon",
        "coordinates": [
          [
            [
              26906.0,
              31981.0
            ],
            [
              26906.0,
              32652.0
            ],
            [
              25834.0,
              32652.0
            ],
            [
              25834.0,
              31981.0
            ],
            [
              26906.0,
              31981.0
            ]
          ]
        ]
      },
      "properties": {
        "case_id": "2346175",
        "merged_id": 10
      }
    },
    {
      "type": "Feature",
      "geometry": {
        "type": "Polygon",
        "coordinates": [
          [
            [
              24569.0,
              25307.0
            ],
            [
              24569.0,
              25913.0
            ],
            [
              23753.0,
              25913.0
            ],
            [
              23753.0,
              25307.0
            ],
            [
              24569.0,
              25307.0
            ]
          ]
        ]
      },
      "properties": {
        "case_id": "2346175",
        "merged_id": 11
      }
    },
    {
      "type": "Feature",
      "geometry": {
        "type": "Polygon",
        "coordinates": [
          [
            [
              27988.0,
              16426.0
            ],
            [
              27988.0,
              17191.0
            ],
            [
              27338.0,
              17191.0
            ],
            [
              27338.0,
              16426.0
            ],
            [
              27988.0,
              16426.0
            ]
          ]
        ]
      },
      "properties": {
        "case_id": "2346175",
        "merged_id": 12
      }
    },
    {
      "type": "Feature",
      "geometry": {
        "type": "Polygon",
        "coordinates": [
          [
            [
              26717.0,
              31277.0
            ],
            [
              26717.0,
              31832.0
            ],
            [
              26373.0,
              31832.0
            ],
            [
              26373.0,
              31277.0
            ],
            [
              26717.0,
              31277.0
            ]
          ]
        ]
      },
      "properties": {
        "case_id": "2346175",
        "merged_id": 13
      }
    },
    {
      "type": "Feature",
      "geometry": {
        "type": "Polygon",
        "coordinates": [
          [
            [
              25379.0,
              30845.0
            ],
            [
              25379.0,
              31219.0
            ],
            [
              24358.0,
              31219.0
            ],
            [
              24358.0,
              30845.0
            ],
            [
              25379.0,
              30845.0
            ]
          ]
        ]
      },
      "properties": {
        "case_id": "2346175",
        "merged_id": 14
      }
    },
    {
      "type": "Feature",
      "geometry": {
        "type": "Polygon",
        "coordinates": [
          [
            [
              25469.0,
              17350.0
            ],
            [
              25469.0,
              17848.0
            ],
            [
              25049.0,
              17848.0
            ],
            [
              25049.0,
              17350.0
            ],
            [
              25469.0,
              17350.0
            ]
          ]
        ]
      },
      "properties": {
        "case_id": "2346175",
        "merged_id": 15
      }
    },
    {
      "type": "Feature",
      "geometry": {
        "type": "Polygon",
        "coordinates": [
          [
            [
              27371.0,
              17499.0
            ],
            [
              27371.0,
              17939.0
            ],
            [
              26328.0,
              17939.0
            ],
            [
              26328.0,
              17499.0
            ],
            [
              27371.0,
              17499.0
            ]
          ]
        ]
      },
      "properties": {
        "case_id": "2346175",
        "merged_id": 16
      }
    },
    {
      "type": "Feature",
      "geometry": {
        "type": "Polygon",
        "coordinates": [
          [
            [
              25505.0,
              28714.0
            ],
            [
              25505.0,
              30821.0
            ],
            [
              23871.0,
              30821.0
            ],
            [
              23871.0,
              28714.0
            ],
            [
              25505.0,
              28714.0
            ]
          ]
        ]
      },
      "properties": {
        "case_id": "2346175",
        "merged_id": 17
      }
    },
    {
      "type": "Feature",
      "geometry": {
        "type": "Polygon",
        "coordinates": [
          [
            [
              28117.0,
              30867.0
            ],
            [
              28117.0,
              31223.0
            ],
            [
              27506.0,
              31223.0
            ],
            [
              27506.0,
              30867.0
            ],
            [
              28117.0,
              30867.0
            ]
          ]
        ]
      },
      "properties": {
        "case_id": "2346175",
        "merged_id": 18
      }
    },
    {
      "type": "Feature",
      "geometry": {
        "type": "Polygon",
        "coordinates": [
          [
            [
              25766.0,
              27881.0
            ],
            [
              25766.0,
              29205.0
            ],
            [
              24389.0,
              29205.0
            ],
            [
              24389.0,
              27881.0
            ],
            [
              25766.0,
              27881.0
            ]
          ]
        ]
      },
      "properties": {
        "case_id": "2346175",
        "merged_id": 19
      }
    },
    {
      "type": "Feature",
      "geometry": {
        "type": "Polygon",
        "coordinates": [
          [
            [
              22042.0,
              25365.0
            ],
            [
              22042.0,
              26335.0
            ],
            [
              21239.0,
              26335.0
            ],
            [
              21239.0,
              25365.0
            ],
            [
              22042.0,
              25365.0
            ]
          ]
        ]
      },
      "properties": {
        "case_id": "2346175",
        "merged_id": 20
      }
    },
    {
      "type": "Feature",
      "geometry": {
        "type": "Polygon",
        "coordinates": [
          [
            [
              23880.0,
              20240.0
            ],
            [
              23880.0,
              20838.0
            ],
            [
              23195.0,
              20838.0
            ],
            [
              23195.0,
              20240.0
            ],
            [
              23880.0,
              20240.0
            ]
          ]
        ]
      },
      "properties": {
        "case_id": "2346175",
        "merged_id": 21
      }
    },
    {
      "type": "Feature",
      "geometry": {
        "type": "Polygon",
        "coordinates": [
          [
            [
              28667.0,
              17246.0
            ],
            [
              28667.0,
              18065.0
            ],
            [
              27995.0,
              18065.0
            ],
            [
              27995.0,
              17246.0
            ],
            [
              28667.0,
              17246.0
            ]
          ]
        ]
      },
      "properties": {
        "case_id": "2346175",
        "merged_id": 22
      }
    },
    {
      "type": "Feature",
      "geometry": {
        "type": "Polygon",
        "coordinates": [
          [
            [
              32463.0,
              22547.0
            ],
            [
              32463.0,
              22967.0
            ],
            [
              31880.0,
              22967.0
            ],
            [
              31880.0,
              22547.0
            ],
            [
              32463.0,
              22547.0
            ]
          ]
        ]
      },
      "properties": {
        "case_id": "2346175",
        "merged_id": 23
      }
    },
    {
      "type": "Feature",
      "geometry": {
        "type": "Polygon",
        "coordinates": [
          [
            [
              31497.0,
              18235.0
            ],
            [
              31497.0,
              19409.0
            ],
            [
              30882.0,
              19409.0
            ],
            [
              30882.0,
              18235.0
            ],
            [
              31497.0,
              18235.0
            ]
          ]
        ]
      },
      "properties": {
        "case_id": "2346175",
        "merged_id": 24
      }
    },
    {
      "type": "Feature",
      "geometry": {
        "type": "Polygon",
        "coordinates": [
          [
            [
              25247.0,
              20879.0
            ],
            [
              25247.0,
              21576.0
            ],
            [
              24771.0,
              21576.0
            ],
            [
              24771.0,
              20879.0
            ],
            [
              25247.0,
              20879.0
            ]
          ]
        ]
      },
      "properties": {
        "case_id": "2346175",
        "merged_id": 25
      }
    },
    {
      "type": "Feature",
      "geometry": {
        "type": "Polygon",
        "coordinates": [
          [
            [
              27816.0,
              23656.0
            ],
            [
              27816.0,
              23975.0
            ],
            [
              27428.0,
              23975.0
            ],
            [
              27428.0,
              23656.0
            ],
            [
              27816.0,
              23656.0
            ]
          ]
        ]
      },
      "properties": {
        "case_id": "2346175",
        "merged_id": 26
      }
    },
    {
      "type": "Feature",
      "geometry": {
        "type": "Polygon",
        "coordinates": [
          [
            [
              29487.0,
              28350.0
            ],
            [
              29487.0,
              29252.0
            ],
            [
              28868.0,
              29252.0
            ],
            [
              28868.0,
              28350.0
            ],
            [
              29487.0,
              28350.0
            ]
          ]
        ]
      },
      "properties": {
        "case_id": "2346175",
        "merged_id": 27
      }
    },
    {
      "type": "Feature",
      "geometry": {
        "type": "Polygon",
        "coordinates": [
          [
            [
              26678.0,
              29509.0
            ],
            [
              26678.0,
              30816.0
            ],
            [
              25646.0,
              30816.0
            ],
            [
              25646.0,
              29509.0
            ],
            [
              26678.0,
              29509.0
            ]
          ]
        ]
      },
      "properties": {
        "case_id": "2346175",
        "merged_id": 28
      }
    },
    {
      "type": "Feature",
      "geometry": {
        "type": "Polygon",
        "coordinates": [
          [
            [
              28910.0,
              26867.0
            ],
            [
              28910.0,
              32147.0
            ],
            [
              23577.0,
              32147.0
            ],
            [
              23577.0,
              26867.0
            ],
            [
              28910.0,
              26867.0
            ]
          ]
        ]
      },
      "properties": {
        "case_id": "2346175",
        "merged_id": 29
      }
    },
    {
      "type": "Feature",
      "geometry": {
        "type": "Polygon",
        "coordinates": [
          [
            [
              32334.0,
              24547.0
            ],
            [
              32334.0,
              29651.0
            ],
            [
              28421.0,
              29651.0
            ],
            [
              28421.0,
              24547.0
            ],
            [
              32334.0,
              24547.0
            ]
          ]
        ]
      },
      "properties": {
        "case_id": "2346175",
        "merged_id": 30
      }
    },
    {
      "type": "Feature",
      "geometry": {
        "type": "Polygon",
        "coordinates": [
          [
            [
              28494.0,
              20659.0
            ],
            [
              28494.0,
              26627.0
            ],
            [
              24814.0,
              26627.0
            ],
            [
              24814.0,
              20659.0
            ],
            [
              28494.0,
              20659.0
            ]
          ]
        ]
      },
      "properties": {
        "case_id": "2346175",
        "merged_id": 31
      }
    },
    {
      "type": "Feature",
      "geometry": {
        "type": "Polygon",
        "coordinates": [
          [
            [
              34359.0,
              18795.0
            ],
            [
              34359.0,
              20812.0
            ],
            [
              31898.0,
              20812.0
            ],
            [
              31898.0,
              18795.0
            ],
            [
              34359.0,
              18795.0
            ]
          ]
        ]
      },
      "properties": {
        "case_id": "2346175",
        "merged_id": 32
      }
    },
    {
      "type": "Feature",
      "geometry": {
        "type": "Polygon",
        "coordinates": [
          [
            [
              34606.0,
              18307.0
            ],
            [
              34606.0,
              24787.0
            ],
            [
              30286.0,
              24787.0
            ],
            [
              30286.0,
              18307.0
            ],
            [
              34606.0,
              18307.0
            ]
          ]
        ]
      },
      "properties": {
        "case_id": "2346175",
        "merged_id": 33
      }
    },
    {
      "type": "Feature",
      "geometry": {
        "type": "Polygon",
        "coordinates": [
          [
            [
              31966.0,
              15219.0
            ],
            [
              31966.0,
              19811.0
            ],
            [
              26366.0,
              19811.0
            ],
            [
              26366.0,
              15219.0
            ],
            [
              31966.0,
              15219.0
            ]
          ]
        ]
      },
      "properties": {
        "case_id": "2346175",
        "merged_id": 34
      }
    },
    {
      "type": "Feature",
      "geometry": {
        "type": "Polygon",
        "coordinates": [
          [
            [
              27924.0,
              15737.0
            ],
            [
              27924.0,
              18246.0
            ],
            [
              25883.0,
              18246.0
            ],
            [
              25883.0,
              15737.0
            ],
            [
              27924.0,
              15737.0
            ]
          ]
        ]
      },
      "properties": {
        "case_id": "2346175",
        "merged_id": 35
      }
    },
    {
      "type": "Feature",
      "geometry": {
        "type": "Polygon",
        "coordinates": [
          [
            [
              24578.0,
              24248.0
            ],
            [
              24578.0,
              27251.0
            ],
            [
              20158.0,
              27251.0
            ],
            [
              20158.0,
              24248.0
            ],
            [
              24578.0,
              24248.0
            ]
          ]
        ]
      },
      "properties": {
        "case_id": "2346175",
        "merged_id": 36
      }
    },
    {
      "type": "Feature",
      "geometry": {
        "type": "Polygon",
        "coordinates": [
          [
            [
              26382.0,
              17059.0
            ],
            [
              26382.0,
              22851.0
            ],
            [
              22846.0,
              22851.0
            ],
            [
              22846.0,
              17059.0
            ],
            [
              26382.0,
              17059.0
            ]
          ]
        ]
      },
      "properties": {
        "case_id": "2346175",
        "merged_id": 37
      }
    },
    {
      "type": "Feature",
      "geometry": {
        "type": "Polygon",
        "coordinates": [
          [
            [
              31835.0,
              23456.0
            ],
            [
              31835.0,
              23947.0
            ],
            [
              31172.0,
              23947.0
            ],
            [
              31172.0,
              23456.0
            ],
            [
              31835.0,
              23456.0
            ]
          ]
        ]
      },
      "properties": {
        "case_id": "2346175",
        "merged_id": 38
      }
    },
    {
      "type": "Feature",
      "geometry": {
        "type": "Polygon",
        "coordinates": [
          [
            [
              30348.0,
              28316.0
            ],
            [
              30348.0,
              28756.0
            ],
            [
              29771.0,
              28756.0
            ],
            [
              29771.0,
              28316.0
            ],
            [
              30348.0,
              28316.0
            ]
          ]
        ]
      },
      "properties": {
        "case_id": "2346175",
        "merged_id": 39
      }
    },
    {
      "type": "Feature",
      "geometry": {
        "type": "Polygon",
        "coordinates": [
          [
            [
              29260.0,
              27147.0
            ],
            [
              29260.0,
              28006.0
            ],
            [
              28477.0,
              28006.0
            ],
            [
              28477.0,
              27147.0
            ],
            [
              29260.0,
              27147.0
            ]
          ]
        ]
      },
      "properties": {
        "case_id": "2346175",
        "merged_id": 40
      }
    },
    {
      "type": "Feature",
      "geometry": {
        "type": "Polygon",
        "coordinates": [
          [
            [
              21664.0,
              24688.0
            ],
            [
              21664.0,
              25024.0
            ],
            [
              20976.0,
              25024.0
            ],
            [
              20976.0,
              24688.0
            ],
            [
              21664.0,
              24688.0
            ]
          ]
        ]
      },
      "properties": {
        "case_id": "2346175",
        "merged_id": 41
      }
    },
    {
      "type": "Feature",
      "geometry": {
        "type": "Polygon",
        "coordinates": [
          [
            [
              22368.0,
              25040.0
            ],
            [
              22368.0,
              25360.0
            ],
            [
              21600.0,
              25360.0
            ],
            [
              21600.0,
              25040.0
            ],
            [
              22368.0,
              25040.0
            ]
          ]
        ]
      },
      "properties": {
        "case_id": "2346175",
        "merged_id": 42
      }
    },
    {
      "type": "Feature",
      "geometry": {
        "type": "Polygon",
        "coordinates": [
          [
            [
              25408.0,
              20496.0
            ],
            [
              25408.0,
              21200.0
            ],
            [
              25040.0,
              21200.0
            ],
            [
              25040.0,
              20496.0
            ],
            [
              25408.0,
              20496.0
            ]
          ]
        ]
      },
      "properties": {
        "case_id": "2346175",
        "merged_id": 43
      }
    },
    {
      "type": "Feature",
      "geometry": {
        "type": "Polygon",
        "coordinates": [
          [
            [
              25120.0,
              21216.0
            ],
            [
              25120.0,
              21808.0
            ],
            [
              24816.0,
              21808.0
            ],
            [
              24816.0,
              21216.0
            ],
            [
              25120.0,
              21216.0
            ]
          ]
        ]
      },
      "properties": {
        "case_id": "2346175",
        "merged_id": 44
      }
    },
    {
      "type": "Feature",
      "geometry": {
        "type": "Polygon",
        "coordinates": [
          [
            [
              26515.0,
              19175.0
            ],
            [
              26515.0,
              19615.0
            ],
            [
              26234.0,
              19615.0
            ],
            [
              26234.0,
              19175.0
            ],
            [
              26515.0,
              19175.0
            ]
          ]
        ]
      },
      "properties": {
        "case_id": "2346175",
        "merged_id": 45
      }
    },
    {
      "type": "Feature",
      "geometry": {
        "type": "Polygon",
        "coordinates": [
          [
            [
              25721.0,
              20156.0
            ],
            [
              25721.0,
              20561.0
            ],
            [
              25346.0,
              20561.0
            ],
            [
              25346.0,
              20156.0
            ],
            [
              25721.0,
              20156.0
            ]
          ]
        ]
      },
      "properties": {
        "case_id": "2346175",
        "merged_id": 46
      }
    },
    {
      "type": "Feature",
      "geometry": {
        "type": "Polygon",
        "coordinates": [
          [
            [
              29352.0,
              18287.0
            ],
            [
              29352.0,
              18742.0
            ],
            [
              28897.0,
              18742.0
            ],
            [
              28897.0,
              18287.0
            ],
            [
              29352.0,
              18287.0
            ]
          ]
        ]
      },
      "properties": {
        "case_id": "2346175",
        "merged_id": 47
      }
    },
    {
      "type": "Feature",
      "geometry": {
        "type": "Polygon",
        "coordinates": [
          [
            [
              27547.0,
              17580.0
            ],
            [
              27547.0,
              18013.0
            ],
            [
              26977.0,
              18013.0
            ],
            [
              26977.0,
              17580.0
            ],
            [
              27547.0,
              17580.0
            ]
          ]
        ]
      },
      "properties": {
        "case_id": "2346175",
        "merged_id": 48
      }
    },
    {
      "type": "Feature",
      "geometry": {
        "type": "Polygon",
        "coordinates": [
          [
            [
              29723.0,
              18641.0
            ],
            [
              29723.0,
              18915.0
            ],
            [
              29405.0,
              18915.0
            ],
            [
              29405.0,
              18641.0
            ],
            [
              29723.0,
              18641.0
            ]
          ]
        ]
      },
      "properties": {
        "case_id": "2346175",
        "merged_id": 49
      }
    },
    {
      "type": "Feature",
      "geometry": {
        "type": "Polygon",
        "coordinates": [
          [
            [
              23446.0,
              25321.0
            ],
            [
              23446.0,
              25660.0
            ],
            [
              22984.0,
              25660.0
            ],
            [
              22984.0,
              25321.0
            ],
            [
              23446.0,
              25321.0
            ]
          ]
        ]
      },
      "properties": {
        "case_id": "2346175",
        "merged_id": 50
      }
    },
    {
      "type": "Feature",
      "geometry": {
        "type": "Polygon",
        "coordinates": [
          [
            [
              23915.0,
              25458.0
            ],
            [
              23915.0,
              25696.0
            ],
            [
              23540.0,
              25696.0
            ],
            [
              23540.0,
              25458.0
            ],
            [
              23915.0,
              25458.0
            ]
          ]
        ]
      },
      "properties": {
        "case_id": "2346175",
        "merged_id": 51
      }
    },
    {
      "type": "Feature",
      "geometry": {
        "type": "Polygon",
        "coordinates": [
          [
            [
              25611.0,
              27241.0
            ],
            [
              25611.0,
              28287.0
            ],
            [
              25149.0,
              28287.0
            ],
            [
              25149.0,
              27241.0
            ],
            [
              25611.0,
              27241.0
            ]
          ]
        ]
      },
      "properties": {
        "case_id": "2346175",
        "merged_id": 52
      }
    },
    {
      "type": "Feature",
      "geometry": {
        "type": "Polygon",
        "coordinates": [
          [
            [
              25640.0,
              28396.0
            ],
            [
              25640.0,
              29190.0
            ],
            [
              25272.0,
              29190.0
            ],
            [
              25272.0,
              28396.0
            ],
            [
              25640.0,
              28396.0
            ]
          ]
        ]
      },
      "properties": {
        "case_id": "2346175",
        "merged_id": 53
      }
    },
    {
      "type": "Feature",
      "geometry": {
        "type": "Polygon",
        "coordinates": [
          [
            [
              31047.0,
              20657.0
            ],
            [
              31047.0,
              21726.0
            ],
            [
              29935.0,
              21726.0
            ],
            [
              29935.0,
              20657.0
            ],
            [
              31047.0,
              20657.0
            ]
          ]
        ]
      },
      "properties": {
        "case_id": "2346175",
        "merged_id": 54
      }
    },
    {
      "type": "Feature",
      "geometry": {
        "type": "Polygon",
        "coordinates": [
          [
            [
              26973.0,
              30323.0
            ],
            [
              26973.0,
              32539.0
            ],
            [
              25399.0,
              32539.0
            ],
            [
              25399.0,
              30323.0
            ],
            [
              26973.0,
              30323.0
            ]
          ]
        ]
      },
      "properties": {
        "case_id": "2346175",
        "merged_id": 55
      }
    },
    {
      "type": "Feature",
      "geometry": {
        "type": "Polygon",
        "coordinates": [
          [
            [
              23033.0,
              19986.0
            ],
            [
              23033.0,
              20184.0
            ],
            [
              22900.0,
              20184.0
            ],
            [
              22900.0,
              19986.0
            ],
            [
              23033.0,
              19986.0
            ]
          ]
        ]
      },
      "properties": {
        "case_id": "2346175",
        "merged_id": 56
      }
    },
    {
      "type": "Feature",
      "geometry": {
        "type": "Polygon",
        "coordinates": [
          [
            [
              25140.0,
              16944.0
            ],
            [
              25140.0,
              17231.0
            ],
            [
              24896.0,
              17231.0
            ],
            [
              24896.0,
              16944.0
            ],
            [
              25140.0,
              16944.0
            ]
          ]
        ]
      },
      "properties": {
        "case_id": "2346175",
        "merged_id": 57
      }
    },
    {
      "type": "Feature",
      "geometry": {
        "type": "Polygon",
        "coordinates": [
          [
            [
              30933.0,
              16990.0
            ],
            [
              30933.0,
              17332.0
            ],
            [
              30575.0,
              17332.0
            ],
            [
              30575.0,
              16990.0
            ],
            [
              30933.0,
              16990.0
            ]
          ]
        ]
      },
      "properties": {
        "case_id": "2346175",
        "merged_id": 58
      }
    },
    {
      "type": "Feature",
      "geometry": {
        "type": "Polygon",
        "coordinates": [
          [
            [
              30750.0,
              16277.0
            ],
            [
              30750.0,
              16645.0
            ],
            [
              30549.0,
              16645.0
            ],
            [
              30549.0,
              16277.0
            ],
            [
              30750.0,
              16277.0
            ]
          ]
        ]
      },
      "properties": {
        "case_id": "2346175",
        "merged_id": 59
      }
    },
    {
      "type": "Feature",
      "geometry": {
        "type": "Polygon",
        "coordinates": [
          [
            [
              32053.0,
              18237.0
            ],
            [
              32053.0,
              18677.0
            ],
            [
              31760.0,
              18677.0
            ],
            [
              31760.0,
              18237.0
            ],
            [
              32053.0,
              18237.0
            ]
          ]
        ]
      },
      "properties": {
        "case_id": "2346175",
        "merged_id": 60
      }
    },
    {
      "type": "Feature",
      "geometry": {
        "type": "Polygon",
        "coordinates": [
          [
            [
              29720.0,
              29558.0
            ],
            [
              29720.0,
              29764.0
            ],
            [
              29460.0,
              29764.0
            ],
            [
              29460.0,
              29558.0
            ],
            [
              29720.0,
              29558.0
            ]
          ]
        ]
      },
      "properties": {
        "case_id": "2346175",
        "merged_id": 61
      }
    },
    {
      "type": "Feature",
      "geometry": {
        "type": "Polygon",
        "coordinates": [
          [
            [
              24577.0,
              31342.0
            ],
            [
              24577.0,
              31807.0
            ],
            [
              23450.0,
              31807.0
            ],
            [
              23450.0,
              31342.0
            ],
            [
              24577.0,
              31342.0
            ]
          ]
        ]
      },
      "properties": {
        "case_id": "2346175",
        "merged_id": 62
      }
    },
    {
      "type": "Feature",
      "geometry": {
        "type": "Polygon",
        "coordinates": [
          [
            [
              22291.0,
              26111.0
            ],
            [
              22291.0,
              26567.0
            ],
            [
              21486.0,
              26567.0
            ],
            [
              21486.0,
              26111.0
            ],
            [
              22291.0,
              26111.0
            ]
          ]
        ]
      },
      "properties": {
        "case_id": "2346175",
        "merged_id": 63
      }
    },
    {
      "type": "Feature",
      "geometry": {
        "type": "Polygon",
        "coordinates": [
          [
            [
              23071.0,
              26121.0
            ],
            [
              23071.0,
              27052.0
            ],
            [
              22742.0,
              27052.0
            ],
            [
              22742.0,
              26121.0
            ],
            [
              23071.0,
              26121.0
            ]
          ]
        ]
      },
      "properties": {
        "case_id": "2346175",
        "merged_id": 64
      }
    },
    {
      "type": "Feature",
      "geometry": {
        "type": "Polygon",
        "coordinates": [
          [
            [
              23740.0,
              26470.0
            ],
            [
              23740.0,
              26921.0
            ],
            [
              23474.0,
              26921.0
            ],
            [
              23474.0,
              26470.0
            ],
            [
              23740.0,
              26470.0
            ]
          ]
        ]
      },
      "properties": {
        "case_id": "2346175",
        "merged_id": 65
      }
    },
    {
      "type": "Feature",
      "geometry": {
        "type": "Polygon",
        "coordinates": [
          [
            [
              24375.0,
              26034.0
            ],
            [
              24375.0,
              26615.0
            ],
            [
              24050.0,
              26615.0
            ],
            [
              24050.0,
              26034.0
            ],
            [
              24375.0,
              26034.0
            ]
          ]
        ]
      },
      "properties": {
        "case_id": "2346175",
        "merged_id": 66
      }
    },
    {
      "type": "Feature",
      "geometry": {
        "type": "Polygon",
        "coordinates": [
          [
            [
              28471.0,
              31313.0
            ],
            [
              28471.0,
              31938.0
            ],
            [
              28204.0,
              31938.0
            ],
            [
              28204.0,
              31313.0
            ],
            [
              28471.0,
              31313.0
            ]
          ]
        ]
      },
      "properties": {
        "case_id": "2346175",
        "merged_id": 67
      }
    },
    {
      "type": "Feature",
      "geometry": {
        "type": "Polygon",
        "coordinates": [
          [
            [
              28243.0,
              30164.0
            ],
            [
              28243.0,
              30464.0
            ],
            [
              27933.0,
              30464.0
            ],
            [
              27933.0,
              30164.0
            ],
            [
              28243.0,
              30164.0
            ]
          ]
        ]
      },
      "properties": {
        "case_id": "2346175",
        "merged_id": 68
      }
    },
    {
      "type": "Feature",
      "geometry": {
        "type": "Polygon",
        "coordinates": [
          [
            [
              27933.0,
              29495.0
            ],
            [
              27933.0,
              30091.0
            ],
            [
              27370.0,
              30091.0
            ],
            [
              27370.0,
              29495.0
            ],
            [
              27933.0,
              29495.0
            ]
          ]
        ]
      },
      "properties": {
        "case_id": "2346175",
        "merged_id": 69
      }
    },
    {
      "type": "Feature",
      "geometry": {
        "type": "Polygon",
        "coordinates": [
          [
            [
              26076.0,
              29732.0
            ],
            [
              26076.0,
              30212.0
            ],
            [
              25688.0,
              30212.0
            ],
            [
              25688.0,
              29732.0
            ],
            [
              26076.0,
              29732.0
            ]
          ]
        ]
      },
      "properties": {
        "case_id": "2346175",
        "merged_id": 70
      }
    },
    {
      "type": "Feature",
      "geometry": {
        "type": "Polygon",
        "coordinates": [
          [
            [
              26486.0,
              26733.0
            ],
            [
              26486.0,
              27469.0
            ],
            [
              25829.0,
              27469.0
            ],
            [
              25829.0,
              26733.0
            ],
            [
              26486.0,
              26733.0
            ]
          ]
        ]
      },
      "properties": {
        "case_id": "2346175",
        "merged_id": 71
      }
    },
    {
      "type": "Feature",
      "geometry": {
        "type": "Polygon",
        "coordinates": [
          [
            [
              27865.0,
              23463.0
            ],
            [
              27865.0,
              24373.0
            ],
            [
              27490.0,
              24373.0
            ],
            [
              27490.0,
              23463.0
            ],
            [
              27865.0,
              23463.0
            ]
          ]
        ]
      },
      "properties": {
        "case_id": "2346175",
        "merged_id": 72
      }
    },
    {
      "type": "Feature",
      "geometry": {
        "type": "Polygon",
        "coordinates": [
          [
            [
              26602.0,
              24228.0
            ],
            [
              26602.0,
              24568.0
            ],
            [
              25808.0,
              24568.0
            ],
            [
              25808.0,
              24228.0
            ],
            [
              26602.0,
              24228.0
            ]
          ]
        ]
      },
      "properties": {
        "case_id": "2346175",
        "merged_id": 73
      }
    },
    {
      "type": "Feature",
      "geometry": {
        "type": "Polygon",
        "coordinates": [
          [
            [
              26515.0,
              25109.0
            ],
            [
              26515.0,
              25521.0
            ],
            [
              25967.0,
              25521.0
            ],
            [
              25967.0,
              25109.0
            ],
            [
              26515.0,
              25109.0
            ]
          ]
        ]
      },
      "properties": {
        "case_id": "2346175",
        "merged_id": 74
      }
    },
    {
      "type": "Feature",
      "geometry": {
        "type": "Polygon",
        "coordinates": [
          [
            [
              27244.0,
              24294.0
            ],
            [
              27244.0,
              24690.0
            ],
            [
              26732.0,
              24690.0
            ],
            [
              26732.0,
              24294.0
            ],
            [
              27244.0,
              24294.0
            ]
          ]
        ]
      },
      "properties": {
        "case_id": "2346175",
        "merged_id": 75
      }
    },
    {
      "type": "Feature",
      "geometry": {
        "type": "Polygon",
        "coordinates": [
          [
            [
              25461.0,
              24864.0
            ],
            [
              25461.0,
              25196.0
            ],
            [
              25165.0,
              25196.0
            ],
            [
              25165.0,
              24864.0
            ],
            [
              25461.0,
              24864.0
            ]
          ]
        ]
      },
      "properties": {
        "case_id": "2346175",
        "merged_id": 76
      }
    },
    {
      "type": "Feature",
      "geometry": {
        "type": "Polygon",
        "coordinates": [
          [
            [
              26977.0,
              23059.0
            ],
            [
              26977.0,
              23572.0
            ],
            [
              26392.0,
              23572.0
            ],
            [
              26392.0,
              23059.0
            ],
            [
              26977.0,
              23059.0
            ]
          ]
        ]
      },
      "properties": {
        "case_id": "2346175",
        "merged_id": 77
      }
    },
    {
      "type": "Feature",
      "geometry": {
        "type": "Polygon",
        "coordinates": [
          [
            [
              27266.0,
              21977.0
            ],
            [
              27266.0,
              22453.0
            ],
            [
              26898.0,
              22453.0
            ],
            [
              26898.0,
              21977.0
            ],
            [
              27266.0,
              21977.0
            ]
          ]
        ]
      },
      "properties": {
        "case_id": "2346175",
        "merged_id": 78
      }
    },
    {
      "type": "Feature",
      "geometry": {
        "type": "Polygon",
        "coordinates": [
          [
            [
              23722.0,
              21428.0
            ],
            [
              23722.0,
              21645.0
            ],
            [
              23144.0,
              21645.0
            ],
            [
              23144.0,
              21428.0
            ],
            [
              23722.0,
              21428.0
            ]
          ]
        ]
      },
      "properties": {
        "case_id": "2346175",
        "merged_id": 79
      }
    },
    {
      "type": "Feature",
      "geometry": {
        "type": "Polygon",
        "coordinates": [
          [
            [
              23736.0,
              21991.0
            ],
            [
              23736.0,
              22280.0
            ],
            [
              23253.0,
              22280.0
            ],
            [
              23253.0,
              21991.0
            ],
            [
              23736.0,
              21991.0
            ]
          ]
        ]
      },
      "properties": {
        "case_id": "2346175",
        "merged_id": 80
      }
    },
    {
      "type": "Feature",
      "geometry": {
        "type": "Polygon",
        "coordinates": [
          [
            [
              25656.0,
              16888.0
            ],
            [
              25656.0,
              17314.0
            ],
            [
              25374.0,
              17314.0
            ],
            [
              25374.0,
              16888.0
            ],
            [
              25656.0,
              16888.0
            ]
          ]
        ]
      },
      "properties": {
        "case_id": "2346175",
        "merged_id": 81
      }
    },
    {
      "type": "Feature",
      "geometry": {
        "type": "Polygon",
        "coordinates": [
          [
            [
              26443.0,
              16505.0
            ],
            [
              26443.0,
              16845.0
            ],
            [
              25945.0,
              16845.0
            ],
            [
              25945.0,
              16505.0
            ],
            [
              26443.0,
              16505.0
            ]
          ]
        ]
      },
      "properties": {
        "case_id": "2346175",
        "merged_id": 82
      }
    },
    {
      "type": "Feature",
      "geometry": {
        "type": "Polygon",
        "coordinates": [
          [
            [
              27266.0,
              16036.0
            ],
            [
              27266.0,
              16296.0
            ],
            [
              26494.0,
              16296.0
            ],
            [
              26494.0,
              16036.0
            ],
            [
              27266.0,
              16036.0
            ]
          ]
        ]
      },
      "properties": {
        "case_id": "2346175",
        "merged_id": 83
      }
    },
    {
      "type": "Feature",
      "geometry": {
        "type": "Polygon",
        "coordinates": [
          [
            [
              26833.0,
              17422.0
            ],
            [
              26833.0,
              17819.0
            ],
            [
              26176.0,
              17819.0
            ],
            [
              26176.0,
              17422.0
            ],
            [
              26833.0,
              17422.0
            ]
          ]
        ]
      },
      "properties": {
        "case_id": "2346175",
        "merged_id": 84
      }
    },
    {
      "type": "Feature",
      "geometry": {
        "type": "Polygon",
        "coordinates": [
          [
            [
              30723.0,
              17458.0
            ],
            [
              30723.0,
              18353.0
            ],
            [
              29778.0,
              18353.0
            ],
            [
              29778.0,
              17458.0
            ],
            [
              30723.0,
              17458.0
            ]
          ]
        ]
      },
      "properties": {
        "case_id": "2346175",
        "merged_id": 85
      }
    },
    {
      "type": "Feature",
      "geometry": {
        "type": "Polygon",
        "coordinates": [
          [
            [
              30579.0,
              22648.0
            ],
            [
              30579.0,
              23225.0
            ],
            [
              30225.0,
              23225.0
            ],
            [
              30225.0,
              22648.0
            ],
            [
              30579.0,
              22648.0
            ]
          ]
        ]
      },
      "properties": {
        "case_id": "2346175",
        "merged_id": 86
      }
    },
    {
      "type": "Feature",
      "geometry": {
        "type": "Polygon",
        "coordinates": [
          [
            [
              31972.0,
              20937.0
            ],
            [
              31972.0,
              21276.0
            ],
            [
              31726.0,
              21276.0
            ],
            [
              31726.0,
              20937.0
            ],
            [
              31972.0,
              20937.0
            ]
          ]
        ]
      },
      "properties": {
        "case_id": "2346175",
        "merged_id": 87
      }
    },
    {
      "type": "Feature",
      "geometry": {
        "type": "Polygon",
        "coordinates": [
          [
            [
              33076.0,
              22265.0
            ],
            [
              33076.0,
              22669.0
            ],
            [
              32585.0,
              22669.0
            ],
            [
              32585.0,
              22265.0
            ],
            [
              33076.0,
              22265.0
            ]
          ]
        ]
      },
      "properties": {
        "case_id": "2346175",
        "merged_id": 88
      }
    },
    {
      "type": "Feature",
      "geometry": {
        "type": "Polygon",
        "coordinates": [
          [
            [
              33466.0,
              20699.0
            ],
            [
              33466.0,
              21089.0
            ],
            [
              33141.0,
              21089.0
            ],
            [
              33141.0,
              20699.0
            ],
            [
              33466.0,
              20699.0
            ]
          ]
        ]
      },
      "properties": {
        "case_id": "2346175",
        "merged_id": 89
      }
    },
    {
      "type": "Feature",
      "geometry": {
        "type": "Polygon",
        "coordinates": [
          [
            [
              33632.0,
              21450.0
            ],
            [
              33632.0,
              22063.0
            ],
            [
              33047.0,
              22063.0
            ],
            [
              33047.0,
              21450.0
            ],
            [
              33632.0,
              21450.0
            ]
          ]
        ]
      },
      "properties": {
        "case_id": "2346175",
        "merged_id": 90
      }
    },
    {
      "type": "Feature",
      "geometry": {
        "type": "Polygon",
        "coordinates": [
          [
            [
              31337.0,
              26956.0
            ],
            [
              31337.0,
              27476.0
            ],
            [
              30774.0,
              27476.0
            ],
            [
              30774.0,
              26956.0
            ],
            [
              31337.0,
              26956.0
            ]
          ]
        ]
      },
      "properties": {
        "case_id": "2346175",
        "merged_id": 91
      }
    },
    {
      "type": "Feature",
      "geometry": {
        "type": "Polygon",
        "coordinates": [
          [
            [
              30954.0,
              27599.0
            ],
            [
              30954.0,
              28054.0
            ],
            [
              30521.0,
              28054.0
            ],
            [
              30521.0,
              27599.0
            ],
            [
              30954.0,
              27599.0
            ]
          ]
        ]
      },
      "properties": {
        "case_id": "2346175",
        "merged_id": 92
      }
    },
    {
      "type": "Feature",
      "geometry": {
        "type": "Polygon",
        "coordinates": [
          [
            [
              30572.0,
              28018.0
            ],
            [
              30572.0,
              28530.0
            ],
            [
              30283.0,
              28530.0
            ],
            [
              30283.0,
              28018.0
            ],
            [
              30572.0,
              28018.0
            ]
          ]
        ]
      },
      "properties": {
        "case_id": "2346175",
        "merged_id": 93
      }
    },
    {
      "type": "Feature",
      "geometry": {
        "type": "Polygon",
        "coordinates": [
          [
            [
              30759.0,
              26906.0
            ],
            [
              30759.0,
              27383.0
            ],
            [
              30478.0,
              27383.0
            ],
            [
              30478.0,
              26906.0
            ],
            [
              30759.0,
              26906.0
            ]
          ]
        ]
      },
      "properties": {
        "case_id": "2346175",
        "merged_id": 94
      }
    },
    {
      "type": "Feature",
      "geometry": {
        "type": "Polygon",
        "coordinates": [
          [
            [
              31625.0,
              25513.0
            ],
            [
              31625.0,
              25968.0
            ],
            [
              31127.0,
              25968.0
            ],
            [
              31127.0,
              25513.0
            ],
            [
              31625.0,
              25513.0
            ]
          ]
        ]
      },
      "properties": {
        "case_id": "2346175",
        "merged_id": 95
      }
    },
    {
      "type": "Feature",
      "geometry": {
        "type": "Polygon",
        "coordinates": [
          [
            [
              30882.0,
              25008.0
            ],
            [
              30882.0,
              25326.0
            ],
            [
              30536.0,
              25326.0
            ],
            [
              30536.0,
              25008.0
            ],
            [
              30882.0,
              25008.0
            ]
          ]
        ]
      },
      "properties": {
        "case_id": "2346175",
        "merged_id": 96
      }
    },
    {
      "type": "Feature",
      "geometry": {
        "type": "Polygon",
        "coordinates": [
          [
            [
              26753.0,
              27888.0
            ],
            [
              26753.0,
              28292.0
            ],
            [
              26414.0,
              28292.0
            ],
            [
              26414.0,
              27888.0
            ],
            [
              26753.0,
              27888.0
            ]
          ]
        ]
      },
      "properties": {
        "case_id": "2346175",
        "merged_id": 97
      }
    }
  ]
}