{
  "type": "FeatureCollection",
  "features": [
    {
      "type": "Feature",
      "geometry": {
        "type": "Polygon",
        "coordinates": [
          [
            [
              8663.0,
              4156.0
            ],
            [
              8663.0,
              4929.0
            ],
            [
              7917.0,
              4929.0
            ],
            [
              7917.0,
              4156.0
            ],
            [
              8663.0,
              4156.0
            ]
          ]
        ]
      },
      "properties": {
        "case_id": "2356047",
        "merged_id": 0
      }
    },
    {
      "type": "Feature",
      "geometry": {
        "type": "Polygon",
        "coordinates": [
          [
            [
              5966.0,
              3156.0
            ],
            [
              5966.0,
              3517.0
            ],
            [
              5366.0,
              3517.0
            ],
            [
              5366.0,
              3156.0
            ],
            [
              5966.0,
              3156.0
            ]
          ]
        ]
      },
      "properties": {
        "case_id": "2356047",
        "merged_id": 1
      }
    },
    {
      "type": "Feature",
      "geometry": {
        "type": "Polygon",
        "coordinates": [
          [
            [
              7196.0,
              3279.0
            ],
            [
              7196.0,
              3572.0
            ],
            [
              6519.0,
              3572.0
            ],
            [
              6519.0,
              3279.0
            ],
            [
              7196.0,
              3279.0
            ]
          ]
        ]
      },
      "properties": {
        "case_id": "2356047",
        "merged_id": 2
      }
    },
    {
      "type": "Feature",
      "geometry": {
        "type": "Polygon",
        "coordinates": [
          [
            [
              8716.0,
              8203.0
            ],
            [
              8716.0,
              8669.0
            ],
            [
              7745.0,
              8669.0
            ],
            [
              7745.0,
              8203.0
            ],
            [
              8716.0,
              8203.0
            ]
          ]
        ]
      },
      "properties": {
        "case_id": "2356047",
        "merged_id": 3
      }
    },
    {
      "type": "Feature",
      "geometry": {
        "type": "Polygon",
        "coordinates": [
          [
            [
              6956.0,
              7570.0
            ],
            [
              6956.0,
              8231.0
            ],
            [
              6614.0,
              8231.0
            ],
            [
              6614.0,
              7570.0
            ],
            [
              6956.0,
              7570.0
            ]
          ]
        ]
      },
      "properties": {
        "case_id": "2356047",
        "merged_id": 4
      }
    },
    {
      "type": "Feature",
      "geometry": {
        "type": "Polygon",
        "coordinates": [
          [
            [
              16722.0,
              6507.0
            ],
            [
              16722.0,
              7835.0
            ],
            [
              16275.0,
              7835.0
            ],
            [
              16275.0,
              6507.0
            ],
            [
              16722.0,
              6507.0
            ]
          ]
        ]
      },
      "properties": {
        "case_id": "2356047",
        "merged_id": 5
      }
    },
    {
      "type": "Feature",
      "geometry": {
        "type": "Polygon",
        "coordinates": [
          [
            [
              12897.0,
              7158.0
            ],
            [
              12897.0,
              7528.0
            ],
            [
              12444.0,
              7528.0
            ],
            [
              12444.0,
              7158.0
            ],
            [
              12897.0,
              7158.0
            ]
          ]
        ]
      },
      "properties": {
        "case_id": "2356047",
        "merged_id": 6
      }
    },
    {
      "type": "Feature",
      "geometry": {
        "type": "Polygon",
        "coordinates": [
          [
            [
              13994.0,
              7267.0
            ],
            [
              13994.0,
              7512.0
            ],
            [
              13592.0,
              7512.0
            ],
            [
              13592.0,
              7267.0
            ],
            [
              13994.0,
              7267.0
            ]
          ]
        ]
      },
      "properties": {
        "case_id": "2356047",
        "merged_id": 7
      }
    },
    {
      "type": "Feature",
      "geometry": {
        "type": "Polygon",
        "coordinates": [
          [
            [
              7708.0,
              8892.0
            ],
            [
              7708.0,
              9374.0
            ],
            [
              6876.0,
              9374.0
            ],
            [
              6876.0,
              8892.0
            ],
            [
              7708.0,
              8892.0
            ]
          ]
        ]
      },
      "properties": {
        "case_id": "2356047",
        "merged_id": 8
      }
    },
    {
      "type": "Feature",
      "geometry": {
        "type": "Polygon",
        "coordinates": [
          [
            [
              11884.0,
              6069.0
            ],
            [
              11884.0,
              6587.0
            ],
            [
              11380.0,
              6587.0
            ],
            [
              11380.0,
              6069.0
            ],
            [
              11884.0,
              6069.0
            ]
          ]
        ]
      },
      "properties": {
        "case_id": "2356047",
        "merged_id": 9
      }
    },
    {
      "type": "Feature",
      "geometry": {
        "type": "Polygon",
        "coordinates": [
          [
            [
              6519.0,
              14434.0
            ],
            [
              6519.0,
              14938.0
            ],
            [
              5614.0,
              14938.0
            ],
            [
              5614.0,
              14434.0
            ],
            [
              6519.0,
              14434.0
            ]
          ]
        ]
      },
      "properties": {
        "case_id": "2356047",
        "merged_id": 10
      }
    },
    {
      "type": "Feature",
      "geometry": {
        "type": "Polygon",
        "coordinates": [
          [
            [
              11296.0,
              8034.0
            ],
            [
              11296.0,
              8697.0
            ],
            [
              10199.0,
              8697.0
            ],
            [
              10199.0,
              8034.0
            ],
            [
              11296.0,
              8034.0
            ]
          ]
        ]
      },
      "properties": {
        "case_id": "2356047",
        "merged_id": 11
      }
    },
    {
      "type": "Feature",
      "geometry": {
        "type": "Polygon",
        "coordinates": [
          [
            [
              12295.0,
              7634.0
            ],
            [
              12295.0,
              8395.0
            ],
            [
              11410.0,
              8395.0
            ],
            [
              11410.0,
              7634.0
            ],
            [
              12295.0,
              7634.0
            ]
          ]
        ]
      },
      "properties": {
        "case_id": "2356047",
        "merged_id": 12
      }
    },
    {
      "type": "Feature",
      "geometry": {
        "type": "Polygon",
        "coordinates": [
          [
            [
              15670.0,
              7743.0
            ],
            [
              15670.0,
              8242.0
            ],
            [
              14676.0,
              8242.0
            ],
            [
              14676.0,
              7743.0
            ],
            [
              15670.0,
              7743.0
            ]
          ]
        ]
      },
      "properties": {
        "case_id": "2356047",
        "merged_id": 13
      }
    },
    {
      "type": "Feature",
      "geometry": {
        "type": "Polygon",
        "coordinates": [
          [
            [
              12714.0,
              6735.0
            ],
            [
              12714.0,
              7647.0
            ],
            [
              11500.0,
              7647.0
            ],
            [
              11500.0,
              6735.0
            ],
            [
              12714.0,
              6735.0
            ]
          ]
        ]
      },
      "properties": {
        "case_id": "2356047",
        "merged_id": 14
      }
    },
    {
      "type": "Feature",
      "geometry": {
        "type": "Polygon",
        "coordinates": [
          [
            [
              14310.0,
              8051.0
            ],
            [
              14310.0,
              9149.0
            ],
            [
              13262.0,
              9149.0
            ],
            [
              13262.0,
              8051.0
            ],
            [
              14310.0,
              8051.0
            ]
          ]
        ]
      },
      "properties": {
        "case_id": "2356047",
        "merged_id": 15
      }
    },
    {
      "type": "Feature",
      "geometry": {
        "type": "Polygon",
        "coordinates": [
          [
            [
              10319.0,
              11801.0
            ],
            [
              10319.0,
              12376.0
            ],
            [
              9523.0,
              12376.0
            ],
            [
              9523.0,
              11801.0
            ],
            [
              10319.0,
              11801.0
            ]
          ]
        ]
      },
      "properties": {
        "case_id": "2356047",
        "merged_id": 16
      }
    },
    {
      "type": "Feature",
      "geometry": {
        "type": "Polygon",
        "coordinates": [
          [
            [
              6754.0,
              7810.0
            ],
            [
              6754.0,
              9604.0
            ],
            [
              4860.0,
              9604.0
            ],
            [
              4860.0,
              7810.0
            ],
            [
              6754.0,
              7810.0
            ]
          ]
        ]
      },
      "properties": {
        "case_id": "2356047",
        "merged_id": 17
      }
    },
    {
      "type": "Feature",
      "geometry": {
        "type": "Polygon",
        "coordinates": [
          [
            [
              11003.0,
              6610.0
            ],
            [
              11003.0,
              7714.0
            ],
            [
              10148.0,
              7714.0
            ],
            [
              10148.0,
              6610.0
            ],
            [
              11003.0,
              6610.0
            ]
          ]
        ]
      },
      "properties": {
        "case_id": "2356047",
        "merged_id": 18
      }
    },
    {
      "type": "Feature",
      "geometry": {
        "type": "Polygon",
        "coordinates": [
          [
            [
              15053.0,
              6599.0
            ],
            [
              15053.0,
              7323.0
            ],
            [
              14108.0,
              7323.0
            ],
            [
              14108.0,
              6599.0
            ],
            [
              15053.0,
              6599.0
            ]
          ]
        ]
      },
      "properties": {
        "case_id": "2356047",
        "merged_id": 19
      }
    },
    {
      "type": "Feature",
      "geometry": {
        "type": "Polygon",
        "coordinates": [
          [
            [
              6391.0,
              3824.0
            ],
            [
              6391.0,
              4549.0
            ],
            [
              5570.0,
              4549.0
            ],
            [
              5570.0,
              3824.0
            ],
            [
              6391.0,
              3824.0
            ]
          ]
        ]
      },
      "properties": {
        "case_id": "2356047",
        "merged_id": 20
      }
    },
    {
      "type": "Feature",
      "geometry": {
        "type": "Polygon",
        "coordinates": [
          [
            [
              7920.0,
              4257.0
            ],
            [
              7920.0,
              5059.0
            ],
            [
              7374.0,
              5059.0
            ],
            [
              7374.0,
              4257.0
            ],
            [
              7920.0,
              4257.0
            ]
          ]
        ]
      },
      "properties": {
        "case_id": "2356047",
        "merged_id": 21
      }
    },
    {
      "type": "Feature",
      "geometry": {
        "type": "Polygon",
        "coordinates": [
          [
            [
              16617.0,
              5718.0
            ],
            [
              16617.0,
              8938.0
            ],
            [
              9664.0,
              8938.0
            ],
            [
              9664.0,
              5718.0
            ],
            [
              16617.0,
              5718.0
            ]
          ]
        ]
      },
      "properties": {
        "case_id": "2356047",
        "merged_id": 22
      }
    },
    {
      "type": "Feature",
      "geometry": {
        "type": "Polygon",
        "coordinates": [
          [
            [
              8823.0,
              7093.0
            ],
            [
              8823.0,
              9908.0
            ],
            [
              4756.0,
              9908.0
            ],
            [
              4756.0,
              7093.0
            ],
            [
              8823.0,
              7093.0
            ]
          ]
        ]
      },
      "properties": {
        "case_id": "2356047",
        "merged_id": 23
      }
    },
    {
      "type": "Feature",
      "geometry": {
        "type": "Polygon",
        "coordinates": [
          [
            [
              7156.0,
              13570.0
            ],
            [
              7156.0,
              15929.0
            ],
            [
              5453.0,
              15929.0
            ],
            [
              5453.0,
              13570.0
            ],
            [
              7156.0,
              13570.0
            ]
          ]
        ]
      },
      "properties": {
        "case_id": "2356047",
        "merged_id": 24
      }
    },
    {
      "type": "Feature",
      "geometry": {
        "type": "Polygon",
        "coordinates": [
          [
            [
              6699.0,
              15606.0
            ],
            [
              6699.0,
              15866.0
            ],
            [
              6211.0,
              15866.0
            ],
            [
              6211.0,
              15606.0
            ],
            [
              6699.0,
              15606.0
            ]
          ]
        ]
      },
      "properties": {
        "case_id": "2356047",
        "merged_id": 25
      }
    },
    {
      "type": "Feature",
      "geometry": {
        "type": "Polygon",
        "coordinates": [
          [
            [
              38431.0,
              9298.0
            ],
            [
              38431.0,
              9637.0
            ],
            [
              37748.0,
              9637.0
            ],
            [
              37748.0,
              9298.0
            ],
            [
              38431.0,
              9298.0
            ]
          ]
        ]
      },
      "properties": {
        "case_id": "2356047",
        "merged_id": 26
      }
    },
    {
      "type": "Feature",
      "geometry": {
        "type": "Polygon",
        "coordinates": [
          [
            [
              36510.0,
              7399.0
            ],
            [
              36510.0,
              7970.0
            ],
            [
              34734.0,
              7970.0
            ],
            [
              34734.0,
              7399.0
            ],
            [
              36510.0,
              7399.0
            ]
          ]
        ]
      },
      "properties": {
        "case_id": "2356047",
        "merged_id": 27
      }
    },
    {
      "type": "Feature",
      "geometry": {
        "type": "Polygon",
        "coordinates": [
          [
            [
              37203.0,
              6743.0
            ],
            [
              37203.0,
              7233.0
            ],
            [
              35976.0,
              7233.0
            ],
            [
              35976.0,
              6743.0
            ],
            [
              37203.0,
              6743.0
            ]
          ]
        ]
      },
      "properties": {
        "case_id": "2356047",
        "merged_id": 28
      }
    },
    {
      "type": "Feature",
      "geometry": {
        "type": "Polygon",
        "coordinates": [
          [
            [
              38704.0,
              8020.0
            ],
            [
              38704.0,
              8648.0
            ],
            [
              37780.0,
              8648.0
            ],
            [
              37780.0,
              8020.0
            ],
            [
              38704.0,
              8020.0
            ]
          ]
        ]
      },
      "properties": {
        "case_id": "2356047",
        "merged_id": 29
      }
    },
    {
      "type": "Feature",
      "geometry": {
        "type": "Polygon",
        "coordinates": [
          [
            [
              39808.0,
              7421.0
            ],
            [
              39808.0,
              7977.0
            ],
            [
              38697.0,
              7977.0
            ],
            [
              38697.0,
              7421.0
            ],
            [
              39808.0,
              7421.0
            ]
          ]
        ]
      },
      "properties": {
        "case_id": "2356047",
        "merged_id": 30
      }
    },
    {
      "type": "Feature",
      "geometry": {
        "type": "Polygon",
        "coordinates": [
          [
            [
              41187.0,
              6057.0
            ],
            [
              41187.0,
              7508.0
            ],
            [
              40321.0,
              7508.0
            ],
            [
              40321.0,
              6057.0
            ],
            [
              41187.0,
              6057.0
            ]
          ]
        ]
      },
      "properties": {
        "case_id": "2356047",
        "merged_id": 31
      }
    },
    {
      "type": "Feature",
      "geometry": {
        "type": "Polygon",
        "coordinates": [
          [
            [
              39101.0,
              5602.0
            ],
            [
              39101.0,
              6620.0
            ],
            [
              38617.0,
              6620.0
            ],
            [
              38617.0,
              5602.0
            ],
            [
              39101.0,
              5602.0
            ]
          ]
        ]
      },
      "properties": {
        "case_id": "2356047",
        "merged_id": 32
      }
    },
    {
      "type": "Feature",
      "geometry": {
        "type": "Polygon",
        "coordinates": [
          [
            [
              37181.0,
              6252.0
            ],
            [
              37181.0,
              6707.0
            ],
            [
              36777.0,
              6707.0
            ],
            [
              36777.0,
              6252.0
            ],
            [
              37181.0,
              6252.0
            ]
          ]
        ]
      },
      "properties": {
        "case_id": "2356047",
        "merged_id": 33
      }
    },
    {
      "type": "Feature",
      "geometry": {
        "type": "Polygon",
        "coordinates": [
          [
            [
              35348.0,
              6411.0
            ],
            [
              35348.0,
              7298.0
            ],
            [
              34662.0,
              7298.0
            ],
            [
              34662.0,
              6411.0
            ],
            [
              35348.0,
              6411.0
            ]
          ]
        ]
      },
      "properties": {
        "case_id": "2356047",
        "merged_id": 34
      }
    },
    {
      "type": "Feature",
      "geometry": {
        "type": "Polygon",
        "coordinates": [
          [
            [
              40278.0,
              7342.0
            ],
            [
              40278.0,
              7782.0
            ],
            [
              39881.0,
              7782.0
            ],
            [
              39881.0,
              7342.0
            ],
            [
              40278.0,
              7342.0
            ]
          ]
        ]
      },
      "properties": {
        "case_id": "2356047",
        "merged_id": 35
      }
    },
    {
      "type": "Feature",
      "geometry": {
        "type": "Polygon",
        "coordinates": [
          [
            [
              37809.0,
              7399.0
            ],
            [
              37809.0,
              7977.0
            ],
            [
              37513.0,
              7977.0
            ],
            [
              37513.0,
              7399.0
            ],
            [
              37809.0,
              7399.0
            ]
          ]
        ]
      },
      "properties": {
        "case_id": "2356047",
        "merged_id": 36
      }
    },
    {
      "type": "Feature",
      "geometry": {
        "type": "Polygon",
        "coordinates": [
          [
            [
              41234.0,
              5274.0
            ],
            [
              41234.0,
              9056.0
            ],
            [
              34335.0,
              9056.0
            ],
            [
              34335.0,
              5274.0
            ],
            [
              41234.0,
              5274.0
            ]
          ]
        ]
      },
      "properties": {
        "case_id": "2356047",
        "merged_id": 37
      }
    },
    {
      "type": "Feature",
      "geometry": {
        "type": "Polygon",
        "coordinates": [
          [
            [
              30510.0,
              12481.0
            ],
            [
              30510.0,
              13218.0
            ],
            [
              30171.0,
              13218.0
            ],
            [
              30171.0,
              12481.0
            ],
            [
              30510.0,
              12481.0
            ]
          ]
        ]
      },
      "properties": {
        "case_id": "2356047",
        "merged_id": 38
      }
    },
    {
      "type": "Feature",
      "geometry": {
        "type": "Polygon",
        "coordinates": [
          [
            [
              30099.0,
              13564.0
            ],
            [
              30099.0,
              14647.0
            ],
            [
              29731.0,
              14647.0
            ],
            [
              29731.0,
              13564.0
            ],
            [
              30099.0,
              13564.0
            ]
          ]
        ]
      },
      "properties": {
        "case_id": "2356047",
        "merged_id": 39
      }
    },
    {
      "type": "Feature",
      "geometry": {
        "type": "Polygon",
        "coordinates": [
          [
            [
              30821.0,
              13283.0
            ],
            [
              30821.0,
              14307.0
            ],
            [
              30474.0,
              14307.0
            ],
            [
              30474.0,
              13283.0
            ],
            [
              30821.0,
              13283.0
            ]
          ]
        ]
      },
      "properties": {
        "case_id": "2356047",
        "merged_id": 40
      }
    },
    {
      "type": "Feature",
      "geometry": {
        "type": "Polygon",
        "coordinates": [
          [
            [
              30951.0,
              14409.0
            ],
            [
              30951.0,
              15282.0
            ],
            [
              30626.0,
              15282.0
            ],
            [
              30626.0,
              14409.0
            ],
            [
              30951.0,
              14409.0
            ]
          ]
        ]
      },
      "properties": {
        "case_id": "2356047",
        "merged_id": 41
      }
    },
    {
      "type": "Feature",
      "geometry": {
        "type": "Polygon",
        "coordinates": [
          [
            [
              30431.0,
              13860.0
            ],
            [
              30431.0,
              14322.0
            ],
            [
              30178.0,
              14322.0
            ],
            [
              30178.0,
              13860.0
            ],
            [
              30431.0,
              13860.0
            ]
          ]
        ]
      },
      "properties": {
        "case_id": "2356047",
        "merged_id": 42
      }
    },
    {
      "type": "Feature",
      "geometry": {
        "type": "Polygon",
        "coordinates": [
          [
            [
              31232.0,
              12438.0
            ],
            [
              31232.0,
              16011.0
            ],
            [
              29659.0,
              16011.0
            ],
            [
              29659.0,
              12438.0
            ],
            [
              31232.0,
              12438.0
            ]
          ]
        ]
      },
      "properties": {
        "case_id": "2356047",
        "merged_id": 43
      }
    },
    {
      "type": "Feature",
      "geometry": {
        "type": "Polygon",
        "coordinates": [
          [
            [
              30307.0,
              9101.0
            ],
            [
              30307.0,
              10027.0
            ],
            [
              29411.0,
              10027.0
            ],
            [
              29411.0,
              9101.0
            ],
            [
              30307.0,
              9101.0
            ]
          ]
        ]
      },
      "properties": {
        "case_id": "2356047",
        "merged_id": 44
      }
    },
    {
      "type": "Feature",
      "geometry": {
        "type": "Polygon",
        "coordinates": [
          [
            [
              29343.0,
              9721.0
            ],
            [
              29343.0,
              10250.0
            ],
            [
              28509.0,
              10250.0
            ],
            [
              28509.0,
              9721.0
            ],
            [
              29343.0,
              9721.0
            ]
          ]
        ]
      },
      "properties": {
        "case_id": "2356047",
        "merged_id": 45
      }
    },
    {
      "type": "Feature",
      "geometry": {
        "type": "Polygon",
        "coordinates": [
          [
            [
              32210.0,
              8354.0
            ],
            [
              32210.0,
              8982.0
            ],
            [
              31214.0,
              8982.0
            ],
            [
              31214.0,
              8354.0
            ],
            [
              32210.0,
              8354.0
            ]
          ]
        ]
      },
      "properties": {
        "case_id": "2356047",
        "merged_id": 46
      }
    },
    {
      "type": "Feature",
      "geometry": {
        "type": "Polygon",
        "coordinates": [
          [
            [
              30037.0,
              7026.0
            ],
            [
              30037.0,
              7337.0
            ],
            [
              29272.0,
              7337.0
            ],
            [
              29272.0,
              7026.0
            ],
            [
              30037.0,
              7026.0
            ]
          ]
        ]
      },
      "properties": {
        "case_id": "2356047",
        "merged_id": 47
      }
    },
    {
      "type": "Feature",
      "geometry": {
        "type": "Polygon",
        "coordinates": [
          [
            [
              30261.0,
              7467.0
            ],
            [
              30261.0,
              7777.0
            ],
            [
              29914.0,
              7777.0
            ],
            [
              29914.0,
              7467.0
            ],
            [
              30261.0,
              7467.0
            ]
          ]
        ]
      },
      "properties": {
        "case_id": "2356047",
        "merged_id": 48
      }
    },
    {
      "type": "Feature",
      "geometry": {
        "type": "Polygon",
        "coordinates": [
          [
            [
              30882.0,
              7892.0
            ],
            [
              30882.0,
              8232.0
            ],
            [
              30564.0,
              8232.0
            ],
            [
              30564.0,
              7892.0
            ],
            [
              30882.0,
              7892.0
            ]
          ]
        ]
      },
      "properties": {
        "case_id": "2356047",
        "merged_id": 49
      }
    },
    {
      "type": "Feature",
      "geometry": {
        "type": "Polygon",
        "coordinates": [
          [
            [
              30838.0,
              6312.0
            ],
            [
              30838.0,
              6788.0
            ],
            [
              30283.0,
              6788.0
            ],
            [
              30283.0,
              6312.0
            ],
            [
              30838.0,
              6312.0
            ]
          ]
        ]
      },
      "properties": {
        "case_id": "2356047",
        "merged_id": 50
      }
    },
    {
      "type": "Feature",
      "geometry": {
        "type": "Polygon",
        "coordinates": [
          [
            [
              31199.0,
              7452.0
            ],
            [
              31199.0,
              7813.0
            ],
            [
              30781.0,
              7813.0
            ],
            [
              30781.0,
              7452.0
            ],
            [
              31199.0,
              7452.0
            ]
          ]
        ]
      },
      "properties": {
        "case_id": "2356047",
        "merged_id": 51
      }
    },
    {
      "type": "Feature",
      "geometry": {
        "type": "Polygon",
        "coordinates": [
          [
            [
              30261.0,
              6701.0
            ],
            [
              30261.0,
              6954.0
            ],
            [
              29886.0,
              6954.0
            ],
            [
              29886.0,
              6701.0
            ],
            [
              30261.0,
              6701.0
            ]
          ]
        ]
      },
      "properties": {
        "case_id": "2356047",
        "merged_id": 52
      }
    },
    {
      "type": "Feature",
      "geometry": {
        "type": "Polygon",
        "coordinates": [
          [
            [
              31625.0,
              6571.0
            ],
            [
              31625.0,
              6882.0
            ],
            [
              31163.0,
              6882.0
            ],
            [
              31163.0,
              6571.0
            ],
            [
              31625.0,
              6571.0
            ]
          ]
        ]
      },
      "properties": {
        "case_id": "2356047",
        "merged_id": 53
      }
    },
    {
      "type": "Feature",
      "geometry": {
        "type": "Polygon",
        "coordinates": [
          [
            [
              32917.0,
              7993.0
            ],
            [
              32917.0,
              8679.0
            ],
            [
              32498.0,
              8679.0
            ],
            [
              32498.0,
              7993.0
            ],
            [
              32917.0,
              7993.0
            ]
          ]
        ]
      },
      "properties": {
        "case_id": "2356047",
        "merged_id": 54
      }
    },
    {
      "type": "Feature",
      "geometry": {
        "type": "Polygon",
        "coordinates": [
          [
            [
              30934.0,
              3719.0
            ],
            [
              30934.0,
              3932.0
            ],
            [
              30347.0,
              3932.0
            ],
            [
              30347.0,
              3719.0
            ],
            [
              30934.0,
              3719.0
            ]
          ]
        ]
      },
      "properties": {
        "case_id": "2356047",
        "merged_id": 55
      }
    },
    {
      "type": "Feature",
      "geometry": {
        "type": "Polygon",
        "coordinates": [
          [
            [
              31438.0,
              3607.0
            ],
            [
              31438.0,
              4048.0
            ],
            [
              31089.0,
              4048.0
            ],
            [
              31089.0,
              3607.0
            ],
            [
              31438.0,
              3607.0
            ]
          ]
        ]
      },
      "properties": {
        "case_id": "2356047",
        "merged_id": 56
      }
    },
    {
      "type": "Feature",
      "geometry": {
        "type": "Polygon",
        "coordinates": [
          [
            [
              30672.0,
              2958.0
            ],
            [
              30672.0,
              3690.0
            ],
            [
              29470.0,
              3690.0
            ],
            [
              29470.0,
              2958.0
            ],
            [
              30672.0,
              2958.0
            ]
          ]
        ]
      },
      "properties": {
        "case_id": "2356047",
        "merged_id": 57
      }
    },
    {
      "type": "Feature",
      "geometry": {
        "type": "Polygon",
        "coordinates": [
          [
            [
              32034.0,
              3079.0
            ],
            [
              32034.0,
              3452.0
            ],
            [
              31346.0,
              3452.0
            ],
            [
              31346.0,
              3079.0
            ],
            [
              32034.0,
              3079.0
            ]
          ]
        ]
      },
      "properties": {
        "case_id": "2356047",
        "merged_id": 58
      }
    },
    {
      "type": "Feature",
      "geometry": {
        "type": "Polygon",
        "coordinates": [
          [
            [
              32359.0,
              3559.0
            ],
            [
              32359.0,
              4160.0
            ],
            [
              32044.0,
              4160.0
            ],
            [
              32044.0,
              3559.0
            ],
            [
              32359.0,
              3559.0
            ]
          ]
        ]
      },
      "properties": {
        "case_id": "2356047",
        "merged_id": 59
      }
    },
    {
      "type": "Feature",
      "geometry": {
        "type": "Polygon",
        "coordinates": [
          [
            [
              33096.0,
              3646.0
            ],
            [
              33096.0,
              4577.0
            ],
            [
              32723.0,
              4577.0
            ],
            [
              32723.0,
              3646.0
            ],
            [
              33096.0,
              3646.0
            ]
          ]
        ]
      },
      "properties": {
        "case_id": "2356047",
        "merged_id": 60
      }
    },
    {
      "type": "Feature",
      "geometry": {
        "type": "Polygon",
        "coordinates": [
          [
            [
              31414.0,
              4015.0
            ],
            [
              31414.0,
              4708.0
            ],
            [
              30624.0,
              4708.0
            ],
            [
              30624.0,
              4015.0
            ],
            [
              31414.0,
              4015.0
            ]
          ]
        ]
      },
      "properties": {
        "case_id": "2356047",
        "merged_id": 61
      }
    },
    {
      "type": "Feature",
      "geometry": {
        "type": "Polygon",
        "coordinates": [
          [
            [
              33188.0,
              4102.0
            ],
            [
              33188.0,
              4606.0
            ],
            [
              32999.0,
              4606.0
            ],
            [
              32999.0,
              4102.0
            ],
            [
              33188.0,
              4102.0
            ]
          ]
        ]
      },
      "properties": {
        "case_id": "2356047",
        "merged_id": 62
      }
    },
    {
      "type": "Feature",
      "geometry": {
        "type": "Polygon",
        "coordinates": [
          [
            [
              31874.0,
              3467.0
            ],
            [
              31874.0,
              3670.0
            ],
            [
              31462.0,
              3670.0
            ],
            [
              31462.0,
              3467.0
            ],
            [
              31874.0,
              3467.0
            ]
          ]
        ]
      },
      "properties": {
        "case_id": "2356047",
        "merged_id": 63
      }
    },
    {
      "type": "Feature",
      "geometry": {
        "type": "Polygon",
        "coordinates": [
          [
            [
              33203.0,
              2580.0
            ],
            [
              33203.0,
              4868.0
            ],
            [
              29489.0,
              4868.0
            ],
            [
              29489.0,
              2580.0
            ],
            [
              33203.0,
              2580.0
            ]
          ]
        ]
      },
      "properties": {
        "case_id": "2356047",
        "merged_id": 64
      }
    },
    {
      "type": "Feature",
      "geometry": {
        "type": "Polygon",
        "coordinates": [
          [
            [
              30561.0,
              2691.0
            ],
            [
              30561.0,
              2948.0
            ],
            [
              30032.0,
              2948.0
            ],
            [
              30032.0,
              2691.0
            ],
            [
              30561.0,
              2691.0
            ]
          ]
        ]
      },
      "properties": {
        "case_id": "2356047",
        "merged_id": 65
      }
    },
    {
      "type": "Feature",
      "geometry": {
        "type": "Polygon",
        "coordinates": [
          [
            [
              33418.0,
              6201.0
            ],
            [
              33418.0,
              9253.0
            ],
            [
              29452.0,
              9253.0
            ],
            [
              29452.0,
              6201.0
            ],
            [
              33418.0,
              6201.0
            ]
          ]
        ]
      },
      "properties": {
        "case_id": "2356047",
        "merged_id": 66
      }
    },
    {
      "type": "Feature",
      "geometry": {
        "type": "Polygon",
        "coordinates": [
          [
            [
              35717.0,
              9920.0
            ],
            [
              35717.0,
              12058.0
            ],
            [
              32955.0,
              12058.0
            ],
            [
              32955.0,
              9920.0
            ],
            [
              35717.0,
              9920.0
            ]
          ]
        ]
      },
      "properties": {
        "case_id": "2356047",
        "merged_id": 67
      }
    }
  ]
}