{
  "type": "FeatureCollection",
  "features": [
    {
      "type": "Feature",
      "geometry": {
        "type": "Polygon",
        "coordinates": [
          [
            [
              37253.0,
              8964.0
            ],
            [
              37253.0,
              9807.0
            ],
            [
              36840.0,
              9807.0
            ],
            [
              36840.0,
              8964.0
            ],
            [
              37253.0,
              8964.0
            ]
          ]
        ]
      },
      "properties": {
        "case_id": "2385991",
        "merged_id": 0
      }
    },
    {
      "type": "Feature",
      "geometry": {
        "type": "Polygon",
        "coordinates": [
          [
            [
              37783.0,
              7798.0
            ],
            [
              37783.0,
              7886.0
            ],
            [
              37505.0,
              7886.0
            ],
            [
              37505.0,
              7798.0
            ],
            [
              37783.0,
              7798.0
            ]
          ]
        ]
      },
      "properties": {
        "case_id": "2385991",
        "merged_id": 1
      }
    },
    {
      "type": "Feature",
      "geometry": {
        "type": "Polygon",
        "coordinates": [
          [
            [
              32121.0,
              23283.0
            ],
            [
              32121.0,
              24096.0
            ],
            [
              31710.0,
              24096.0
            ],
            [
              31710.0,
              23283.0
            ],
            [
              32121.0,
              23283.0
            ]
          ]
        ]
      },
      "properties": {
        "case_id": "2385991",
        "merged_id": 2
      }
    },
    {
      "type": "Feature",
      "geometry": {
        "type": "Polygon",
        "coordinates": [
          [
            [
              41959.0,
              8149.0
            ],
            [
              41959.0,
              8680.0
            ],
            [
              41662.0,
              8680.0
            ],
            [
              41662.0,
              8149.0
            ],
            [
              41959.0,
              8149.0
            ]
          ]
        ]
      },
      "properties": {
        "case_id": "2385991",
        "merged_id": 3
      }
    },
    {
      "type": "Feature",
      "geometry": {
        "type": "Polygon",
        "coordinates": [
          [
            [
              39262.0,
              15196.0
            ],
            [
              39262.0,
              17006.0
            ],
            [
              38246.0,
              17006.0
            ],
            [
              38246.0,
              15196.0
            ],
            [
              39262.0,
              15196.0
            ]
          ]
        ]
      },
      "properties": {
        "case_id": "2385991",
        "merged_id": 4
      }
    },
    {
      "type": "Feature",
      "geometry": {
        "type": "Polygon",
        "coordinates": [
          [
            [
              38308.0,
              10226.0
            ],
            [
              38308.0,
              10860.0
            ],
            [
              37944.0,
              10860.0
            ],
            [
              37944.0,
              10226.0
            ],
            [
              38308.0,
              10226.0
            ]
          ]
        ]
      },
      "properties": {
        "case_id": "2385991",
        "merged_id": 5
      }
    },
    {
      "type": "Feature",
      "geometry": {
        "type": "Polygon",
        "coordinates": [
          [
            [
              40044.0,
              11430.0
            ],
            [
              40044.0,
              12056.0
            ],
            [
              38981.0,
              12056.0
            ],
            [
              38981.0,
              11430.0
            ],
            [
              40044.0,
              11430.0
            ]
          ]
        ]
      },
      "properties": {
        "case_id": "2385991",
        "merged_id": 6
      }
    },
    {
      "type": "Feature",
      "geometry": {
        "type": "Polygon",
        "coordinates": [
          [
            [
              34934.0,
              22121.0
            ],
            [
              34934.0,
              22948.0
            ],
            [
              33920.0,
              22948.0
            ],
            [
              33920.0,
              22121.0
            ],
            [
              34934.0,
              22121.0
            ]
          ]
        ]
      },
      "properties": {
        "case_id": "2385991",
        "merged_id": 7
      }
    },
    {
      "type": "Feature",
      "geometry": {
        "type": "Polygon",
        "coordinates": [
          [
            [
              34660.0,
              23127.0
            ],
            [
              34660.0,
              23842.0
            ],
            [
              33534.0,
              23842.0
            ],
            [
              33534.0,
              23127.0
            ],
            [
              34660.0,
              23127.0
            ]
          ]
        ]
      },
      "properties": {
        "case_id": "2385991",
        "merged_id": 8
      }
    },
    {
      "type": "Feature",
      "geometry": {
        "type": "Polygon",
        "coordinates": [
          [
            [
              42022.0,
              17086.0
            ],
            [
              42022.0,
              17837.0
            ],
            [
              41313.0,
              17837.0
            ],
            [
              41313.0,
              17086.0
            ],
            [
              42022.0,
              17086.0
            ]
          ]
        ]
      },
      "properties": {
        "case_id": "2385991",
        "merged_id": 9
      }
    },
    {
      "type": "Feature",
      "geometry": {
        "type": "Polygon",
        "coordinates": [
          [
            [
              40730.0,
              17269.0
            ],
            [
              40730.0,
              18003.0
            ],
            [
              40093.0,
              18003.0
            ],
            [
              40093.0,
              17269.0
            ],
            [
              40730.0,
              17269.0
            ]
          ]
        ]
      },
      "properties": {
        "case_id": "2385991",
        "merged_id": 10
      }
    },
    {
      "type": "Feature",
      "geometry": {
        "type": "Polygon",
        "coordinates": [
          [
            [
              40162.0,
              15470.0
            ],
            [
              40162.0,
              15937.0
            ],
            [
              39625.0,
              15937.0
            ],
            [
              39625.0,
              15470.0
            ],
            [
              40162.0,
              15470.0
            ]
          ]
        ]
      },
      "properties": {
        "case_id": "2385991",
        "merged_id": 11
      }
    },
    {
      "type": "Feature",
      "geometry": {
        "type": "Polygon",
        "coordinates": [
          [
            [
              39782.0,
              14124.0
            ],
            [
              39782.0,
              14753.0
            ],
            [
              39314.0,
              14753.0
            ],
            [
              39314.0,
              14124.0
            ],
            [
              39782.0,
              14124.0
            ]
          ]
        ]
      },
      "properties": {
        "case_id": "2385991",
        "merged_id": 12
      }
    },
    {
      "type": "Feature",
      "geometry": {
        "type": "Polygon",
        "coordinates": [
          [
            [
              40377.0,
              13022.0
            ],
            [
              40377.0,
              13569.0
            ],
            [
              39691.0,
              13569.0
            ],
            [
              39691.0,
              13022.0
            ],
            [
              40377.0,
              13022.0
            ]
          ]
        ]
      },
      "properties": {
        "case_id": "2385991",
        "merged_id": 13
      }
    },
    {
      "type": "Feature",
      "geometry": {
        "type": "Polygon",
        "coordinates": [
          [
            [
              43790.0,
              10933.0
            ],
            [
              43790.0,
              12186.0
            ],
            [
              42575.0,
              12186.0
            ],
            [
              42575.0,
              10933.0
            ],
            [
              43790.0,
              10933.0
            ]
          ]
        ]
      },
      "properties": {
        "case_id": "2385991",
        "merged_id": 14
      }
    },
    {
      "type": "Feature",
      "geometry": {
        "type": "Polygon",
        "coordinates": [
          [
            [
              44338.0,
              9519.0
            ],
            [
              44338.0,
              10281.0
            ],
            [
              43495.0,
              10281.0
            ],
            [
              43495.0,
              9519.0
            ],
            [
              44338.0,
              9519.0
            ]
          ]
        ]
      },
      "properties": {
        "case_id": "2385991",
        "merged_id": 15
      }
    },
    {
      "type": "Feature",
      "geometry": {
        "type": "Polygon",
        "coordinates": [
          [
            [
              42672.0,
              8209.0
            ],
            [
              42672.0,
              9335.0
            ],
            [
              41835.0,
              9335.0
            ],
            [
              41835.0,
              8209.0
            ],
            [
              42672.0,
              8209.0
            ]
          ]
        ]
      },
      "properties": {
        "case_id": "2385991",
        "merged_id": 16
      }
    },
    {
      "type": "Feature",
      "geometry": {
        "type": "Polygon",
        "coordinates": [
          [
            [
              41690.0,
              9840.0
            ],
            [
              41690.0,
              10328.0
            ],
            [
              41205.0,
              10328.0
            ],
            [
              41205.0,
              9840.0
            ],
            [
              41690.0,
              9840.0
            ]
          ]
        ]
      },
      "properties": {
        "case_id": "2385991",
        "merged_id": 17
      }
    },
    {
      "type": "Feature",
      "geometry": {
        "type": "Polygon",
        "coordinates": [
          [
            [
              41846.0,
              9797.0
            ],
            [
              41846.0,
              11104.0
            ],
            [
              41051.0,
              11104.0
            ],
            [
              41051.0,
              9797.0
            ],
            [
              41846.0,
              9797.0
            ]
          ]
        ]
      },
      "properties": {
        "case_id": "2385991",
        "merged_id": 18
      }
    },
    {
      "type": "Feature",
      "geometry": {
        "type": "Polygon",
        "coordinates": [
          [
            [
              40875.0,
              13824.0
            ],
            [
              40875.0,
              14524.0
            ],
            [
              40318.0,
              14524.0
            ],
            [
              40318.0,
              13824.0
            ],
            [
              40875.0,
              13824.0
            ]
          ]
        ]
      },
      "properties": {
        "case_id": "2385991",
        "merged_id": 19
      }
    },
    {
      "type": "Feature",
      "geometry": {
        "type": "Polygon",
        "coordinates": [
          [
            [
              40583.0,
              15491.0
            ],
            [
              40583.0,
              16669.0
            ],
            [
              39271.0,
              16669.0
            ],
            [
              39271.0,
              15491.0
            ],
            [
              40583.0,
              15491.0
            ]
          ]
        ]
      },
      "properties": {
        "case_id": "2385991",
        "merged_id": 20
      }
    },
    {
      "type": "Feature",
      "geometry": {
        "type": "Polygon",
        "coordinates": [
          [
            [
              41093.0,
              16335.0
            ],
            [
              41093.0,
              16836.0
            ],
            [
              40319.0,
              16836.0
            ],
            [
              40319.0,
              16335.0
            ],
            [
              41093.0,
              16335.0
            ]
          ]
        ]
      },
      "properties": {
        "case_id": "2385991",
        "merged_id": 21
      }
    },
    {
      "type": "Feature",
      "geometry": {
        "type": "Polygon",
        "coordinates": [
          [
            [
              40106.0,
              16739.0
            ],
            [
              40106.0,
              17195.0
            ],
            [
              39482.0,
              17195.0
            ],
            [
              39482.0,
              16739.0
            ],
            [
              40106.0,
              16739.0
            ]
          ]
        ]
      },
      "properties": {
        "case_id": "2385991",
        "merged_id": 22
      }
    },
    {
      "type": "Feature",
      "geometry": {
        "type": "Polygon",
        "coordinates": [
          [
            [
              33129.0,
              24134.0
            ],
            [
              33129.0,
              24548.0
            ],
            [
              32650.0,
              24548.0
            ],
            [
              32650.0,
              24134.0
            ],
            [
              33129.0,
              24134.0
            ]
          ]
        ]
      },
      "properties": {
        "case_id": "2385991",
        "merged_id": 23
      }
    },
    {
      "type": "Feature",
      "geometry": {
        "type": "Polygon",
        "coordinates": [
          [
            [
              41321.0,
              10842.0
            ],
            [
              41321.0,
              12126.0
            ],
            [
              40202.0,
              12126.0
            ],
            [
              40202.0,
              10842.0
            ],
            [
              41321.0,
              10842.0
            ]
          ]
        ]
      },
      "properties": {
        "case_id": "2385991",
        "merged_id": 24
      }
    },
    {
      "type": "Feature",
      "geometry": {
        "type": "Polygon",
        "coordinates": [
          [
            [
              43350.0,
              12429.0
            ],
            [
              43350.0,
              13032.0
            ],
            [
              42795.0,
              13032.0
            ],
            [
              42795.0,
              12429.0
            ],
            [
              43350.0,
              12429.0
            ]
          ]
        ]
      },
      "properties": {
        "case_id": "2385991",
        "merged_id": 25
      }
    },
    {
      "type": "Feature",
      "geometry": {
        "type": "Polygon",
        "coordinates": [
          [
            [
              42922.0,
              12999.0
            ],
            [
              42922.0,
              13466.0
            ],
            [
              42288.0,
              13466.0
            ],
            [
              42288.0,
              12999.0
            ],
            [
              42922.0,
              12999.0
            ]
          ]
        ]
      },
      "properties": {
        "case_id": "2385991",
        "merged_id": 26
      }
    },
    {
      "type": "Feature",
      "geometry": {
        "type": "Polygon",
        "coordinates": [
          [
            [
              42184.0,
              13479.0
            ],
            [
              42184.0,
              14235.0
            ],
            [
              41605.0,
              14235.0
            ],
            [
              41605.0,
              13479.0
            ],
            [
              42184.0,
              13479.0
            ]
          ]
        ]
      },
      "properties": {
        "case_id": "2385991",
        "merged_id": 27
      }
    },
    {
      "type": "Feature",
      "geometry": {
        "type": "Polygon",
        "coordinates": [
          [
            [
              42131.0,
              19013.0
            ],
            [
              42131.0,
              20240.0
            ],
            [
              40268.0,
              20240.0
            ],
            [
              40268.0,
              19013.0
            ],
            [
              42131.0,
              19013.0
            ]
          ]
        ]
      },
      "properties": {
        "case_id": "2385991",
        "merged_id": 28
      }
    },
    {
      "type": "Feature",
      "geometry": {
        "type": "Polygon",
        "coordinates": [
          [
            [
              38448.0,
              11575.0
            ],
            [
              38448.0,
              13624.0
            ],
            [
              37331.0,
              13624.0
            ],
            [
              37331.0,
              11575.0
            ],
            [
              38448.0,
              11575.0
            ]
          ]
        ]
      },
      "properties": {
        "case_id": "2385991",
        "merged_id": 29
      }
    },
    {
      "type": "Feature",
      "geometry": {
        "type": "Polygon",
        "coordinates": [
          [
            [
              39932.0,
              13160.0
            ],
            [
              39932.0,
              13966.0
            ],
            [
              38933.0,
              13966.0
            ],
            [
              38933.0,
              13160.0
            ],
            [
              39932.0,
              13160.0
            ]
          ]
        ]
      },
      "properties": {
        "case_id": "2385991",
        "merged_id": 30
      }
    },
    {
      "type": "Feature",
      "geometry": {
        "type": "Polygon",
        "coordinates": [
          [
            [
              41138.0,
              11980.0
            ],
            [
              41138.0,
              12907.0
            ],
            [
              40337.0,
              12907.0
            ],
            [
              40337.0,
              11980.0
            ],
            [
              41138.0,
              11980.0
            ]
          ]
        ]
      },
      "properties": {
        "case_id": "2385991",
        "merged_id": 31
      }
    },
    {
      "type": "Feature",
      "geometry": {
        "type": "Polygon",
        "coordinates": [
          [
            [
              43528.0,
              12150.0
            ],
            [
              43528.0,
              13534.0
            ],
            [
              41906.0,
              13534.0
            ],
            [
              41906.0,
              12150.0
            ],
            [
              43528.0,
              12150.0
            ]
          ]
        ]
      },
      "properties": {
        "case_id": "2385991",
        "merged_id": 32
      }
    },
    {
      "type": "Feature",
      "geometry": {
        "type": "Polygon",
        "coordinates": [
          [
            [
              43668.0,
              9605.0
            ],
            [
              43668.0,
              10533.0
            ],
            [
              42461.0,
              10533.0
            ],
            [
              42461.0,
              9605.0
            ],
            [
              43668.0,
              9605.0
            ]
          ]
        ]
      },
      "properties": {
        "case_id": "2385991",
        "merged_id": 33
      }
    },
    {
      "type": "Feature",
      "geometry": {
        "type": "Polygon",
        "coordinates": [
          [
            [
              37723.0,
              9957.0
            ],
            [
              37723.0,
              10756.0
            ],
            [
              37084.0,
              10756.0
            ],
            [
              37084.0,
              9957.0
            ],
            [
              37723.0,
              9957.0
            ]
          ]
        ]
      },
      "properties": {
        "case_id": "2385991",
        "merged_id": 34
      }
    },
    {
      "type": "Feature",
      "geometry": {
        "type": "Polygon",
        "coordinates": [
          [
            [
              36977.0,
              11916.0
            ],
            [
              36977.0,
              12830.0
            ],
            [
              35888.0,
              12830.0
            ],
            [
              35888.0,
              11916.0
            ],
            [
              36977.0,
              11916.0
            ]
          ]
        ]
      },
      "properties": {
        "case_id": "2385991",
        "merged_id": 35
      }
    },
    {
      "type": "Feature",
      "geometry": {
        "type": "Polygon",
        "coordinates": [
          [
            [
              37450.0,
              16689.0
            ],
            [
              37450.0,
              25297.0
            ],
            [
              31644.0,
              25297.0
            ],
            [
              31644.0,
              16689.0
            ],
            [
              37450.0,
              16689.0
            ]
          ]
        ]
      },
      "properties": {
        "case_id": "2385991",
        "merged_id": 36
      }
    },
    {
      "type": "Feature",
      "geometry": {
        "type": "Polygon",
        "coordinates": [
          [
            [
              42860.0,
              12881.0
            ],
            [
              42860.0,
              21377.0
            ],
            [
              38188.0,
              21377.0
            ],
            [
              38188.0,
              12881.0
            ],
            [
              42860.0,
              12881.0
            ]
          ]
        ]
      },
      "properties": {
        "case_id": "2385991",
        "merged_id": 37
      }
    },
    {
      "type": "Feature",
      "geometry": {
        "type": "Polygon",
        "coordinates": [
          [
            [
              39468.0,
              7729.0
            ],
            [
              39468.0,
              14657.0
            ],
            [
              35036.0,
              14657.0
            ],
            [
              35036.0,
              7729.0
            ],
            [
              39468.0,
              7729.0
            ]
          ]
        ]
      },
      "properties": {
        "case_id": "2385991",
        "merged_id": 38
      }
    },
    {
      "type": "Feature",
      "geometry": {
        "type": "Polygon",
        "coordinates": [
          [
            [
              44876.0,
              7825.0
            ],
            [
              44876.0,
              14049.0
            ],
            [
              39484.0,
              14049.0
            ],
            [
              39484.0,
              7825.0
            ],
            [
              44876.0,
              7825.0
            ]
          ]
        ]
      },
      "properties": {
        "case_id": "2385991",
        "merged_id": 39
      }
    },
    {
      "type": "Feature",
      "geometry": {
        "type": "Polygon",
        "coordinates": [
          [
            [
              39795.0,
              10858.0
            ],
            [
              39795.0,
              11285.0
            ],
            [
              39475.0,
              11285.0
            ],
            [
              39475.0,
              10858.0
            ],
            [
              39795.0,
              10858.0
            ]
          ]
        ]
      },
      "properties": {
        "case_id": "2385991",
        "merged_id": 40
      }
    },
    {
      "type": "Feature",
      "geometry": {
        "type": "Polygon",
        "coordinates": [
          [
            [
              41839.0,
              8869.0
            ],
            [
              41839.0,
              9113.0
            ],
            [
              41565.0,
              9113.0
            ],
            [
              41565.0,
              8869.0
            ],
            [
              41839.0,
              8869.0
            ]
          ]
        ]
      },
      "properties": {
        "case_id": "2385991",
        "merged_id": 41
      }
    },
    {
      "type": "Feature",
      "geometry": {
        "type": "Polygon",
        "coordinates": [
          [
            [
              41624.0,
              11461.0
            ],
            [
              41624.0,
              11874.0
            ],
            [
              41227.0,
              11874.0
            ],
            [
              41227.0,
              11461.0
            ],
            [
              41624.0,
              11461.0
            ]
          ]
        ]
      },
      "properties": {
        "case_id": "2385991",
        "merged_id": 42
      }
    },
    {
      "type": "Feature",
      "geometry": {
        "type": "Polygon",
        "coordinates": [
          [
            [
              39957.0,
              12539.0
            ],
            [
              39957.0,
              12877.0
            ],
            [
              39712.0,
              12877.0
            ],
            [
              39712.0,
              12539.0
            ],
            [
              39957.0,
              12539.0
            ]
          ]
        ]
      },
      "properties": {
        "case_id": "2385991",
        "merged_id": 43
      }
    },
    {
      "type": "Feature",
      "geometry": {
        "type": "Polygon",
        "coordinates": [
          [
            [
              38775.0,
              15305.0
            ],
            [
              38775.0,
              15634.0
            ],
            [
              38525.0,
              15634.0
            ],
            [
              38525.0,
              15305.0
            ],
            [
              38775.0,
              15305.0
            ]
          ]
        ]
      },
      "properties": {
        "case_id": "2385991",
        "merged_id": 44
      }
    },
    {
      "type": "Feature",
      "geometry": {
        "type": "Polygon",
        "coordinates": [
          [
            [
              39085.0,
              15611.0
            ],
            [
              39085.0,
              16060.0
            ],
            [
              38274.0,
              16060.0
            ],
            [
              38274.0,
              15611.0
            ],
            [
              39085.0,
              15611.0
            ]
          ]
        ]
      },
      "properties": {
        "case_id": "2385991",
        "merged_id": 45
      }
    },
    {
      "type": "Feature",
      "geometry": {
        "type": "Polygon",
        "coordinates": [
          [
            [
              42621.0,
              17637.0
            ],
            [
              42621.0,
              18015.0
            ],
            [
              42146.0,
              18015.0
            ],
            [
              42146.0,
              17637.0
            ],
            [
              42621.0,
              17637.0
            ]
          ]
        ]
      },
      "properties": {
        "case_id": "2385991",
        "merged_id": 46
      }
    },
    {
      "type": "Feature",
      "geometry": {
        "type": "Polygon",
        "coordinates": [
          [
            [
              32054.0,
              22760.0
            ],
            [
              32054.0,
              23308.0
            ],
            [
              31662.0,
              23308.0
            ],
            [
              31662.0,
              22760.0
            ],
            [
              32054.0,
              22760.0
            ]
          ]
        ]
      },
      "properties": {
        "case_id": "2385991",
        "merged_id": 47
      }
    },
    {
      "type": "Feature",
      "geometry": {
        "type": "Polygon",
        "coordinates": [
          [
            [
              32510.0,
              22338.0
            ],
            [
              32510.0,
              22614.0
            ],
            [
              32064.0,
              22614.0
            ],
            [
              32064.0,
              22338.0
            ],
            [
              32510.0,
              22338.0
            ]
          ]
        ]
      },
      "properties": {
        "case_id": "2385991",
        "merged_id": 48
      }
    },
    {
      "type": "Feature",
      "geometry": {
        "type": "Polygon",
        "coordinates": [
          [
            [
              35584.0,
              10383.0
            ],
            [
              35584.0,
              10839.0
            ],
            [
              34760.0,
              10839.0
            ],
            [
              34760.0,
              10383.0
            ],
            [
              35584.0,
              10383.0
            ]
          ]
        ]
      },
      "properties": {
        "case_id": "2385991",
        "merged_id": 49
      }
    },
    {
      "type": "Feature",
      "geometry": {
        "type": "Polygon",
        "coordinates": [
          [
            [
              39049.0,
              9099.0
            ],
            [
              39049.0,
              10441.0
            ],
            [
              38572.0,
              10441.0
            ],
            [
              38572.0,
              9099.0
            ],
            [
              39049.0,
              9099.0
            ]
          ]
        ]
      },
      "properties": {
        "case_id": "2385991",
        "merged_id": 50
      }
    },
    {
      "type": "Feature",
      "geometry": {
        "type": "Polygon",
        "coordinates": [
          [
            [
              38738.0,
              10160.0
            ],
            [
              38738.0,
              11517.0
            ],
            [
              38370.0,
              11517.0
            ],
            [
              38370.0,
              10160.0
            ],
            [
              38738.0,
              10160.0
            ]
          ]
        ]
      },
      "properties": {
        "case_id": "2385991",
        "merged_id": 51
      }
    },
    {
      "type": "Feature",
      "geometry": {
        "type": "Polygon",
        "coordinates": [
          [
            [
              42622.0,
              9402.0
            ],
            [
              42622.0,
              10427.0
            ],
            [
              42225.0,
              10427.0
            ],
            [
              42225.0,
              9402.0
            ],
            [
              42622.0,
              9402.0
            ]
          ]
        ]
      },
      "properties": {
        "case_id": "2385991",
        "merged_id": 52
      }
    },
    {
      "type": "Feature",
      "geometry": {
        "type": "Polygon",
        "coordinates": [
          [
            [
              43076.0,
              10001.0
            ],
            [
              43076.0,
              10427.0
            ],
            [
              42340.0,
              10427.0
            ],
            [
              42340.0,
              10001.0
            ],
            [
              43076.0,
              10001.0
            ]
          ]
        ]
      },
      "properties": {
        "case_id": "2385991",
        "merged_id": 53
      }
    },
    {
      "type": "Feature",
      "geometry": {
        "type": "Polygon",
        "coordinates": [
          [
            [
              39792.0,
              17378.0
            ],
            [
              39792.0,
              18164.0
            ],
            [
              38536.0,
              18164.0
            ],
            [
              38536.0,
              17378.0
            ],
            [
              39792.0,
              17378.0
            ]
          ]
        ]
      },
      "properties": {
        "case_id": "2385991",
        "merged_id": 54
      }
    },
    {
      "type": "Feature",
      "geometry": {
        "type": "Polygon",
        "coordinates": [
          [
            [
              35801.0,
              20611.0
            ],
            [
              35801.0,
              21196.0
            ],
            [
              35476.0,
              21196.0
            ],
            [
              35476.0,
              20611.0
            ],
            [
              35801.0,
              20611.0
            ]
          ]
        ]
      },
      "properties": {
        "case_id": "2385991",
        "merged_id": 55
      }
    },
    {
      "type": "Feature",
      "geometry": {
        "type": "Polygon",
        "coordinates": [
          [
            [
              37468.0,
              9139.0
            ],
            [
              37468.0,
              10431.0
            ],
            [
              37028.0,
              10431.0
            ],
            [
              37028.0,
              9139.0
            ],
            [
              37468.0,
              9139.0
            ]
          ]
        ]
      },
      "properties": {
        "case_id": "2385991",
        "merged_id": 56
      }
    },
    {
      "type": "Feature",
      "geometry": {
        "type": "Polygon",
        "coordinates": [
          [
            [
              39027.0,
              8410.0
            ],
            [
              39027.0,
              8995.0
            ],
            [
              38493.0,
              8995.0
            ],
            [
              38493.0,
              8410.0
            ],
            [
              39027.0,
              8410.0
            ]
          ]
        ]
      },
      "properties": {
        "case_id": "2385991",
        "merged_id": 57
      }
    },
    {
      "type": "Feature",
      "geometry": {
        "type": "Polygon",
        "coordinates": [
          [
            [
              37973.0,
              10958.0
            ],
            [
              37973.0,
              11434.0
            ],
            [
              37360.0,
              11434.0
            ],
            [
              37360.0,
              10958.0
            ],
            [
              37973.0,
              10958.0
            ]
          ]
        ]
      },
      "properties": {
        "case_id": "2385991",
        "merged_id": 58
      }
    },
    {
      "type": "Feature",
      "geometry": {
        "type": "Polygon",
        "coordinates": [
          [
            [
              37894.0,
              13896.0
            ],
            [
              37894.0,
              14235.0
            ],
            [
              37056.0,
              14235.0
            ],
            [
              37056.0,
              13896.0
            ],
            [
              37894.0,
              13896.0
            ]
          ]
        ]
      },
      "properties": {
        "case_id": "2385991",
        "merged_id": 59
      }
    },
    {
      "type": "Feature",
      "geometry": {
        "type": "Polygon",
        "coordinates": [
          [
            [
              37677.0,
              12503.0
            ],
            [
              37677.0,
              12828.0
            ],
            [
              37093.0,
              12828.0
            ],
            [
              37093.0,
              12503.0
            ],
            [
              37677.0,
              12503.0
            ]
          ]
        ]
      },
      "properties": {
        "case_id": "2385991",
        "merged_id": 60
      }
    },
    {
      "type": "Feature",
      "geometry": {
        "type": "Polygon",
        "coordinates": [
          [
            [
              39518.0,
              13145.0
            ],
            [
              39518.0,
              13412.0
            ],
            [
              38991.0,
              13412.0
            ],
            [
              38991.0,
              13145.0
            ],
            [
              39518.0,
              13145.0
            ]
          ]
        ]
      },
      "properties": {
        "case_id": "2385991",
        "merged_id": 61
      }
    },
    {
      "type": "Feature",
      "geometry": {
        "type": "Polygon",
        "coordinates": [
          [
            [
              39727.0,
              13968.0
            ],
            [
              39727.0,
              14430.0
            ],
            [
              39121.0,
              14430.0
            ],
            [
              39121.0,
              13968.0
            ],
            [
              39727.0,
              13968.0
            ]
          ]
        ]
      },
      "properties": {
        "case_id": "2385991",
        "merged_id": 62
      }
    },
    {
      "type": "Feature",
      "geometry": {
        "type": "Polygon",
        "coordinates": [
          [
            [
              40774.0,
              14827.0
            ],
            [
              40774.0,
              15383.0
            ],
            [
              40102.0,
              15383.0
            ],
            [
              40102.0,
              14827.0
            ],
            [
              40774.0,
              14827.0
            ]
          ]
        ]
      },
      "properties": {
        "case_id": "2385991",
        "merged_id": 63
      }
    },
    {
      "type": "Feature",
      "geometry": {
        "type": "Polygon",
        "coordinates": [
          [
            [
              42109.0,
              15412.0
            ],
            [
              42109.0,
              16198.0
            ],
            [
              41279.0,
              16198.0
            ],
            [
              41279.0,
              15412.0
            ],
            [
              42109.0,
              15412.0
            ]
          ]
        ]
      },
      "properties": {
        "case_id": "2385991",
        "merged_id": 64
      }
    },
    {
      "type": "Feature",
      "geometry": {
        "type": "Polygon",
        "coordinates": [
          [
            [
              42102.0,
              18075.0
            ],
            [
              42102.0,
              18602.0
            ],
            [
              41510.0,
              18602.0
            ],
            [
              41510.0,
              18075.0
            ],
            [
              42102.0,
              18075.0
            ]
          ]
        ]
      },
      "properties": {
        "case_id": "2385991",
        "merged_id": 65
      }
    },
    {
      "type": "Feature",
      "geometry": {
        "type": "Polygon",
        "coordinates": [
          [
            [
              35173.0,
              19417.0
            ],
            [
              35173.0,
              19887.0
            ],
            [
              34371.0,
              19887.0
            ],
            [
              34371.0,
              19417.0
            ],
            [
              35173.0,
              19417.0
            ]
          ]
        ]
      },
      "properties": {
        "case_id": "2385991",
        "merged_id": 66
      }
    },
    {
      "type": "Feature",
      "geometry": {
        "type": "Polygon",
        "coordinates": [
          [
            [
              35367.0,
              17663.0
            ],
            [
              35367.0,
              18147.0
            ],
            [
              33787.0,
              18147.0
            ],
            [
              33787.0,
              17663.0
            ],
            [
              35367.0,
              17663.0
            ]
          ]
        ]
      },
      "properties": {
        "case_id": "2385991",
        "merged_id": 67
      }
    },
    {
      "type": "Feature",
      "geometry": {
        "type": "Polygon",
        "coordinates": [
          [
            [
              34855.0,
              18385.0
            ],
            [
              34855.0,
              19201.0
            ],
            [
              33332.0,
              19201.0
            ],
            [
              33332.0,
              18385.0
            ],
            [
              34855.0,
              18385.0
            ]
          ]
        ]
      },
      "properties": {
        "case_id": "2385991",
        "merged_id": 68
      }
    },
    {
      "type": "Feature",
      "geometry": {
        "type": "Polygon",
        "coordinates": [
          [
            [
              36335.0,
              17642.0
            ],
            [
              36335.0,
              18068.0
            ],
            [
              35483.0,
              18068.0
            ],
            [
              35483.0,
              17642.0
            ],
            [
              36335.0,
              17642.0
            ]
          ]
        ]
      },
      "properties": {
        "case_id": "2385991",
        "merged_id": 69
      }
    },
    {
      "type": "Feature",
      "geometry": {
        "type": "Polygon",
        "coordinates": [
          [
            [
              34205.0,
              21626.0
            ],
            [
              34205.0,
              22225.0
            ],
            [
              33982.0,
              22225.0
            ],
            [
              33982.0,
              21626.0
            ],
            [
              34205.0,
              21626.0
            ]
          ]
        ]
      },
      "properties": {
        "case_id": "2385991",
        "merged_id": 70
      }
    },
    {
      "type": "Feature",
      "geometry": {
        "type": "Polygon",
        "coordinates": [
          [
            [
              38252.0,
              16329.0
            ],
            [
              38252.0,
              17650.0
            ],
            [
              37188.0,
              17650.0
            ],
            [
              37188.0,
              16329.0
            ],
            [
              38252.0,
              16329.0
            ]
          ]
        ]
      },
      "properties": {
        "case_id": "2385991",
        "merged_id": 71
      }
    },
    {
      "type": "Feature",
      "geometry": {
        "type": "Polygon",
        "coordinates": [
          [
            [
              39540.0,
              9261.0
            ],
            [
              39540.0,
              9998.0
            ],
            [
              39186.0,
              9998.0
            ],
            [
              39186.0,
              9261.0
            ],
            [
              39540.0,
              9261.0
            ]
          ]
        ]
      },
      "properties": {
        "case_id": "2385991",
        "merged_id": 72
      }
    },
    {
      "type": "Feature",
      "geometry": {
        "type": "Polygon",
        "coordinates": [
          [
            [
              37205.0,
              18003.0
            ],
            [
              37205.0,
              20195.0
            ],
            [
              36378.0,
              20195.0
            ],
            [
              36378.0,
              18003.0
            ],
            [
              37205.0,
              18003.0
            ]
          ]
        ]
      },
      "properties": {
        "case_id": "2385991",
        "merged_id": 73
      }
    },
    {
      "type": "Feature",
      "geometry": {
        "type": "Polygon",
        "coordinates": [
          [
            [
              41097.0,
              18905.0
            ],
            [
              41097.0,
              19443.0
            ],
            [
              40511.0,
              19443.0
            ],
            [
              40511.0,
              18905.0
            ],
            [
              41097.0,
              18905.0
            ]
          ]
        ]
      },
      "properties": {
        "case_id": "2385991",
        "merged_id": 74
      }
    },
    {
      "type": "Feature",
      "geometry": {
        "type": "Polygon",
        "coordinates": [
          [
            [
              44733.0,
              9672.0
            ],
            [
              44733.0,
              9946.0
            ],
            [
              44433.0,
              9946.0
            ],
            [
              44433.0,
              9672.0
            ],
            [
              44733.0,
              9672.0
            ]
          ]
        ]
      },
      "properties": {
        "case_id": "2385991",
        "merged_id": 75
      }
    },
    {
      "type": "Feature",
      "geometry": {
        "type": "Polygon",
        "coordinates": [
          [
            [
              44120.0,
              9099.0
            ],
            [
              44120.0,
              9294.0
            ],
            [
              43899.0,
              9294.0
            ],
            [
              43899.0,
              9099.0
            ],
            [
              44120.0,
              9099.0
            ]
          ]
        ]
      },
      "properties": {
        "case_id": "2385991",
        "merged_id": 76
      }
    },
    {
      "type": "Feature",
      "geometry": {
        "type": "Polygon",
        "coordinates": [
          [
            [
              43452.0,
              9978.0
            ],
            [
              43452.0,
              10339.0
            ],
            [
              43127.0,
              10339.0
            ],
            [
              43127.0,
              9978.0
            ],
            [
              43452.0,
              9978.0
            ]
          ]
        ]
      },
      "properties": {
        "case_id": "2385991",
        "merged_id": 77
      }
    },
    {
      "type": "Feature",
      "geometry": {
        "type": "Polygon",
        "coordinates": [
          [
            [
              43239.0,
              12218.0
            ],
            [
              43239.0,
              12889.0
            ],
            [
              42337.0,
              12889.0
            ],
            [
              42337.0,
              12218.0
            ],
            [
              43239.0,
              12218.0
            ]
          ]
        ]
      },
      "properties": {
        "case_id": "2385991",
        "merged_id": 78
      }
    }
  ]
}