{
  "type": "FeatureCollection",
  "features": [
    {
      "type": "Feature",
      "geometry": {
        "type": "Polygon",
        "coordinates": [
          [
            [
              14424.0,
              17632.0
            ],
            [
              14424.0,
              18502.0
            ],
            [
              13839.0,
              18502.0
            ],
            [
              13839.0,
              17632.0
            ],
            [
              14424.0,
              17632.0
            ]
          ]
        ]
      },
      "properties": {
        "case_id": "S2415106A01",
        "merged_id": 0
      }
    },
    {
      "type": "Feature",
      "geometry": {
        "type": "Polygon",
        "coordinates": [
          [
            [
              13571.0,
              24971.0
            ],
            [
              13571.0,
              25610.0
            ],
            [
              13258.0,
              25610.0
            ],
            [
              13258.0,
              24971.0
            ],
            [
              13571.0,
              24971.0
            ]
          ]
        ]
      },
      "properties": {
        "case_id": "S2415106A01",
        "merged_id": 1
      }
    },
    {
      "type": "Feature",
      "geometry": {
        "type": "Polygon",
        "coordinates": [
          [
            [
              12971.0,
              21537.0
            ],
            [
              12971.0,
              22260.0
            ],
            [
              12807.0,
              22260.0
            ],
            [
              12807.0,
              21537.0
            ],
            [
              12971.0,
              21537.0
            ]
          ]
        ]
      },
      "properties": {
        "case_id": "S2415106A01",
        "merged_id": 2
      }
    },
    {
      "type": "Feature",
      "geometry": {
        "type": "Polygon",
        "coordinates": [
          [
            [
              14342.0,
              27295.0
            ],
            [
              14342.0,
              27599.0
            ],
            [
              14205.0,
              27599.0
            ],
            [
              14205.0,
              27295.0
            ],
            [
              14342.0,
              27295.0
            ]
          ]
        ]
      },
      "properties": {
        "case_id": "S2415106A01",
        "merged_id": 3
      }
    },
    {
      "type": "Feature",
      "geometry": {
        "type": "Polygon",
        "coordinates": [
          [
            [
              8819.0,
              17065.0
            ],
            [
              8819.0,
              17470.0
            ],
            [
              8467.0,
              17470.0
            ],
            [
              8467.0,
              17065.0
            ],
            [
              8819.0,
              17065.0
            ]
          ]
        ]
      },
      "properties": {
        "case_id": "S2415106A01",
        "merged_id": 4
      }
    },
    {
      "type": "Feature",
      "geometry": {
        "type": "Polygon",
        "coordinates": [
          [
            [
              9618.0,
              16806.0
            ],
            [
              9618.0,
              17306.0
            ],
            [
              9176.0,
              17306.0
            ],
            [
              9176.0,
              16806.0
            ],
            [
              9618.0,
              16806.0
            ]
          ]
        ]
      },
      "properties": {
        "case_id": "S2415106A01",
        "merged_id": 5
      }
    },
    {
      "type": "Feature",
      "geometry": {
        "type": "Polygon",
        "coordinates": [
          [
            [
              9401.0,
              17551.0
            ],
            [
              9401.0,
              18203.0
            ],
            [
              8959.0,
              18203.0
            ],
            [
              8959.0,
              17551.0
            ],
            [
              9401.0,
              17551.0
            ]
          ]
        ]
      },
      "properties": {
        "case_id": "S2415106A01",
        "merged_id": 6
      }
    },
    {
      "type": "Feature",
      "geometry": {
        "type": "Polygon",
        "coordinates": [
          [
            [
              10791.0,
              22199.0
            ],
            [
              10791.0,
              22424.0
            ],
            [
              10568.0,
              22424.0
            ],
            [
              10568.0,
              22199.0
            ],
            [
              10791.0,
              22199.0
            ]
          ]
        ]
      },
      "properties": {
        "case_id": "S2415106A01",
        "merged_id": 7
      }
    },
    {
      "type": "Feature",
      "geometry": {
        "type": "Polygon",
        "coordinates": [
          [
            [
              13154.0,
              23384.0
            ],
            [
              13154.0,
              23868.0
            ],
            [
              12938.0,
              23868.0
            ],
            [
              12938.0,
              23384.0
            ],
            [
              13154.0,
              23384.0
            ]
          ]
        ]
      },
      "properties": {
        "case_id": "S2415106A01",
        "merged_id": 8
      }
    },
    {
      "type": "Feature",
      "geometry": {
        "type": "Polygon",
        "coordinates": [
          [
            [
              7619.0,
              25336.0
            ],
            [
              7619.0,
              25940.0
            ],
            [
              7225.0,
              25940.0
            ],
            [
              7225.0,
              25336.0
            ],
            [
              7619.0,
              25336.0
            ]
          ]
        ]
      },
      "properties": {
        "case_id": "S2415106A01",
        "merged_id": 9
      }
    },
    {
      "type": "Feature",
      "geometry": {
        "type": "Polygon",
        "coordinates": [
          [
            [
              6003.0,
              18719.0
            ],
            [
              6003.0,
              19266.0
            ],
            [
              5545.0,
              19266.0
            ],
            [
              5545.0,
              18719.0
            ],
            [
              6003.0,
              18719.0
            ]
          ]
        ]
      },
      "properties": {
        "case_id": "S2415106A01",
        "merged_id": 10
      }
    },
    {
      "type": "Feature",
      "geometry": {
        "type": "Polygon",
        "coordinates": [
          [
            [
              7349.0,
              22883.0
            ],
            [
              7349.0,
              23020.0
            ],
            [
              6814.0,
              23020.0
            ],
            [
              6814.0,
              22883.0
            ],
            [
              7349.0,
              22883.0
            ]
          ]
        ]
      },
      "properties": {
        "case_id": "S2415106A01",
        "merged_id": 11
      }
    },
    {
      "type": "Feature",
      "geometry": {
        "type": "Polygon",
        "coordinates": [
          [
            [
              10327.0,
              13334.0
            ],
            [
              10327.0,
              14108.0
            ],
            [
              9964.0,
              14108.0
            ],
            [
              9964.0,
              13334.0
            ],
            [
              10327.0,
              13334.0
            ]
          ]
        ]
      },
      "properties": {
        "case_id": "S2415106A01",
        "merged_id": 12
      }
    },
    {
      "type": "Feature",
      "geometry": {
        "type": "Polygon",
        "coordinates": [
          [
            [
              12000.0,
              13505.0
            ],
            [
              12000.0,
              14166.0
            ],
            [
              11730.0,
              14166.0
            ],
            [
              11730.0,
              13505.0
            ],
            [
              12000.0,
              13505.0
            ]
          ]
        ]
      },
      "properties": {
        "case_id": "S2415106A01",
        "merged_id": 13
      }
    },
    {
      "type": "Feature",
      "geometry": {
        "type": "Polygon",
        "coordinates": [
          [
            [
              21401.0,
              13128.0
            ],
            [
              21401.0,
              13631.0
            ],
            [
              20668.0,
              13631.0
            ],
            [
              20668.0,
              13128.0
            ],
            [
              21401.0,
              13128.0
            ]
          ]
        ]
      },
      "properties": {
        "case_id": "S2415106A01",
        "merged_id": 14
      }
    },
    {
      "type": "Feature",
      "geometry": {
        "type": "Polygon",
        "coordinates": [
          [
            [
              27045.0,
              13142.0
            ],
            [
              27045.0,
              13477.0
            ],
            [
              26584.0,
              13477.0
            ],
            [
              26584.0,
              13142.0
            ],
            [
              27045.0,
              13142.0
            ]
          ]
        ]
      },
      "properties": {
        "case_id": "S2415106A01",
        "merged_id": 15
      }
    },
    {
      "type": "Feature",
      "geometry": {
        "type": "Polygon",
        "coordinates": [
          [
            [
              8623.0,
              18859.0
            ],
            [
              8623.0,
              19857.0
            ],
            [
              8050.0,
              19857.0
            ],
            [
              8050.0,
              18859.0
            ],
            [
              8623.0,
              18859.0
            ]
          ]
        ]
      },
      "properties": {
        "case_id": "S2415106A01",
        "merged_id": 16
      }
    },
    {
      "type": "Feature",
      "geometry": {
        "type": "Polygon",
        "coordinates": [
          [
            [
              8507.0,
              17972.0
            ],
            [
              8507.0,
              19120.0
            ],
            [
              7450.0,
              19120.0
            ],
            [
              7450.0,
              17972.0
            ],
            [
              8507.0,
              17972.0
            ]
          ]
        ]
      },
      "properties": {
        "case_id": "S2415106A01",
        "merged_id": 17
      }
    },
    {
      "type": "Feature",
      "geometry": {
        "type": "Polygon",
        "coordinates": [
          [
            [
              7615.0,
              17375.0
            ],
            [
              7615.0,
              18607.0
            ],
            [
              6492.0,
              18607.0
            ],
            [
              6492.0,
              17375.0
            ],
            [
              7615.0,
              17375.0
            ]
          ]
        ]
      },
      "properties": {
        "case_id": "S2415106A01",
        "merged_id": 18
      }
    },
    {
      "type": "Feature",
      "geometry": {
        "type": "Polygon",
        "coordinates": [
          [
            [
              11369.0,
              24846.0
            ],
            [
              11369.0,
              25353.0
            ],
            [
              11024.0,
              25353.0
            ],
            [
              11024.0,
              24846.0
            ],
            [
              11369.0,
              24846.0
            ]
          ]
        ]
      },
      "properties": {
        "case_id": "S2415106A01",
        "merged_id": 19
      }
    },
    {
      "type": "Feature",
      "geometry": {
        "type": "Polygon",
        "coordinates": [
          [
            [
              12998.0,
              12019.0
            ],
            [
              12998.0,
              12238.0
            ],
            [
              12217.0,
              12238.0
            ],
            [
              12217.0,
              12019.0
            ],
            [
              12998.0,
              12019.0
            ]
          ]
        ]
      },
      "properties": {
        "case_id": "S2415106A01",
        "merged_id": 20
      }
    },
    {
      "type": "Feature",
      "geometry": {
        "type": "Polygon",
        "coordinates": [
          [
            [
              13841.0,
              11719.0
            ],
            [
              13841.0,
              12010.0
            ],
            [
              13180.0,
              12010.0
            ],
            [
              13180.0,
              11719.0
            ],
            [
              13841.0,
              11719.0
            ]
          ]
        ]
      },
      "properties": {
        "case_id": "S2415106A01",
        "merged_id": 21
      }
    },
    {
      "type": "Feature",
      "geometry": {
        "type": "Polygon",
        "coordinates": [
          [
            [
              22430.0,
              6735.0
            ],
            [
              22430.0,
              7410.0
            ],
            [
              21794.0,
              7410.0
            ],
            [
              21794.0,
              6735.0
            ],
            [
              22430.0,
              6735.0
            ]
          ]
        ]
      },
      "properties": {
        "case_id": "S2415106A01",
        "merged_id": 22
      }
    },
    {
      "type": "Feature",
      "geometry": {
        "type": "Polygon",
        "coordinates": [
          [
            [
              11839.0,
              24084.0
            ],
            [
              11839.0,
              24344.0
            ],
            [
              11381.0,
              24344.0
            ],
            [
              11381.0,
              24084.0
            ],
            [
              11839.0,
              24084.0
            ]
          ]
        ]
      },
      "properties": {
        "case_id": "S2415106A01",
        "merged_id": 23
      }
    },
    {
      "type": "Feature",
      "geometry": {
        "type": "Polygon",
        "coordinates": [
          [
            [
              12711.0,
              24334.0
            ],
            [
              12711.0,
              24721.0
            ],
            [
              11950.0,
              24721.0
            ],
            [
              11950.0,
              24334.0
            ],
            [
              12711.0,
              24334.0
            ]
          ]
        ]
      },
      "properties": {
        "case_id": "S2415106A01",
        "merged_id": 24
      }
    },
    {
      "type": "Feature",
      "geometry": {
        "type": "Polygon",
        "coordinates": [
          [
            [
              12492.0,
              25795.0
            ],
            [
              12492.0,
              27335.0
            ],
            [
              11639.0,
              27335.0
            ],
            [
              11639.0,
              25795.0
            ],
            [
              12492.0,
              25795.0
            ]
          ]
        ]
      },
      "properties": {
        "case_id": "S2415106A01",
        "merged_id": 25
      }
    },
    {
      "type": "Feature",
      "geometry": {
        "type": "Polygon",
        "coordinates": [
          [
            [
              11340.0,
              28861.0
            ],
            [
              11340.0,
              29761.0
            ],
            [
              10487.0,
              29761.0
            ],
            [
              10487.0,
              28861.0
            ],
            [
              11340.0,
              28861.0
            ]
          ]
        ]
      },
      "properties": {
        "case_id": "S2415106A01",
        "merged_id": 26
      }
    },
    {
      "type": "Feature",
      "geometry": {
        "type": "Polygon",
        "coordinates": [
          [
            [
              9070.0,
              24651.0
            ],
            [
              9070.0,
              25656.0
            ],
            [
              8447.0,
              25656.0
            ],
            [
              8447.0,
              24651.0
            ],
            [
              9070.0,
              24651.0
            ]
          ]
        ]
      },
      "properties": {
        "case_id": "S2415106A01",
        "merged_id": 27
      }
    },
    {
      "type": "Feature",
      "geometry": {
        "type": "Polygon",
        "coordinates": [
          [
            [
              11106.0,
              25578.0
            ],
            [
              11106.0,
              26003.0
            ],
            [
              10647.0,
              26003.0
            ],
            [
              10647.0,
              25578.0
            ],
            [
              11106.0,
              25578.0
            ]
          ]
        ]
      },
      "properties": {
        "case_id": "S2415106A01",
        "merged_id": 28
      }
    },
    {
      "type": "Feature",
      "geometry": {
        "type": "Polygon",
        "coordinates": [
          [
            [
              13229.0,
              25280.0
            ],
            [
              13229.0,
              25989.0
            ],
            [
              12764.0,
              25989.0
            ],
            [
              12764.0,
              25280.0
            ],
            [
              13229.0,
              25280.0
            ]
          ]
        ]
      },
      "properties": {
        "case_id": "S2415106A01",
        "merged_id": 29
      }
    },
    {
      "type": "Feature",
      "geometry": {
        "type": "Polygon",
        "coordinates": [
          [
            [
              7041.0,
              11054.0
            ],
            [
              7041.0,
              12627.0
            ],
            [
              6006.0,
              12627.0
            ],
            [
              6006.0,
              11054.0
            ],
            [
              7041.0,
              11054.0
            ]
          ]
        ]
      },
      "properties": {
        "case_id": "S2415106A01",
        "merged_id": 30
      }
    },
    {
      "type": "Feature",
      "geometry": {
        "type": "Polygon",
        "coordinates": [
          [
            [
              22019.0,
              8196.0
            ],
            [
              22019.0,
              8773.0
            ],
            [
              21283.0,
              8773.0
            ],
            [
              21283.0,
              8196.0
            ],
            [
              22019.0,
              8196.0
            ]
          ]
        ]
      },
      "properties": {
        "case_id": "S2415106A01",
        "merged_id": 31
      }
    },
    {
      "type": "Feature",
      "geometry": {
        "type": "Polygon",
        "coordinates": [
          [
            [
              11874.0,
              26829.0
            ],
            [
              11874.0,
              27371.0
            ],
            [
              11034.0,
              27371.0
            ],
            [
              11034.0,
              26829.0
            ],
            [
              11874.0,
              26829.0
            ]
          ]
        ]
      },
      "properties": {
        "case_id": "S2415106A01",
        "merged_id": 32
      }
    },
    {
      "type": "Feature",
      "geometry": {
        "type": "Polygon",
        "coordinates": [
          [
            [
              12004.0,
              28360.0
            ],
            [
              12004.0,
              29042.0
            ],
            [
              10575.0,
              29042.0
            ],
            [
              10575.0,
              28360.0
            ],
            [
              12004.0,
              28360.0
            ]
          ]
        ]
      },
      "properties": {
        "case_id": "S2415106A01",
        "merged_id": 33
      }
    },
    {
      "type": "Feature",
      "geometry": {
        "type": "Polygon",
        "coordinates": [
          [
            [
              7613.0,
              10190.0
            ],
            [
              7613.0,
              10619.0
            ],
            [
              7190.0,
              10619.0
            ],
            [
              7190.0,
              10190.0
            ],
            [
              7613.0,
              10190.0
            ]
          ]
        ]
      },
      "properties": {
        "case_id": "S2415106A01",
        "merged_id": 34
      }
    },
    {
      "type": "Feature",
      "geometry": {
        "type": "Polygon",
        "coordinates": [
          [
            [
              24209.0,
              16876.0
            ],
            [
              24209.0,
              17564.0
            ],
            [
              23441.0,
              17564.0
            ],
            [
              23441.0,
              16876.0
            ],
            [
              24209.0,
              16876.0
            ]
          ]
        ]
      },
      "properties": {
        "case_id": "S2415106A01",
        "merged_id": 35
      }
    },
    {
      "type": "Feature",
      "geometry": {
        "type": "Polygon",
        "coordinates": [
          [
            [
              25950.0,
              14920.0
            ],
            [
              25950.0,
              15933.0
            ],
            [
              25226.0,
              15933.0
            ],
            [
              25226.0,
              14920.0
            ],
            [
              25950.0,
              14920.0
            ]
          ]
        ]
      },
      "properties": {
        "case_id": "S2415106A01",
        "merged_id": 36
      }
    },
    {
      "type": "Feature",
      "geometry": {
        "type": "Polygon",
        "coordinates": [
          [
            [
              24743.0,
              12717.0
            ],
            [
              24743.0,
              13664.0
            ],
            [
              23683.0,
              13664.0
            ],
            [
              23683.0,
              12717.0
            ],
            [
              24743.0,
              12717.0
            ]
          ]
        ]
      },
      "properties": {
        "case_id": "S2415106A01",
        "merged_id": 37
      }
    },
    {
      "type": "Feature",
      "geometry": {
        "type": "Polygon",
        "coordinates": [
          [
            [
              21805.0,
              14968.0
            ],
            [
              21805.0,
              15398.0
            ],
            [
              21397.0,
              15398.0
            ],
            [
              21397.0,
              14968.0
            ],
            [
              21805.0,
              14968.0
            ]
          ]
        ]
      },
      "properties": {
        "case_id": "S2415106A01",
        "merged_id": 38
      }
    },
    {
      "type": "Feature",
      "geometry": {
        "type": "Polygon",
        "coordinates": [
          [
            [
              22552.0,
              15412.0
            ],
            [
              22552.0,
              15881.0
            ],
            [
              21642.0,
              15881.0
            ],
            [
              21642.0,
              15412.0
            ],
            [
              22552.0,
              15412.0
            ]
          ]
        ]
      },
      "properties": {
        "case_id": "S2415106A01",
        "merged_id": 39
      }
    },
    {
      "type": "Feature",
      "geometry": {
        "type": "Polygon",
        "coordinates": [
          [
            [
              24805.0,
              15669.0
            ],
            [
              24805.0,
              16279.0
            ],
            [
              23881.0,
              16279.0
            ],
            [
              23881.0,
              15669.0
            ],
            [
              24805.0,
              15669.0
            ]
          ]
        ]
      },
      "properties": {
        "case_id": "S2415106A01",
        "merged_id": 40
      }
    },
    {
      "type": "Feature",
      "geometry": {
        "type": "Polygon",
        "coordinates": [
          [
            [
              15980.0,
              13652.0
            ],
            [
              15980.0,
              14833.0
            ],
            [
              15056.0,
              14833.0
            ],
            [
              15056.0,
              13652.0
            ],
            [
              15980.0,
              13652.0
            ]
          ]
        ]
      },
      "properties": {
        "case_id": "S2415106A01",
        "merged_id": 41
      }
    },
    {
      "type": "Feature",
      "geometry": {
        "type": "Polygon",
        "coordinates": [
          [
            [
              14765.0,
              15029.0
            ],
            [
              14765.0,
              15299.0
            ],
            [
              14217.0,
              15299.0
            ],
            [
              14217.0,
              15029.0
            ],
            [
              14765.0,
              15029.0
            ]
          ]
        ]
      },
      "properties": {
        "case_id": "S2415106A01",
        "merged_id": 42
      }
    },
    {
      "type": "Feature",
      "geometry": {
        "type": "Polygon",
        "coordinates": [
          [
            [
              14496.0,
              14946.0
            ],
            [
              14496.0,
              15661.0
            ],
            [
              14006.0,
              15661.0
            ],
            [
              14006.0,
              14946.0
            ],
            [
              14496.0,
              14946.0
            ]
          ]
        ]
      },
      "properties": {
        "case_id": "S2415106A01",
        "merged_id": 43
      }
    },
    {
      "type": "Feature",
      "geometry": {
        "type": "Polygon",
        "coordinates": [
          [
            [
              10104.0,
              13363.0
            ],
            [
              10104.0,
              14707.0
            ],
            [
              9218.0,
              14707.0
            ],
            [
              9218.0,
              13363.0
            ],
            [
              10104.0,
              13363.0
            ]
          ]
        ]
      },
      "properties": {
        "case_id": "S2415106A01",
        "merged_id": 44
      }
    },
    {
      "type": "Feature",
      "geometry": {
        "type": "Polygon",
        "coordinates": [
          [
            [
              8273.0,
              13732.0
            ],
            [
              8273.0,
              14702.0
            ],
            [
              7768.0,
              14702.0
            ],
            [
              7768.0,
              13732.0
            ],
            [
              8273.0,
              13732.0
            ]
          ]
        ]
      },
      "properties": {
        "case_id": "S2415106A01",
        "merged_id": 45
      }
    },
    {
      "type": "Feature",
      "geometry": {
        "type": "Polygon",
        "coordinates": [
          [
            [
              8658.0,
              11747.0
            ],
            [
              8658.0,
              12910.0
            ],
            [
              7480.0,
              12910.0
            ],
            [
              7480.0,
              11747.0
            ],
            [
              8658.0,
              11747.0
            ]
          ]
        ]
      },
      "properties": {
        "case_id": "S2415106A01",
        "merged_id": 46
      }
    },
    {
      "type": "Feature",
      "geometry": {
        "type": "Polygon",
        "coordinates": [
          [
            [
              8361.0,
              10468.0
            ],
            [
              8361.0,
              10990.0
            ],
            [
              7658.0,
              10990.0
            ],
            [
              7658.0,
              10468.0
            ],
            [
              8361.0,
              10468.0
            ]
          ]
        ]
      },
      "properties": {
        "case_id": "S2415106A01",
        "merged_id": 47
      }
    },
    {
      "type": "Feature",
      "geometry": {
        "type": "Polygon",
        "coordinates": [
          [
            [
              12354.0,
              20856.0
            ],
            [
              12354.0,
              21291.0
            ],
            [
              11852.0,
              21291.0
            ],
            [
              11852.0,
              20856.0
            ],
            [
              12354.0,
              20856.0
            ]
          ]
        ]
      },
      "properties": {
        "case_id": "S2415106A01",
        "merged_id": 48
      }
    },
    {
      "type": "Feature",
      "geometry": {
        "type": "Polygon",
        "coordinates": [
          [
            [
              11480.0,
              22509.0
            ],
            [
              11480.0,
              23024.0
            ],
            [
              11161.0,
              23024.0
            ],
            [
              11161.0,
              22509.0
            ],
            [
              11480.0,
              22509.0
            ]
          ]
        ]
      },
      "properties": {
        "case_id": "S2415106A01",
        "merged_id": 49
      }
    },
    {
      "type": "Feature",
      "geometry": {
        "type": "Polygon",
        "coordinates": [
          [
            [
              12157.0,
              23167.0
            ],
            [
              12157.0,
              23599.0
            ],
            [
              11906.0,
              23599.0
            ],
            [
              11906.0,
              23167.0
            ],
            [
              12157.0,
              23167.0
            ]
          ]
        ]
      },
      "properties": {
        "case_id": "S2415106A01",
        "merged_id": 50
      }
    },
    {
      "type": "Feature",
      "geometry": {
        "type": "Polygon",
        "coordinates": [
          [
            [
              11886.0,
              24839.0
            ],
            [
              11886.0,
              25584.0
            ],
            [
              11393.0,
              25584.0
            ],
            [
              11393.0,
              24839.0
            ],
            [
              11886.0,
              24839.0
            ]
          ]
        ]
      },
      "properties": {
        "case_id": "S2415106A01",
        "merged_id": 51
      }
    },
    {
      "type": "Feature",
      "geometry": {
        "type": "Polygon",
        "coordinates": [
          [
            [
              11603.0,
              25172.0
            ],
            [
              11603.0,
              27217.0
            ],
            [
              10285.0,
              27217.0
            ],
            [
              10285.0,
              25172.0
            ],
            [
              11603.0,
              25172.0
            ]
          ]
        ]
      },
      "properties": {
        "case_id": "S2415106A01",
        "merged_id": 52
      }
    },
    {
      "type": "Feature",
      "geometry": {
        "type": "Polygon",
        "coordinates": [
          [
            [
              9657.0,
              26541.0
            ],
            [
              9657.0,
              27208.0
            ],
            [
              9266.0,
              27208.0
            ],
            [
              9266.0,
              26541.0
            ],
            [
              9657.0,
              26541.0
            ]
          ]
        ]
      },
      "properties": {
        "case_id": "S2415106A01",
        "merged_id": 53
      }
    },
    {
      "type": "Feature",
      "geometry": {
        "type": "Polygon",
        "coordinates": [
          [
            [
              10607.0,
              28282.0
            ],
            [
              10607.0,
              28729.0
            ],
            [
              9747.0,
              28729.0
            ],
            [
              9747.0,
              28282.0
            ],
            [
              10607.0,
              28282.0
            ]
          ]
        ]
      },
      "properties": {
        "case_id": "S2415106A01",
        "merged_id": 54
      }
    },
    {
      "type": "Feature",
      "geometry": {
        "type": "Polygon",
        "coordinates": [
          [
            [
              17474.0,
              18482.0
            ],
            [
              17474.0,
              19659.0
            ],
            [
              16429.0,
              19659.0
            ],
            [
              16429.0,
              18482.0
            ],
            [
              17474.0,
              18482.0
            ]
          ]
        ]
      },
      "properties": {
        "case_id": "S2415106A01",
        "merged_id": 55
      }
    },
    {
      "type": "Feature",
      "geometry": {
        "type": "Polygon",
        "coordinates": [
          [
            [
              14836.0,
              7060.0
            ],
            [
              14836.0,
              8099.0
            ],
            [
              14061.0,
              8099.0
            ],
            [
              14061.0,
              7060.0
            ],
            [
              14836.0,
              7060.0
            ]
          ]
        ]
      },
      "properties": {
        "case_id": "S2415106A01",
        "merged_id": 56
      }
    },
    {
      "type": "Feature",
      "geometry": {
        "type": "Polygon",
        "coordinates": [
          [
            [
              16195.0,
              9874.0
            ],
            [
              16195.0,
              10763.0
            ],
            [
              15241.0,
              10763.0
            ],
            [
              15241.0,
              9874.0
            ],
            [
              16195.0,
              9874.0
            ]
          ]
        ]
      },
      "properties": {
        "case_id": "S2415106A01",
        "merged_id": 57
      }
    },
    {
      "type": "Feature",
      "geometry": {
        "type": "Polygon",
        "coordinates": [
          [
            [
              8872.0,
              14928.0
            ],
            [
              8872.0,
              15261.0
            ],
            [
              8635.0,
              15261.0
            ],
            [
              8635.0,
              14928.0
            ],
            [
              8872.0,
              14928.0
            ]
          ]
        ]
      },
      "properties": {
        "case_id": "S2415106A01",
        "merged_id": 58
      }
    },
    {
      "type": "Feature",
      "geometry": {
        "type": "Polygon",
        "coordinates": [
          [
            [
              8563.0,
              25514.0
            ],
            [
              8563.0,
              25906.0
            ],
            [
              8370.0,
              25906.0
            ],
            [
              8370.0,
              25514.0
            ],
            [
              8563.0,
              25514.0
            ]
          ]
        ]
      },
      "properties": {
        "case_id": "S2415106A01",
        "merged_id": 59
      }
    },
    {
      "type": "Feature",
      "geometry": {
        "type": "Polygon",
        "coordinates": [
          [
            [
              9403.0,
              25394.0
            ],
            [
              9403.0,
              26021.0
            ],
            [
              8986.0,
              26021.0
            ],
            [
              8986.0,
              25394.0
            ],
            [
              9403.0,
              25394.0
            ]
          ]
        ]
      },
      "properties": {
        "case_id": "S2415106A01",
        "merged_id": 60
      }
    },
    {
      "type": "Feature",
      "geometry": {
        "type": "Polygon",
        "coordinates": [
          [
            [
              11367.0,
              24389.0
            ],
            [
              11367.0,
              24852.0
            ],
            [
              10798.0,
              24852.0
            ],
            [
              10798.0,
              24389.0
            ],
            [
              11367.0,
              24389.0
            ]
          ]
        ]
      },
      "properties": {
        "case_id": "S2415106A01",
        "merged_id": 61
      }
    },
    {
      "type": "Feature",
      "geometry": {
        "type": "Polygon",
        "coordinates": [
          [
            [
              13099.0,
              24912.0
            ],
            [
              13099.0,
              25376.0
            ],
            [
              12549.0,
              25376.0
            ],
            [
              12549.0,
              24912.0
            ],
            [
              13099.0,
              24912.0
            ]
          ]
        ]
      },
      "properties": {
        "case_id": "S2415106A01",
        "merged_id": 62
      }
    },
    {
      "type": "Feature",
      "geometry": {
        "type": "Polygon",
        "coordinates": [
          [
            [
              12712.0,
              25696.0
            ],
            [
              12712.0,
              25895.0
            ],
            [
              11966.0,
              25895.0
            ],
            [
              11966.0,
              25696.0
            ],
            [
              12712.0,
              25696.0
            ]
          ]
        ]
      },
      "properties": {
        "case_id": "S2415106A01",
        "merged_id": 63
      }
    },
    {
      "type": "Feature",
      "geometry": {
        "type": "Polygon",
        "coordinates": [
          [
            [
              11091.0,
              20210.0
            ],
            [
              11091.0,
              20616.0
            ],
            [
              10623.0,
              20616.0
            ],
            [
              10623.0,
              20210.0
            ],
            [
              11091.0,
              20210.0
            ]
          ]
        ]
      },
      "properties": {
        "case_id": "S2415106A01",
        "merged_id": 64
      }
    },
    {
      "type": "Feature",
      "geometry": {
        "type": "Polygon",
        "coordinates": [
          [
            [
              11617.0,
              19810.0
            ],
            [
              11617.0,
              20175.0
            ],
            [
              11102.0,
              20175.0
            ],
            [
              11102.0,
              19810.0
            ],
            [
              11617.0,
              19810.0
            ]
          ]
        ]
      },
      "properties": {
        "case_id": "S2415106A01",
        "merged_id": 65
      }
    },
    {
      "type": "Feature",
      "geometry": {
        "type": "Polygon",
        "coordinates": [
          [
            [
              12693.0,
              21929.0
            ],
            [
              12693.0,
              22196.0
            ],
            [
              12239.0,
              22196.0
            ],
            [
              12239.0,
              21929.0
            ],
            [
              12693.0,
              21929.0
            ]
          ]
        ]
      },
      "properties": {
        "case_id": "S2415106A01",
        "merged_id": 66
      }
    },
    {
      "type": "Feature",
      "geometry": {
        "type": "Polygon",
        "coordinates": [
          [
            [
              11022.0,
              25140.0
            ],
            [
              11022.0,
              25551.0
            ],
            [
              10496.0,
              25551.0
            ],
            [
              10496.0,
              25140.0
            ],
            [
              11022.0,
              25140.0
            ]
          ]
        ]
      },
      "properties": {
        "case_id": "S2415106A01",
        "merged_id": 67
      }
    },
    {
      "type": "Feature",
      "geometry": {
        "type": "Polygon",
        "coordinates": [
          [
            [
              9500.0,
              22518.0
            ],
            [
              9500.0,
              23657.0
            ],
            [
              8888.0,
              23657.0
            ],
            [
              8888.0,
              22518.0
            ],
            [
              9500.0,
              22518.0
            ]
          ]
        ]
      },
      "properties": {
        "case_id": "S2415106A01",
        "merged_id": 68
      }
    },
    {
      "type": "Feature",
      "geometry": {
        "type": "Polygon",
        "coordinates": [
          [
            [
              8251.0,
              9866.0
            ],
            [
              8251.0,
              10095.0
            ],
            [
              7829.0,
              10095.0
            ],
            [
              7829.0,
              9866.0
            ],
            [
              8251.0,
              9866.0
            ]
          ]
        ]
      },
      "properties": {
        "case_id": "S2415106A01",
        "merged_id": 69
      }
    },
    {
      "type": "Feature",
      "geometry": {
        "type": "Polygon",
        "coordinates": [
          [
            [
              9834.0,
              16147.0
            ],
            [
              9834.0,
              21379.0
            ],
            [
              4570.0,
              21379.0
            ],
            [
              4570.0,
              16147.0
            ],
            [
              9834.0,
              16147.0
            ]
          ]
        ]
      },
      "properties": {
        "case_id": "S2415106A01",
        "merged_id": 70
      }
    },
    {
      "type": "Feature",
      "geometry": {
        "type": "Polygon",
        "coordinates": [
          [
            [
              10906.0,
              8723.0
            ],
            [
              10906.0,
              16323.0
            ],
            [
              5802.0,
              16323.0
            ],
            [
              5802.0,
              8723.0
            ],
            [
              10906.0,
              8723.0
            ]
          ]
        ]
      },
      "properties": {
        "case_id": "S2415106A01",
        "merged_id": 71
      }
    },
    {
      "type": "Feature",
      "geometry": {
        "type": "Polygon",
        "coordinates": [
          [
            [
              18151.0,
              6162.0
            ],
            [
              18151.0,
              11407.0
            ],
            [
              13423.0,
              11407.0
            ],
            [
              13423.0,
              6162.0
            ],
            [
              18151.0,
              6162.0
            ]
          ]
        ]
      },
      "properties": {
        "case_id": "S2415106A01",
        "merged_id": 72
      }
    },
    {
      "type": "Feature",
      "geometry": {
        "type": "Polygon",
        "coordinates": [
          [
            [
              23730.0,
              3462.0
            ],
            [
              23730.0,
              10636.0
            ],
            [
              19926.0,
              10636.0
            ],
            [
              19926.0,
              3462.0
            ],
            [
              23730.0,
              3462.0
            ]
          ]
        ]
      },
      "properties": {
        "case_id": "S2415106A01",
        "merged_id": 73
      }
    },
    {
      "type": "Feature",
      "geometry": {
        "type": "Polygon",
        "coordinates": [
          [
            [
              27864.0,
              11852.0
            ],
            [
              27864.0,
              18396.0
            ],
            [
              20647.0,
              18396.0
            ],
            [
              20647.0,
              11852.0
            ],
            [
              27864.0,
              11852.0
            ]
          ]
        ]
      },
      "properties": {
        "case_id": "S2415106A01",
        "merged_id": 74
      }
    },
    {
      "type": "Feature",
      "geometry": {
        "type": "Polygon",
        "coordinates": [
          [
            [
              19978.0,
              11655.0
            ],
            [
              19978.0,
              22275.0
            ],
            [
              11514.0,
              22275.0
            ],
            [
              11514.0,
              11655.0
            ],
            [
              19978.0,
              11655.0
            ]
          ]
        ]
      },
      "properties": {
        "case_id": "S2415106A01",
        "merged_id": 75
      }
    },
    {
      "type": "Feature",
      "geometry": {
        "type": "Polygon",
        "coordinates": [
          [
            [
              10117.0,
              21739.0
            ],
            [
              10117.0,
              28683.0
            ],
            [
              6885.0,
              28683.0
            ],
            [
              6885.0,
              21739.0
            ],
            [
              10117.0,
              21739.0
            ]
          ]
        ]
      },
      "properties": {
        "case_id": "S2415106A01",
        "merged_id": 76
      }
    },
    {
      "type": "Feature",
      "geometry": {
        "type": "Polygon",
        "coordinates": [
          [
            [
              14829.0,
              19138.0
            ],
            [
              14829.0,
              30146.0
            ],
            [
              9501.0,
              30146.0
            ],
            [
              9501.0,
              19138.0
            ],
            [
              14829.0,
              19138.0
            ]
          ]
        ]
      },
      "properties": {
        "case_id": "S2415106A01",
        "merged_id": 77
      }
    },
    {
      "type": "Feature",
      "geometry": {
        "type": "Polygon",
        "coordinates": [
          [
            [
              12302.0,
              28663.0
            ],
            [
              12302.0,
              30139.0
            ],
            [
              9518.0,
              30139.0
            ],
            [
              9518.0,
              28663.0
            ],
            [
              12302.0,
              28663.0
            ]
          ]
        ]
      },
      "properties": {
        "case_id": "S2415106A01",
        "merged_id": 78
      }
    },
    {
      "type": "Feature",
      "geometry": {
        "type": "Polygon",
        "coordinates": [
          [
            [
              19577.0,
              16458.0
            ],
            [
              19577.0,
              17399.0
            ],
            [
              19049.0,
              17399.0
            ],
            [
              19049.0,
              16458.0
            ],
            [
              19577.0,
              16458.0
            ]
          ]
        ]
      },
      "properties": {
        "case_id": "S2415106A01",
        "merged_id": 79
      }
    },
    {
      "type": "Feature",
      "geometry": {
        "type": "Polygon",
        "coordinates": [
          [
            [
              18661.0,
              13850.0
            ],
            [
              18661.0,
              14519.0
            ],
            [
              18123.0,
              14519.0
            ],
            [
              18123.0,
              13850.0
            ],
            [
              18661.0,
              13850.0
            ]
          ]
        ]
      },
      "properties": {
        "case_id": "S2415106A01",
        "merged_id": 80
      }
    },
    {
      "type": "Feature",
      "geometry": {
        "type": "Polygon",
        "coordinates": [
          [
            [
              17876.0,
              13073.0
            ],
            [
              17876.0,
              13539.0
            ],
            [
              16538.0,
              13539.0
            ],
            [
              16538.0,
              13073.0
            ],
            [
              17876.0,
              13073.0
            ]
          ]
        ]
      },
      "properties": {
        "case_id": "S2415106A01",
        "merged_id": 81
      }
    },
    {
      "type": "Feature",
      "geometry": {
        "type": "Polygon",
        "coordinates": [
          [
            [
              10607.0,
              13538.0
            ],
            [
              10607.0,
              13925.0
            ],
            [
              10376.0,
              13925.0
            ],
            [
              10376.0,
              13538.0
            ],
            [
              10607.0,
              13538.0
            ]
          ]
        ]
      },
      "properties": {
        "case_id": "S2415106A01",
        "merged_id": 82
      }
    },
    {
      "type": "Feature",
      "geometry": {
        "type": "Polygon",
        "coordinates": [
          [
            [
              7842.0,
              14743.0
            ],
            [
              7842.0,
              15036.0
            ],
            [
              7478.0,
              15036.0
            ],
            [
              7478.0,
              14743.0
            ],
            [
              7842.0,
              14743.0
            ]
          ]
        ]
      },
      "properties": {
        "case_id": "S2415106A01",
        "merged_id": 83
      }
    },
    {
      "type": "Feature",
      "geometry": {
        "type": "Polygon",
        "coordinates": [
          [
            [
              7969.0,
              15156.0
            ],
            [
              7969.0,
              15355.0
            ],
            [
              7787.0,
              15355.0
            ],
            [
              7787.0,
              15156.0
            ],
            [
              7969.0,
              15156.0
            ]
          ]
        ]
      },
      "properties": {
        "case_id": "S2415106A01",
        "merged_id": 84
      }
    },
    {
      "type": "Feature",
      "geometry": {
        "type": "Polygon",
        "coordinates": [
          [
            [
              8393.0,
              15801.0
            ],
            [
              8393.0,
              16198.0
            ],
            [
              8158.0,
              16198.0
            ],
            [
              8158.0,
              15801.0
            ],
            [
              8393.0,
              15801.0
            ]
          ]
        ]
      },
      "properties": {
        "case_id": "S2415106A01",
        "merged_id": 85
      }
    },
    {
      "type": "Feature",
      "geometry": {
        "type": "Polygon",
        "coordinates": [
          [
            [
              9632.0,
              17199.0
            ],
            [
              9632.0,
              17645.0
            ],
            [
              8667.0,
              17645.0
            ],
            [
              8667.0,
              17199.0
            ],
            [
              9632.0,
              17199.0
            ]
          ]
        ]
      },
      "properties": {
        "case_id": "S2415106A01",
        "merged_id": 86
      }
    },
    {
      "type": "Feature",
      "geometry": {
        "type": "Polygon",
        "coordinates": [
          [
            [
              8861.0,
              21152.0
            ],
            [
              8861.0,
              21375.0
            ],
            [
              8483.0,
              21375.0
            ],
            [
              8483.0,
              21152.0
            ],
            [
              8861.0,
              21152.0
            ]
          ]
        ]
      },
      "properties": {
        "case_id": "S2415106A01",
        "merged_id": 87
      }
    },
    {
      "type": "Feature",
      "geometry": {
        "type": "Polygon",
        "coordinates": [
          [
            [
              6076.0,
              18947.0
            ],
            [
              6076.0,
              19377.0
            ],
            [
              5829.0,
              19377.0
            ],
            [
              5829.0,
              18947.0
            ],
            [
              6076.0,
              18947.0
            ]
          ]
        ]
      },
      "properties": {
        "case_id": "S2415106A01",
        "merged_id": 88
      }
    },
    {
      "type": "Feature",
      "geometry": {
        "type": "Polygon",
        "coordinates": [
          [
            [
              5232.0,
              18238.0
            ],
            [
              5232.0,
              18529.0
            ],
            [
              4917.0,
              18529.0
            ],
            [
              4917.0,
              18238.0
            ],
            [
              5232.0,
              18238.0
            ]
          ]
        ]
      },
      "properties": {
        "case_id": "S2415106A01",
        "merged_id": 89
      }
    },
    {
      "type": "Feature",
      "geometry": {
        "type": "Polygon",
        "coordinates": [
          [
            [
              9374.0,
              18558.0
            ],
            [
              9374.0,
              20614.0
            ],
            [
              8647.0,
              20614.0
            ],
            [
              8647.0,
              18558.0
            ],
            [
              9374.0,
              18558.0
            ]
          ]
        ]
      },
      "properties": {
        "case_id": "S2415106A01",
        "merged_id": 90
      }
    },
    {
      "type": "Feature",
      "geometry": {
        "type": "Polygon",
        "coordinates": [
          [
            [
              7706.0,
              10267.0
            ],
            [
              7706.0,
              11825.0
            ],
            [
              7082.0,
              11825.0
            ],
            [
              7082.0,
              10267.0
            ],
            [
              7706.0,
              10267.0
            ]
          ]
        ]
      },
      "properties": {
        "case_id": "S2415106A01",
        "merged_id": 91
      }
    },
    {
      "type": "Feature",
      "geometry": {
        "type": "Polygon",
        "coordinates": [
          [
            [
              7297.0,
              11234.0
            ],
            [
              7297.0,
              12190.0
            ],
            [
              6760.0,
              12190.0
            ],
            [
              6760.0,
              11234.0
            ],
            [
              7297.0,
              11234.0
            ]
          ]
        ]
      },
      "properties": {
        "case_id": "S2415106A01",
        "merged_id": 92
      }
    },
    {
      "type": "Feature",
      "geometry": {
        "type": "Polygon",
        "coordinates": [
          [
            [
              7867.0,
              12266.0
            ],
            [
              7867.0,
              12749.0
            ],
            [
              7147.0,
              12749.0
            ],
            [
              7147.0,
              12266.0
            ],
            [
              7867.0,
              12266.0
            ]
          ]
        ]
      },
      "properties": {
        "case_id": "S2415106A01",
        "merged_id": 93
      }
    },
    {
      "type": "Feature",
      "geometry": {
        "type": "Polygon",
        "coordinates": [
          [
            [
              9178.0,
              13254.0
            ],
            [
              9178.0,
              13931.0
            ],
            [
              8619.0,
              13931.0
            ],
            [
              8619.0,
              13254.0
            ],
            [
              9178.0,
              13254.0
            ]
          ]
        ]
      },
      "properties": {
        "case_id": "S2415106A01",
        "merged_id": 94
      }
    },
    {
      "type": "Feature",
      "geometry": {
        "type": "Polygon",
        "coordinates": [
          [
            [
              10876.0,
              27085.0
            ],
            [
              10876.0,
              28170.0
            ],
            [
              10059.0,
              28170.0
            ],
            [
              10059.0,
              27085.0
            ],
            [
              10876.0,
              27085.0
            ]
          ]
        ]
      },
      "properties": {
        "case_id": "S2415106A01",
        "merged_id": 95
      }
    },
    {
      "type": "Feature",
      "geometry": {
        "type": "Polygon",
        "coordinates": [
          [
            [
              15153.0,
              17972.0
            ],
            [
              15153.0,
              19154.0
            ],
            [
              14250.0,
              19154.0
            ],
            [
              14250.0,
              17972.0
            ],
            [
              15153.0,
              17972.0
            ]
          ]
        ]
      },
      "properties": {
        "case_id": "S2415106A01",
        "merged_id": 96
      }
    },
    {
      "type": "Feature",
      "geometry": {
        "type": "Polygon",
        "coordinates": [
          [
            [
              9726.0,
              24538.0
            ],
            [
              9726.0,
              25376.0
            ],
            [
              9371.0,
              25376.0
            ],
            [
              9371.0,
              24538.0
            ],
            [
              9726.0,
              24538.0
            ]
          ]
        ]
      },
      "properties": {
        "case_id": "S2415106A01",
        "merged_id": 97
      }
    },
    {
      "type": "Feature",
      "geometry": {
        "type": "Polygon",
        "coordinates": [
          [
            [
              9909.0,
              25849.0
            ],
            [
              9909.0,
              27021.0
            ],
            [
              9393.0,
              27021.0
            ],
            [
              9393.0,
              25849.0
            ],
            [
              9909.0,
              25849.0
            ]
          ]
        ]
      },
      "properties": {
        "case_id": "S2415106A01",
        "merged_id": 98
      }
    },
    {
      "type": "Feature",
      "geometry": {
        "type": "Polygon",
        "coordinates": [
          [
            [
              8673.0,
              25710.0
            ],
            [
              8673.0,
              26096.0
            ],
            [
              8393.0,
              26096.0
            ],
            [
              8393.0,
              25710.0
            ],
            [
              8673.0,
              25710.0
            ]
          ]
        ]
      },
      "properties": {
        "case_id": "S2415106A01",
        "merged_id": 99
      }
    },
    {
      "type": "Feature",
      "geometry": {
        "type": "Polygon",
        "coordinates": [
          [
            [
              7738.0,
              24710.0
            ],
            [
              7738.0,
              25043.0
            ],
            [
              7362.0,
              25043.0
            ],
            [
              7362.0,
              24710.0
            ],
            [
              7738.0,
              24710.0
            ]
          ]
        ]
      },
      "properties": {
        "case_id": "S2415106A01",
        "merged_id": 100
      }
    },
    {
      "type": "Feature",
      "geometry": {
        "type": "Polygon",
        "coordinates": [
          [
            [
              8243.0,
              26032.0
            ],
            [
              8243.0,
              26397.0
            ],
            [
              7845.0,
              26397.0
            ],
            [
              7845.0,
              26032.0
            ],
            [
              8243.0,
              26032.0
            ]
          ]
        ]
      },
      "properties": {
        "case_id": "S2415106A01",
        "merged_id": 101
      }
    },
    {
      "type": "Feature",
      "geometry": {
        "type": "Polygon",
        "coordinates": [
          [
            [
              12681.0,
              20755.0
            ],
            [
              12681.0,
              21475.0
            ],
            [
              12079.0,
              21475.0
            ],
            [
              12079.0,
              20755.0
            ],
            [
              12681.0,
              20755.0
            ]
          ]
        ]
      },
      "properties": {
        "case_id": "S2415106A01",
        "merged_id": 102
      }
    },
    {
      "type": "Feature",
      "geometry": {
        "type": "Polygon",
        "coordinates": [
          [
            [
              12778.0,
              21615.0
            ],
            [
              12778.0,
              22453.0
            ],
            [
              12273.0,
              22453.0
            ],
            [
              12273.0,
              21615.0
            ],
            [
              12778.0,
              21615.0
            ]
          ]
        ]
      },
      "properties": {
        "case_id": "S2415106A01",
        "merged_id": 103
      }
    },
    {
      "type": "Feature",
      "geometry": {
        "type": "Polygon",
        "coordinates": [
          [
            [
              11563.0,
              22120.0
            ],
            [
              11563.0,
              22679.0
            ],
            [
              11306.0,
              22679.0
            ],
            [
              11306.0,
              22120.0
            ],
            [
              11563.0,
              22120.0
            ]
          ]
        ]
      },
      "properties": {
        "case_id": "S2415106A01",
        "merged_id": 104
      }
    },
    {
      "type": "Feature",
      "geometry": {
        "type": "Polygon",
        "coordinates": [
          [
            [
              14196.0,
              26548.0
            ],
            [
              14196.0,
              27064.0
            ],
            [
              13681.0,
              27064.0
            ],
            [
              13681.0,
              26548.0
            ],
            [
              14196.0,
              26548.0
            ]
          ]
        ]
      },
      "properties": {
        "case_id": "S2415106A01",
        "merged_id": 105
      }
    },
    {
      "type": "Feature",
      "geometry": {
        "type": "Polygon",
        "coordinates": [
          [
            [
              15121.0,
              14813.0
            ],
            [
              15121.0,
              15210.0
            ],
            [
              14143.0,
              15210.0
            ],
            [
              14143.0,
              14813.0
            ],
            [
              15121.0,
              14813.0
            ]
          ]
        ]
      },
      "properties": {
        "case_id": "S2415106A01",
        "merged_id": 106
      }
    },
    {
      "type": "Feature",
      "geometry": {
        "type": "Polygon",
        "coordinates": [
          [
            [
              13595.0,
              13147.0
            ],
            [
              13595.0,
              13792.0
            ],
            [
              12928.0,
              13792.0
            ],
            [
              12928.0,
              13147.0
            ],
            [
              13595.0,
              13147.0
            ]
          ]
        ]
      },
      "properties": {
        "case_id": "S2415106A01",
        "merged_id": 107
      }
    },
    {
      "type": "Feature",
      "geometry": {
        "type": "Polygon",
        "coordinates": [
          [
            [
              13014.0,
              14222.0
            ],
            [
              13014.0,
              14877.0
            ],
            [
              12445.0,
              14877.0
            ],
            [
              12445.0,
              14222.0
            ],
            [
              13014.0,
              14222.0
            ]
          ]
        ]
      },
      "properties": {
        "case_id": "S2415106A01",
        "merged_id": 108
      }
    },
    {
      "type": "Feature",
      "geometry": {
        "type": "Polygon",
        "coordinates": [
          [
            [
              15604.0,
              15683.0
            ],
            [
              15604.0,
              16210.0
            ],
            [
              15110.0,
              16210.0
            ],
            [
              15110.0,
              15683.0
            ],
            [
              15604.0,
              15683.0
            ]
          ]
        ]
      },
      "properties": {
        "case_id": "S2415106A01",
        "merged_id": 109
      }
    },
    {
      "type": "Feature",
      "geometry": {
        "type": "Polygon",
        "coordinates": [
          [
            [
              16636.0,
              17274.0
            ],
            [
              16636.0,
              17843.0
            ],
            [
              15916.0,
              17843.0
            ],
            [
              15916.0,
              17274.0
            ],
            [
              16636.0,
              17274.0
            ]
          ]
        ]
      },
      "properties": {
        "case_id": "S2415106A01",
        "merged_id": 110
      }
    },
    {
      "type": "Feature",
      "geometry": {
        "type": "Polygon",
        "coordinates": [
          [
            [
              18344.0,
              18928.0
            ],
            [
              18344.0,
              19810.0
            ],
            [
              17807.0,
              19810.0
            ],
            [
              17807.0,
              18928.0
            ],
            [
              18344.0,
              18928.0
            ]
          ]
        ]
      },
      "properties": {
        "case_id": "S2415106A01",
        "merged_id": 111
      }
    },
    {
      "type": "Feature",
      "geometry": {
        "type": "Polygon",
        "coordinates": [
          [
            [
              26329.0,
              15855.0
            ],
            [
              26329.0,
              16457.0
            ],
            [
              25942.0,
              16457.0
            ],
            [
              25942.0,
              15855.0
            ],
            [
              26329.0,
              15855.0
            ]
          ]
        ]
      },
      "properties": {
        "case_id": "S2415106A01",
        "merged_id": 112
      }
    },
    {
      "type": "Feature",
      "geometry": {
        "type": "Polygon",
        "coordinates": [
          [
            [
              21676.0,
              13093.0
            ],
            [
              21676.0,
              13641.0
            ],
            [
              21160.0,
              13641.0
            ],
            [
              21160.0,
              13093.0
            ],
            [
              21676.0,
              13093.0
            ]
          ]
        ]
      },
      "properties": {
        "case_id": "S2415106A01",
        "merged_id": 113
      }
    },
    {
      "type": "Feature",
      "geometry": {
        "type": "Polygon",
        "coordinates": [
          [
            [
              16474.0,
              13571.0
            ],
            [
              16474.0,
              14103.0
            ],
            [
              14316.0,
              14103.0
            ],
            [
              14316.0,
              13571.0
            ],
            [
              16474.0,
              13571.0
            ]
          ]
        ]
      },
      "properties": {
        "case_id": "S2415106A01",
        "merged_id": 114
      }
    },
    {
      "type": "Feature",
      "geometry": {
        "type": "Polygon",
        "coordinates": [
          [
            [
              8826.0,
              14035.0
            ],
            [
              8826.0,
              14963.0
            ],
            [
              8090.0,
              14963.0
            ],
            [
              8090.0,
              14035.0
            ],
            [
              8826.0,
              14035.0
            ]
          ]
        ]
      },
      "properties": {
        "case_id": "S2415106A01",
        "merged_id": 115
      }
    },
    {
      "type": "Feature",
      "geometry": {
        "type": "Polygon",
        "coordinates": [
          [
            [
              9562.0,
              9507.0
            ],
            [
              9562.0,
              9923.0
            ],
            [
              8842.0,
              9923.0
            ],
            [
              8842.0,
              9507.0
            ],
            [
              9562.0,
              9507.0
            ]
          ]
        ]
      },
      "properties": {
        "case_id": "S2415106A01",
        "merged_id": 116
      }
    },
    {
      "type": "Feature",
      "geometry": {
        "type": "Polygon",
        "coordinates": [
          [
            [
              9674.0,
              12627.0
            ],
            [
              9674.0,
              13043.0
            ],
            [
              8730.0,
              13043.0
            ],
            [
              8730.0,
              12627.0
            ],
            [
              9674.0,
              12627.0
            ]
          ]
        ]
      },
      "properties": {
        "case_id": "S2415106A01",
        "merged_id": 117
      }
    },
    {
      "type": "Feature",
      "geometry": {
        "type": "Polygon",
        "coordinates": [
          [
            [
              6346.0,
              16531.0
            ],
            [
              6346.0,
              17267.0
            ],
            [
              5162.0,
              17267.0
            ],
            [
              5162.0,
              16531.0
            ],
            [
              6346.0,
              16531.0
            ]
          ]
        ]
      },
      "properties": {
        "case_id": "S2415106A01",
        "merged_id": 118
      }
    },
    {
      "type": "Feature",
      "geometry": {
        "type": "Polygon",
        "coordinates": [
          [
            [
              6922.0,
              18771.0
            ],
            [
              6922.0,
              19379.0
            ],
            [
              6314.0,
              19379.0
            ],
            [
              6314.0,
              18771.0
            ],
            [
              6922.0,
              18771.0
            ]
          ]
        ]
      },
      "properties": {
        "case_id": "S2415106A01",
        "merged_id": 119
      }
    },
    {
      "type": "Feature",
      "geometry": {
        "type": "Polygon",
        "coordinates": [
          [
            [
              9290.0,
              17731.0
            ],
            [
              9290.0,
              18291.0
            ],
            [
              8586.0,
              18291.0
            ],
            [
              8586.0,
              17731.0
            ],
            [
              9290.0,
              17731.0
            ]
          ]
        ]
      },
      "properties": {
        "case_id": "S2415106A01",
        "merged_id": 120
      }
    },
    {
      "type": "Feature",
      "geometry": {
        "type": "Polygon",
        "coordinates": [
          [
            [
              7466.0,
              20083.0
            ],
            [
              7466.0,
              20739.0
            ],
            [
              7082.0,
              20739.0
            ],
            [
              7082.0,
              20083.0
            ],
            [
              7466.0,
              20083.0
            ]
          ]
        ]
      },
      "properties": {
        "case_id": "S2415106A01",
        "merged_id": 121
      }
    },
    {
      "type": "Feature",
      "geometry": {
        "type": "Polygon",
        "coordinates": [
          [
            [
              8922.0,
              20275.0
            ],
            [
              8922.0,
              20851.0
            ],
            [
              8522.0,
              20851.0
            ],
            [
              8522.0,
              20275.0
            ],
            [
              8922.0,
              20275.0
            ]
          ]
        ]
      },
      "properties": {
        "case_id": "S2415106A01",
        "merged_id": 122
      }
    },
    {
      "type": "Feature",
      "geometry": {
        "type": "Polygon",
        "coordinates": [
          [
            [
              13936.0,
              26165.0
            ],
            [
              13936.0,
              26364.0
            ],
            [
              13553.0,
              26364.0
            ],
            [
              13553.0,
              26165.0
            ],
            [
              13936.0,
              26165.0
            ]
          ]
        ]
      },
      "properties": {
        "case_id": "S2415106A01",
        "merged_id": 123
      }
    },
    {
      "type": "Feature",
      "geometry": {
        "type": "Polygon",
        "coordinates": [
          [
            [
              13580.0,
              26342.0
            ],
            [
              13580.0,
              26561.0
            ],
            [
              13479.0,
              26561.0
            ],
            [
              13479.0,
              26342.0
            ],
            [
              13580.0,
              26342.0
            ]
          ]
        ]
      },
      "properties": {
        "case_id": "S2415106A01",
        "merged_id": 124
      }
    },
    {
      "type": "Feature",
      "geometry": {
        "type": "Polygon",
        "coordinates": [
          [
            [
              7769.0,
              22848.0
            ],
            [
              7769.0,
              23164.0
            ],
            [
              6965.0,
              23164.0
            ],
            [
              6965.0,
              22848.0
            ],
            [
              7769.0,
              22848.0
            ]
          ]
        ]
      },
      "properties": {
        "case_id": "S2415106A01",
        "merged_id": 125
      }
    },
    {
      "type": "Feature",
      "geometry": {
        "type": "Polygon",
        "coordinates": [
          [
            [
              22460.0,
              7135.0
            ],
            [
              22460.0,
              7424.0
            ],
            [
              22084.0,
              7424.0
            ],
            [
              22084.0,
              7135.0
            ],
            [
              22460.0,
              7135.0
            ]
          ]
        ]
      },
      "properties": {
        "case_id": "S2415106A01",
        "merged_id": 126
      }
    },
    {
      "type": "Feature",
      "geometry": {
        "type": "Polygon",
        "coordinates": [
          [
            [
              21204.0,
              7864.0
            ],
            [
              21204.0,
              9199.0
            ],
            [
              20540.0,
              9199.0
            ],
            [
              20540.0,
              7864.0
            ],
            [
              21204.0,
              7864.0
            ]
          ]
        ]
      },
      "properties": {
        "case_id": "S2415106A01",
        "merged_id": 127
      }
    },
    {
      "type": "Feature",
      "geometry": {
        "type": "Polygon",
        "coordinates": [
          [
            [
              22914.0,
              7987.0
            ],
            [
              22914.0,
              8189.0
            ],
            [
              22604.0,
              8189.0
            ],
            [
              22604.0,
              7987.0
            ],
            [
              22914.0,
              7987.0
            ]
          ]
        ]
      },
      "properties": {
        "case_id": "S2415106A01",
        "merged_id": 128
      }
    },
    {
      "type": "Feature",
      "geometry": {
        "type": "Polygon",
        "coordinates": [
          [
            [
              22272.0,
              7626.0
            ],
            [
              22272.0,
              8037.0
            ],
            [
              21933.0,
              8037.0
            ],
            [
              21933.0,
              7626.0
            ],
            [
              22272.0,
              7626.0
            ]
          ]
        ]
      },
      "properties": {
        "case_id": "S2415106A01",
        "merged_id": 129
      }
    },
    {
      "type": "Feature",
      "geometry": {
        "type": "Polygon",
        "coordinates": [
          [
            [
              16205.0,
              6211.0
            ],
            [
              16205.0,
              6556.0
            ],
            [
              15411.0,
              6556.0
            ],
            [
              15411.0,
              6211.0
            ],
            [
              16205.0,
              6211.0
            ]
          ]
        ]
      },
      "properties": {
        "case_id": "S2415106A01",
        "merged_id": 130
      }
    },
    {
      "type": "Feature",
      "geometry": {
        "type": "Polygon",
        "coordinates": [
          [
            [
              17003.0,
              7139.0
            ],
            [
              17003.0,
              7288.0
            ],
            [
              16752.0,
              7288.0
            ],
            [
              16752.0,
              7139.0
            ],
            [
              17003.0,
              7139.0
            ]
          ]
        ]
      },
      "properties": {
        "case_id": "S2415106A01",
        "merged_id": 131
      }
    },
    {
      "type": "Feature",
      "geometry": {
        "type": "Polygon",
        "coordinates": [
          [
            [
              18038.0,
              8809.0
            ],
            [
              18038.0,
              9258.0
            ],
            [
              17758.0,
              9258.0
            ],
            [
              17758.0,
              8809.0
            ],
            [
              18038.0,
              8809.0
            ]
          ]
        ]
      },
      "properties": {
        "case_id": "S2415106A01",
        "merged_id": 132
      }
    },
    {
      "type": "Feature",
      "geometry": {
        "type": "Polygon",
        "coordinates": [
          [
            [
              15153.0,
              9802.0
            ],
            [
              15153.0,
              10408.0
            ],
            [
              14378.0,
              10408.0
            ],
            [
              14378.0,
              9802.0
            ],
            [
              15153.0,
              9802.0
            ]
          ]
        ]
      },
      "properties": {
        "case_id": "S2415106A01",
        "merged_id": 133
      }
    },
    {
      "type": "Feature",
      "geometry": {
        "type": "Polygon",
        "coordinates": [
          [
            [
              14610.0,
              10821.0
            ],
            [
              14610.0,
              11280.0
            ],
            [
              14010.0,
              11280.0
            ],
            [
              14010.0,
              10821.0
            ],
            [
              14610.0,
              10821.0
            ]
          ]
        ]
      },
      "properties": {
        "case_id": "S2415106A01",
        "merged_id": 134
      }
    },
    {
      "type": "Feature",
      "geometry": {
        "type": "Polygon",
        "coordinates": [
          [
            [
              15010.0,
              10144.0
            ],
            [
              15010.0,
              10460.0
            ],
            [
              14206.0,
              10460.0
            ],
            [
              14206.0,
              10144.0
            ],
            [
              15010.0,
              10144.0
            ]
          ]
        ]
      },
      "properties": {
        "case_id": "S2415106A01",
        "merged_id": 135
      }
    },
    {
      "type": "Feature",
      "geometry": {
        "type": "Polygon",
        "coordinates": [
          [
            [
              12861.0,
              10890.0
            ],
            [
              12861.0,
              11192.0
            ],
            [
              12412.0,
              11192.0
            ],
            [
              12412.0,
              10890.0
            ],
            [
              12861.0,
              10890.0
            ]
          ]
        ]
      },
      "properties": {
        "case_id": "S2415106A01",
        "merged_id": 136
      }
    },
    {
      "type": "Feature",
      "geometry": {
        "type": "Polygon",
        "coordinates": [
          [
            [
              12812.0,
              10554.0
            ],
            [
              12812.0,
              10857.0
            ],
            [
              12164.0,
              10857.0
            ],
            [
              12164.0,
              10554.0
            ],
            [
              12812.0,
              10554.0
            ]
          ]
        ]
      },
      "properties": {
        "case_id": "S2415106A01",
        "merged_id": 137
      }
    },
    {
      "type": "Feature",
      "geometry": {
        "type": "Polygon",
        "coordinates": [
          [
            [
              14670.0,
              7558.0
            ],
            [
              14670.0,
              8908.0
            ],
            [
              13717.0,
              8908.0
            ],
            [
              13717.0,
              7558.0
            ],
            [
              14670.0,
              7558.0
            ]
          ]
        ]
      },
      "properties": {
        "case_id": "S2415106A01",
        "merged_id": 138
      }
    },
    {
      "type": "Feature",
      "geometry": {
        "type": "Polygon",
        "coordinates": [
          [
            [
              16547.0,
              7717.0
            ],
            [
              16547.0,
              8150.0
            ],
            [
              15789.0,
              8150.0
            ],
            [
              15789.0,
              7717.0
            ],
            [
              16547.0,
              7717.0
            ]
          ]
        ]
      },
      "properties": {
        "case_id": "S2415106A01",
        "merged_id": 139
      }
    },
    {
      "type": "Feature",
      "geometry": {
        "type": "Polygon",
        "coordinates": [
          [
            [
              15529.0,
              8337.0
            ],
            [
              15529.0,
              8648.0
            ],
            [
              15082.0,
              8648.0
            ],
            [
              15082.0,
              8337.0
            ],
            [
              15529.0,
              8337.0
            ]
          ]
        ]
      },
      "properties": {
        "case_id": "S2415106A01",
        "merged_id": 140
      }
    },
    {
      "type": "Feature",
      "geometry": {
        "type": "Polygon",
        "coordinates": [
          [
            [
              15305.0,
              8879.0
            ],
            [
              15305.0,
              9514.0
            ],
            [
              14851.0,
              9514.0
            ],
            [
              14851.0,
              8879.0
            ],
            [
              15305.0,
              8879.0
            ]
          ]
        ]
      },
      "properties": {
        "case_id": "S2415106A01",
        "merged_id": 141
      }
    }
  ]
}