{
  "type": "FeatureCollection",
  "features": [
    {
      "type": "Feature",
      "id": "e65cc92c-89c2-40eb-9c46-9a9e8933e1c2",
      "geometry": {
        "type": "Polygon",
        "coordinates": [
          [
            [
              42057.0,
              20218.0
            ],
            [
              42889.0,
              20218.0
            ],
            [
              42889.0,
              20778.0
            ],
            [
              42057.0,
              20778.0
            ],
            [
              42057.0,
              20218.0
            ]
          ]
        ]
      },
      "properties": {
        "objectType": "annotation",
        "classification": {
          "name": "A | Basal Plasmacytosis",
          "color": [
            202,
            65,
            86
          ]
        },
        "case_key": "2224413",
        "source": "A",
        "orig_class": "Basal Plasmacytosis",
        "match": {
          "status": "unmatched"
        }
      }
    },
    {
      "type": "Feature",
      "id": "6d012150-132e-4d0e-a4a2-7dc6630edb93",
      "geometry": {
        "type": "Polygon",
        "coordinates": [
          [
            [
              42969.0,
              19914.0
            ],
            [
              43561.0,
              19914.0
            ],
            [
              43561.0,
              20282.0
            ],
            [
              42969.0,
              20282.0
            ],
            [
              42969.0,
              19914.0
            ]
          ]
        ]
      },
      "properties": {
        "objectType": "annotation",
        "classification": {
          "name": "A | Basal Plasmacytosis",
          "color": [
            202,
            65,
            86
          ]
        },
        "case_key": "2224413",
        "source": "A",
        "orig_class": "Basal Plasmacytosis",
        "match": {
          "status": "unmatched"
        }
      }
    },
    {
      "type": "Feature",
      "id": "ebaac97e-9b20-4184-b0ec-4fd25c876ac3",
      "geometry": {
        "type": "Polygon",
        "coordinates": [
          [
            [
              44602.0,
              9160.0
            ],
            [
              44801.0,
              9160.0
            ],
            [
              44801.0,
              9408.0
            ],
            [
              44602.0,
              9408.0
            ],
            [
              44602.0,
              9160.0
            ]
          ]
        ]
      },
      "properties": {
        "objectType": "annotation",
        "classification": {
          "name": "A | Basal Plasmacytosis",
          "color": [
            202,
            65,
            86
          ]
        },
        "case_key": "2224413",
        "source": "A",
        "orig_class": "Basal Plasmacytosis",
        "match": {
          "status": "unmatched"
        }
      }
    },
    {
      "type": "Feature",
      "id": "e4572393-588e-49d1-940d-cd64387cb1ee",
      "geometry": {
        "type": "Polygon",
        "coordinates": [
          [
            [
              44823.0,
              9369.0
            ],
            [
              44983.0,
              9369.0
            ],
            [
              44983.0,
              9655.0
            ],
            [
              44823.0,
              9655.0
            ],
            [
              44823.0,
              9369.0
            ]
          ]
        ]
      },
      "properties": {
        "objectType": "annotation",
        "classification": {
          "name": "A | Basal Plasmacytosis",
          "color": [
            202,
            65,
            86
          ]
        },
        "case_key": "2224413",
        "source": "A",
        "orig_class": "Basal Plasmacytosis",
        "match": {
          "status": "unmatched"
        }
      }
    },
    {
      "type": "Feature",
      "id": "ecf3d0f8-de5d-418a-9cd3-531256b90ce5",
      "geometry": {
        "type": "Polygon",
        "coordinates": [
          [
            [
              46592.0,
              10685.0
            ],
            [
              47083.0,
              10685.0
            ],
            [
              47083.0,
              11212.0
            ],
            [
              46592.0,
              11212.0
            ],
            [
              46592.0,
              10685.0
            ]
          ]
        ]
      },
      "properties": {
        "objectType": "annotation",
        "classification": {
          "name": "A | Ulcer/ erosion",
          "color": [
            255,
            0,
            0
          ]
        },
        "case_key": "2224413",
        "source": "A",
        "orig_class": "Ulcer/ erosion",
        "match": {
          "status": "unmatched"
        }
      }
    },
    {
      "type": "Feature",
      "id": "b5f08dc5-3b98-416a-b9b6-f31f427ca38c",
      "geometry": {
        "type": "Polygon",
        "coordinates": [
          [
            [
              46924.0,
              8794.0
            ],
            [
              47321.0,
              8794.0
            ],
            [
              47321.0,
              9220.0
            ],
            [
              46924.0,
              9220.0
            ],
            [
              46924.0,
              8794.0
            ]
          ]
        ]
      },
      "properties": {
        "objectType": "annotation",
        "classification": {
          "name": "A | Ulcer/ erosion",
          "color": [
            255,
            0,
            0
          ]
        },
        "case_key": "2224413",
        "source": "A",
        "orig_class": "Ulcer/ erosion",
        "match": {
          "status": "unmatched"
        }
      }
    },
    {
      "type": "Feature",
      "id": "0e8f6a21-c9e4-4691-aa5f-447edc27cdd7",
      "geometry": {
        "type": "Polygon",
        "coordinates": [
          [
            [
              45033.0,
              4521.0
            ],
            [
              45387.0,
              4521.0
            ],
            [
              45387.0,
              4976.0
            ],
            [
              45033.0,
              4976.0
            ],
            [
              45033.0,
              4521.0
            ]
          ]
        ]
      },
      "properties": {
        "objectType": "annotation",
        "classification": {
          "name": "A | Ulcer/ erosion",
          "color": [
            255,
            0,
            0
          ]
        },
        "case_key": "2224413",
        "source": "A",
        "orig_class": "Ulcer/ erosion",
        "match": {
          "status": "unmatched"
        }
      }
    },
    {
      "type": "Feature",
      "id": "ca6d321d-4f1c-4036-9d28-03855c3620fb",
      "geometry": {
        "type": "Polygon",
        "coordinates": [
          [
            [
              33180.0,
              3995.0
            ],
            [
              33738.0,
              3995.0
            ],
            [
              33738.0,
              4145.0
            ],
            [
              33180.0,
              4145.0
            ],
            [
              33180.0,
              3995.0
            ]
          ]
        ]
      },
      "properties": {
        "objectType": "annotation",
        "classification": {
          "name": "A | Ulcer/ erosion",
          "color": [
            255,
            0,
            0
          ]
        },
        "case_key": "2224413",
        "source": "A",
        "orig_class": "Ulcer/ erosion",
        "match": {
          "status": "unmatched"
        }
      }
    },
    {
      "type": "Feature",
      "id": "f5faa758-d5bf-490e-bc9f-32e18e18b8fb",
      "geometry": {
        "type": "Polygon",
        "coordinates": [
          [
            [
              43242.0,
              16849.0
            ],
            [
              43783.0,
              16849.0
            ],
            [
              43783.0,
              17072.0
            ],
            [
              43242.0,
              17072.0
            ],
            [
              43242.0,
              16849.0
            ]
          ]
        ]
      },
      "properties": {
        "objectType": "annotation",
        "classification": {
          "name": "A | Ulcer/ erosion",
          "color": [
            255,
            0,
            0
          ]
        },
        "case_key": "2224413",
        "source": "A",
        "orig_class": "Ulcer/ erosion",
        "match": {
          "status": "unmatched"
        }
      }
    },
    {
      "type": "Feature",
      "id": "380c6afc-ae2c-400a-a9bb-b3b46671a877",
      "geometry": {
        "type": "Polygon",
        "coordinates": [
          [
            [
              41343.0,
              16148.0
            ],
            [
              41791.0,
              16148.0
            ],
            [
              41791.0,
              16502.0
            ],
            [
              41343.0,
              16502.0
            ],
            [
              41343.0,
              16148.0
            ]
          ]
        ]
      },
      "properties": {
        "objectType": "annotation",
        "classification": {
          "name": "A | Ulcer/ erosion",
          "color": [
            255,
            0,
            0
          ]
        },
        "case_key": "2224413",
        "source": "A",
        "orig_class": "Ulcer/ erosion",
        "match": {
          "status": "unmatched"
        }
      }
    },
    {
      "type": "Feature",
      "id": "d308957e-38b8-4b02-9902-8995c3dd375a",
      "geometry": {
        "type": "Polygon",
        "coordinates": [
          [
            [
              38415.0,
              3098.0
            ],
            [
              38905.0,
              3098.0
            ],
            [
              38905.0,
              3491.0
            ],
            [
              38415.0,
              3491.0
            ],
            [
              38415.0,
              3098.0
            ]
          ]
        ]
      },
      "properties": {
        "objectType": "annotation",
        "classification": {
          "name": "A | Ulcer/ erosion",
          "color": [
            255,
            0,
            0
          ]
        },
        "case_key": "2224413",
        "source": "A",
        "orig_class": "Ulcer/ erosion",
        "match": {
          "status": "unmatched"
        }
      }
    },
    {
      "type": "Feature",
      "id": "87f87aac-f797-443b-b5dc-ce98a9ddb8aa",
      "geometry": {
        "type": "Polygon",
        "coordinates": [
          [
            [
              38973.0,
              3680.0
            ],
            [
              39375.0,
              3680.0
            ],
            [
              39375.0,
              3995.0
            ],
            [
              38973.0,
              3995.0
            ],
            [
              38973.0,
              3680.0
            ]
          ]
        ]
      },
      "properties": {
        "objectType": "annotation",
        "classification": {
          "name": "A | Ulcer/ erosion",
          "color": [
            255,
            0,
            0
          ]
        },
        "case_key": "2224413",
        "source": "A",
        "orig_class": "Ulcer/ erosion",
        "match": {
          "status": "unmatched"
        }
      }
    },
    {
      "type": "Feature",
      "id": "8b666f34-e4e2-4f13-913a-1164434cf328",
      "geometry": {
        "type": "Polygon",
        "coordinates": [
          [
            [
              39869.0,
              3825.0
            ],
            [
              40495.0,
              3825.0
            ],
            [
              40495.0,
              4126.0
            ],
            [
              39869.0,
              4126.0
            ],
            [
              39869.0,
              3825.0
            ]
          ]
        ]
      },
      "properties": {
        "objectType": "annotation",
        "classification": {
          "name": "A | Ulcer/ erosion",
          "color": [
            255,
            0,
            0
          ]
        },
        "case_key": "2224413",
        "source": "A",
        "orig_class": "Ulcer/ erosion",
        "match": {
          "status": "unmatched"
        }
      }
    },
    {
      "type": "Feature",
      "id": "753c1544-a88e-40d6-8e73-e27bafa99f62",
      "geometry": {
        "type": "Polygon",
        "coordinates": [
          [
            [
              38982.0,
              5084.0
            ],
            [
              40038.0,
              5084.0
            ],
            [
              40038.0,
              6140.0
            ],
            [
              38982.0,
              6140.0
            ],
            [
              38982.0,
              5084.0
            ]
          ]
        ]
      },
      "properties": {
        "objectType": "annotation",
        "classification": {
          "name": "A | Moderate to marked mononuclear cell infiltrate",
          "color": [
            21,
            11,
            49
          ]
        },
        "case_key": "2224413",
        "source": "A",
        "orig_class": "Moderate to marked mononuclear cell infiltrate",
        "match": {
          "status": "unmatched"
        }
      }
    },
    {
      "type": "Feature",
      "id": "25f7f7d9-fd6a-45b8-906f-3e78557b177b",
      "geometry": {
        "type": "Polygon",
        "coordinates": [
          [
            [
              37478.0,
              9868.0
            ],
            [
              38838.0,
              9868.0
            ],
            [
              38838.0,
              10428.0
            ],
            [
              37478.0,
              10428.0
            ],
            [
              37478.0,
              9868.0
            ]
          ]
        ]
      },
      "properties": {
        "objectType": "annotation",
        "classification": {
          "name": "A | Moderate to marked mononuclear cell infiltrate",
          "color": [
            21,
            11,
            49
          ]
        },
        "case_key": "2224413",
        "source": "A",
        "orig_class": "Moderate to marked mononuclear cell infiltrate",
        "match": {
          "status": "unmatched"
        }
      }
    },
    {
      "type": "Feature",
      "id": "ca40d91c-2e89-42c1-a66a-01dbf618e281",
      "geometry": {
        "type": "Polygon",
        "coordinates": [
          [
            [
              36246.0,
              8780.0
            ],
            [
              36902.0,
              8780.0
            ],
            [
              36902.0,
              9372.0
            ],
            [
              36246.0,
              9372.0
            ],
            [
              36246.0,
              8780.0
            ]
          ]
        ]
      },
      "properties": {
        "objectType": "annotation",
        "classification": {
          "name": "A | Moderate to marked mononuclear cell infiltrate",
          "color": [
            21,
            11,
            49
          ]
        },
        "case_key": "2224413",
        "source": "A",
        "orig_class": "Moderate to marked mononuclear cell infiltrate",
        "match": {
          "status": "unmatched"
        }
      }
    },
    {
      "type": "Feature",
      "id": "4f66146d-0a7d-4f95-afc8-f487f853a7ee",
      "geometry": {
        "type": "Polygon",
        "coordinates": [
          [
            [
              36038.0,
              7596.0
            ],
            [
              36710.0,
              7596.0
            ],
            [
              36710.0,
              8188.0
            ],
            [
              36038.0,
              8188.0
            ],
            [
              36038.0,
              7596.0
            ]
          ]
        ]
      },
      "properties": {
        "objectType": "annotation",
        "classification": {
          "name": "A | Moderate to marked mononuclear cell infiltrate",
          "color": [
            21,
            11,
            49
          ]
        },
        "case_key": "2224413",
        "source": "A",
        "orig_class": "Moderate to marked mononuclear cell infiltrate",
        "match": {
          "status": "unmatched"
        }
      }
    },
    {
      "type": "Feature",
      "id": "eb7dc762-4607-45e4-9bf9-c703b1650129",
      "geometry": {
        "type": "Polygon",
        "coordinates": [
          [
            [
              36998.0,
              4972.0
            ],
            [
              37590.0,
              4972.0
            ],
            [
              37590.0,
              5452.0
            ],
            [
              36998.0,
              5452.0
            ],
            [
              36998.0,
              4972.0
            ]
          ]
        ]
      },
      "properties": {
        "objectType": "annotation",
        "classification": {
          "name": "A | Moderate to marked mononuclear cell infiltrate",
          "color": [
            21,
            11,
            49
          ]
        },
        "case_key": "2224413",
        "source": "A",
        "orig_class": "Moderate to marked mononuclear cell infiltrate",
        "match": {
          "status": "unmatched"
        }
      }
    },
    {
      "type": "Feature",
      "id": "55c8db80-00e1-4dff-bcf8-9a3949bf3a94",
      "geometry": {
        "type": "Polygon",
        "coordinates": [
          [
            [
              36950.0,
              3500.0
            ],
            [
              37510.0,
              3500.0
            ],
            [
              37510.0,
              4060.0
            ],
            [
              36950.0,
              4060.0
            ],
            [
              36950.0,
              3500.0
            ]
          ]
        ]
      },
      "properties": {
        "objectType": "annotation",
        "classification": {
          "name": "A | Moderate to marked mononuclear cell infiltrate",
          "color": [
            21,
            11,
            49
          ]
        },
        "case_key": "2224413",
        "source": "A",
        "orig_class": "Moderate to marked mononuclear cell infiltrate",
        "match": {
          "status": "unmatched"
        }
      }
    },
    {
      "type": "Feature",
      "id": "78c89473-8962-4bde-aeb8-11b845752bd5",
      "geometry": {
        "type": "Polygon",
        "coordinates": [
          [
            [
              38694.0,
              6508.0
            ],
            [
              39414.0,
              6508.0
            ],
            [
              39414.0,
              7100.0
            ],
            [
              38694.0,
              7100.0
            ],
            [
              38694.0,
              6508.0
            ]
          ]
        ]
      },
      "properties": {
        "objectType": "annotation",
        "classification": {
          "name": "A | Moderate to marked mononuclear cell infiltrate",
          "color": [
            21,
            11,
            49
          ]
        },
        "case_key": "2224413",
        "source": "A",
        "orig_class": "Moderate to marked mononuclear cell infiltrate",
        "match": {
          "status": "unmatched"
        }
      }
    },
    {
      "type": "Feature",
      "id": "debe6595-0adc-4545-8f08-110f30fbffe3",
      "geometry": {
        "type": "Polygon",
        "coordinates": [
          [
            [
              40070.0,
              6972.0
            ],
            [
              40614.0,
              6972.0
            ],
            [
              40614.0,
              7484.0
            ],
            [
              40070.0,
              7484.0
            ],
            [
              40070.0,
              6972.0
            ]
          ]
        ]
      },
      "properties": {
        "objectType": "annotation",
        "classification": {
          "name": "A | Moderate to marked mononuclear cell infiltrate",
          "color": [
            21,
            11,
            49
          ]
        },
        "case_key": "2224413",
        "source": "A",
        "orig_class": "Moderate to marked mononuclear cell infiltrate",
        "match": {
          "status": "unmatched"
        }
      }
    },
    {
      "type": "Feature",
      "id": "d5592ca2-d1e0-4fc4-818d-7a6c573607d0",
      "geometry": {
        "type": "Polygon",
        "coordinates": [
          [
            [
              36214.0,
              9996.0
            ],
            [
              36966.0,
              9996.0
            ],
            [
              36966.0,
              10396.0
            ],
            [
              36214.0,
              10396.0
            ],
            [
              36214.0,
              9996.0
            ]
          ]
        ]
      },
      "properties": {
        "objectType": "annotation",
        "classification": {
          "name": "A | Moderate to marked mononuclear cell infiltrate",
          "color": [
            21,
            11,
            49
          ]
        },
        "case_key": "2224413",
        "source": "A",
        "orig_class": "Moderate to marked mononuclear cell infiltrate",
        "match": {
          "status": "unmatched"
        }
      }
    },
    {
      "type": "Feature",
      "id": "bb5b503d-bdd5-48e8-8de1-7c4c54e95252",
      "geometry": {
        "type": "Polygon",
        "coordinates": [
          [
            [
              36998.0,
              8188.0
            ],
            [
              37494.0,
              8188.0
            ],
            [
              37494.0,
              8588.0
            ],
            [
              36998.0,
              8588.0
            ],
            [
              36998.0,
              8188.0
            ]
          ]
        ]
      },
      "properties": {
        "objectType": "annotation",
        "classification": {
          "name": "A | Moderate to marked mononuclear cell infiltrate",
          "color": [
            21,
            11,
            49
          ]
        },
        "case_key": "2224413",
        "source": "A",
        "orig_class": "Moderate to marked mononuclear cell infiltrate",
        "match": {
          "status": "unmatched"
        }
      }
    },
    {
      "type": "Feature",
      "id": "951a98e9-11ed-4c34-a3b5-575cf7d282ca",
      "geometry": {
        "type": "Polygon",
        "coordinates": [
          [
            [
              36438.0,
              2092.0
            ],
            [
              36806.0,
              2092.0
            ],
            [
              36806.0,
              2652.0
            ],
            [
              36438.0,
              2652.0
            ],
            [
              36438.0,
              2092.0
            ]
          ]
        ]
      },
      "properties": {
        "objectType": "annotation",
        "classification": {
          "name": "A | Moderate to marked mononuclear cell infiltrate",
          "color": [
            21,
            11,
            49
          ]
        },
        "case_key": "2224413",
        "source": "A",
        "orig_class": "Moderate to marked mononuclear cell infiltrate",
        "match": {
          "status": "unmatched"
        }
      }
    },
    {
      "type": "Feature",
      "id": "e6ef6a82-3f4e-4218-831a-e8e7c610f4c5",
      "geometry": {
        "type": "Polygon",
        "coordinates": [
          [
            [
              44198.0,
              13180.0
            ],
            [
              44870.0,
              13180.0
            ],
            [
              44870.0,
              14220.0
            ],
            [
              44198.0,
              14220.0
            ],
            [
              44198.0,
              13180.0
            ]
          ]
        ]
      },
      "properties": {
        "objectType": "annotation",
        "classification": {
          "name": "A | Moderate to marked mononuclear cell infiltrate",
          "color": [
            21,
            11,
            49
          ]
        },
        "case_key": "2224413",
        "source": "A",
        "orig_class": "Moderate to marked mononuclear cell infiltrate",
        "match": {
          "status": "unmatched"
        }
      }
    },
    {
      "type": "Feature",
      "id": "484607b7-52f7-40a9-9db5-d3315278e196",
      "geometry": {
        "type": "Polygon",
        "coordinates": [
          [
            [
              40598.0,
              13420.0
            ],
            [
              41398.0,
              13420.0
            ],
            [
              41398.0,
              13772.0
            ],
            [
              40598.0,
              13772.0
            ],
            [
              40598.0,
              13420.0
            ]
          ]
        ]
      },
      "properties": {
        "objectType": "annotation",
        "classification": {
          "name": "A | Moderate to marked mononuclear cell infiltrate",
          "color": [
            21,
            11,
            49
          ]
        },
        "case_key": "2224413",
        "source": "A",
        "orig_class": "Moderate to marked mononuclear cell infiltrate",
        "match": {
          "status": "unmatched"
        }
      }
    },
    {
      "type": "Feature",
      "id": "ffdb73b6-2a10-4c8e-83a8-56bdad29a955",
      "geometry": {
        "type": "Polygon",
        "coordinates": [
          [
            [
              43382.0,
              13724.0
            ],
            [
              43734.0,
              13724.0
            ],
            [
              43734.0,
              15132.0
            ],
            [
              43382.0,
              15132.0
            ],
            [
              43382.0,
              13724.0
            ]
          ]
        ]
      },
      "properties": {
        "objectType": "annotation",
        "classification": {
          "name": "A | Moderate to marked mononuclear cell infiltrate",
          "color": [
            21,
            11,
            49
          ]
        },
        "case_key": "2224413",
        "source": "A",
        "orig_class": "Moderate to marked mononuclear cell infiltrate",
        "match": {
          "status": "unmatched"
        }
      }
    },
    {
      "type": "Feature",
      "id": "560bfb20-6e3f-448d-84e2-dcff7fdf015b",
      "geometry": {
        "type": "Polygon",
        "coordinates": [
          [
            [
              44950.0,
              13804.0
            ],
            [
              45414.0,
              13804.0
            ],
            [
              45414.0,
              14332.0
            ],
            [
              44950.0,
              14332.0
            ],
            [
              44950.0,
              13804.0
            ]
          ]
        ]
      },
      "properties": {
        "objectType": "annotation",
        "classification": {
          "name": "A | Moderate to marked mononuclear cell infiltrate",
          "color": [
            21,
            11,
            49
          ]
        },
        "case_key": "2224413",
        "source": "A",
        "orig_class": "Moderate to marked mononuclear cell infiltrate",
        "match": {
          "status": "unmatched"
        }
      }
    },
    {
      "type": "Feature",
      "id": "bacb68db-023f-4b08-9ab7-4a8ce45fc997",
      "geometry": {
        "type": "Polygon",
        "coordinates": [
          [
            [
              42262.0,
              17868.0
            ],
            [
              42902.0,
              17868.0
            ],
            [
              42902.0,
              18316.0
            ],
            [
              42262.0,
              18316.0
            ],
            [
              42262.0,
              17868.0
            ]
          ]
        ]
      },
      "properties": {
        "objectType": "annotation",
        "classification": {
          "name": "A | Moderate to marked mononuclear cell infiltrate",
          "color": [
            21,
            11,
            49
          ]
        },
        "case_key": "2224413",
        "source": "A",
        "orig_class": "Moderate to marked mononuclear cell infiltrate",
        "match": {
          "status": "unmatched"
        }
      }
    },
    {
      "type": "Feature",
      "id": "055f9af6-6229-4040-a0d4-e479d5b6acf3",
      "geometry": {
        "type": "Polygon",
        "coordinates": [
          [
            [
              40790.0,
              17484.0
            ],
            [
              41158.0,
              17484.0
            ],
            [
              41158.0,
              17900.0
            ],
            [
              40790.0,
              17900.0
            ],
            [
              40790.0,
              17484.0
            ]
          ]
        ]
      },
      "properties": {
        "objectType": "annotation",
        "classification": {
          "name": "A | Moderate to marked mononuclear cell infiltrate",
          "color": [
            21,
            11,
            49
          ]
        },
        "case_key": "2224413",
        "source": "A",
        "orig_class": "Moderate to marked mononuclear cell infiltrate",
        "match": {
          "status": "unmatched"
        }
      }
    },
    {
      "type": "Feature",
      "id": "492c6fab-ef0a-4963-a684-e6ca74525bf1",
      "geometry": {
        "type": "Polygon",
        "coordinates": [
          [
            [
              43238.0,
              18460.0
            ],
            [
              44134.0,
              18460.0
            ],
            [
              44134.0,
              19052.0
            ],
            [
              43238.0,
              19052.0
            ],
            [
              43238.0,
              18460.0
            ]
          ]
        ]
      },
      "properties": {
        "objectType": "annotation",
        "classification": {
          "name": "A | Moderate to marked mononuclear cell infiltrate",
          "color": [
            21,
            11,
            49
          ]
        },
        "case_key": "2224413",
        "source": "A",
        "orig_class": "Moderate to marked mononuclear cell infiltrate",
        "match": {
          "status": "unmatched"
        }
      }
    },
    {
      "type": "Feature",
      "id": "f10dd2df-a39e-4e44-bca6-cf601bdb9977",
      "geometry": {
        "type": "Polygon",
        "coordinates": [
          [
            [
              44438.0,
              17708.0
            ],
            [
              44870.0,
              17708.0
            ],
            [
              44870.0,
              18092.0
            ],
            [
              44438.0,
              18092.0
            ],
            [
              44438.0,
              17708.0
            ]
          ]
        ]
      },
      "properties": {
        "objectType": "annotation",
        "classification": {
          "name": "A | Moderate to marked mononuclear cell infiltrate",
          "color": [
            21,
            11,
            49
          ]
        },
        "case_key": "2224413",
        "source": "A",
        "orig_class": "Moderate to marked mononuclear cell infiltrate",
        "match": {
          "status": "unmatched"
        }
      }
    },
    {
      "type": "Feature",
      "id": "a65a4aa1-166c-4239-9a93-4dadca35f238",
      "geometry": {
        "type": "Polygon",
        "coordinates": [
          [
            [
              44662.0,
              16892.0
            ],
            [
              45190.0,
              16892.0
            ],
            [
              45190.0,
              17596.0
            ],
            [
              44662.0,
              17596.0
            ],
            [
              44662.0,
              16892.0
            ]
          ]
        ]
      },
      "properties": {
        "objectType": "annotation",
        "classification": {
          "name": "A | Moderate to marked mononuclear cell infiltrate",
          "color": [
            21,
            11,
            49
          ]
        },
        "case_key": "2224413",
        "source": "A",
        "orig_class": "Moderate to marked mononuclear cell infiltrate",
        "match": {
          "status": "unmatched"
        }
      }
    },
    {
      "type": "Feature",
      "id": "6502de1e-7ff8-453c-9e11-a9d378223008",
      "geometry": {
        "type": "Polygon",
        "coordinates": [
          [
            [
              41014.0,
              18828.0
            ],
            [
              41430.0,
              18828.0
            ],
            [
              41430.0,
              19356.0
            ],
            [
              41014.0,
              19356.0
            ],
            [
              41014.0,
              18828.0
            ]
          ]
        ]
      },
      "properties": {
        "objectType": "annotation",
        "classification": {
          "name": "A | Moderate to marked mononuclear cell infiltrate",
          "color": [
            21,
            11,
            49
          ]
        },
        "case_key": "2224413",
        "source": "A",
        "orig_class": "Moderate to marked mononuclear cell infiltrate",
        "match": {
          "status": "unmatched"
        }
      }
    },
    {
      "type": "Feature",
      "id": "4d34ef96-21c4-4924-9f15-04b70c882e4e",
      "geometry": {
        "type": "Polygon",
        "coordinates": [
          [
            [
              41270.0,
              17820.0
            ],
            [
              41862.0,
              17820.0
            ],
            [
              41862.0,
              18156.0
            ],
            [
              41270.0,
              18156.0
            ],
            [
              41270.0,
              17820.0
            ]
          ]
        ]
      },
      "properties": {
        "objectType": "annotation",
        "classification": {
          "name": "A | Moderate to marked mononuclear cell infiltrate",
          "color": [
            21,
            11,
            49
          ]
        },
        "case_key": "2224413",
        "source": "A",
        "orig_class": "Moderate to marked mononuclear cell infiltrate",
        "match": {
          "status": "unmatched"
        }
      }
    },
    {
      "type": "Feature",
      "id": "b2253303-05c9-4fda-98d3-24ff77a55f84",
      "geometry": {
        "type": "Polygon",
        "coordinates": [
          [
            [
              46150.0,
              16076.0
            ],
            [
              46758.0,
              16076.0
            ],
            [
              46758.0,
              16604.0
            ],
            [
              46150.0,
              16604.0
            ],
            [
              46150.0,
              16076.0
            ]
          ]
        ]
      },
      "properties": {
        "objectType": "annotation",
        "classification": {
          "name": "A | Moderate to marked mononuclear cell infiltrate",
          "color": [
            21,
            11,
            49
          ]
        },
        "case_key": "2224413",
        "source": "A",
        "orig_class": "Moderate to marked mononuclear cell infiltrate",
        "match": {
          "status": "unmatched"
        }
      }
    },
    {
      "type": "Feature",
      "id": "ad3565cc-bff1-4e75-92e7-a94689c61b17",
      "geometry": {
        "type": "Polygon",
        "coordinates": [
          [
            [
              43414.0,
              19244.0
            ],
            [
              43750.0,
              19244.0
            ],
            [
              43750.0,
              19788.0
            ],
            [
              43414.0,
              19788.0
            ],
            [
              43414.0,
              19244.0
            ]
          ]
        ]
      },
      "properties": {
        "objectType": "annotation",
        "classification": {
          "name": "A | Moderate to marked mononuclear cell infiltrate",
          "color": [
            21,
            11,
            49
          ]
        },
        "case_key": "2224413",
        "source": "A",
        "orig_class": "Moderate to marked mononuclear cell infiltrate",
        "match": {
          "status": "unmatched"
        }
      }
    },
    {
      "type": "Feature",
      "id": "09e2c28d-ab3e-474c-bd7e-0c6c031dfcc2",
      "geometry": {
        "type": "Polygon",
        "coordinates": [
          [
            [
              41862.0,
              18124.0
            ],
            [
              42246.0,
              18124.0
            ],
            [
              42246.0,
              18636.0
            ],
            [
              41862.0,
              18636.0
            ],
            [
              41862.0,
              18124.0
            ]
          ]
        ]
      },
      "properties": {
        "objectType": "annotation",
        "classification": {
          "name": "A | Moderate to marked mononuclear cell infiltrate",
          "color": [
            21,
            11,
            49
          ]
        },
        "case_key": "2224413",
        "source": "A",
        "orig_class": "Moderate to marked mononuclear cell infiltrate",
        "match": {
          "status": "unmatched"
        }
      }
    },
    {
      "type": "Feature",
      "id": "9bc1eae0-9611-4f8b-9a5b-6eab3f9d6584",
      "geometry": {
        "type": "Polygon",
        "coordinates": [
          [
            [
              42198.0,
              17228.0
            ],
            [
              42662.0,
              17228.0
            ],
            [
              42662.0,
              17852.0
            ],
            [
              42198.0,
              17852.0
            ],
            [
              42198.0,
              17228.0
            ]
          ]
        ]
      },
      "properties": {
        "objectType": "annotation",
        "classification": {
          "name": "A | Moderate to marked mononuclear cell infiltrate",
          "color": [
            21,
            11,
            49
          ]
        },
        "case_key": "2224413",
        "source": "A",
        "orig_class": "Moderate to marked mononuclear cell infiltrate",
        "match": {
          "status": "unmatched"
        }
      }
    },
    {
      "type": "Feature",
      "id": "e9d98caf-e220-42c6-981e-2dc9c01be9f2",
      "geometry": {
        "type": "Polygon",
        "coordinates": [
          [
            [
              40054.0,
              17308.0
            ],
            [
              40486.0,
              17308.0
            ],
            [
              40486.0,
              17804.0
            ],
            [
              40054.0,
              17804.0
            ],
            [
              40054.0,
              17308.0
            ]
          ]
        ]
      },
      "properties": {
        "objectType": "annotation",
        "classification": {
          "name": "A | Moderate to marked mononuclear cell infiltrate",
          "color": [
            21,
            11,
            49
          ]
        },
        "case_key": "2224413",
        "source": "A",
        "orig_class": "Moderate to marked mononuclear cell infiltrate",
        "match": {
          "status": "unmatched"
        }
      }
    },
    {
      "type": "Feature",
      "id": "4c4e3cea-7f63-4f88-8dd1-0986f2cbece1",
      "geometry": {
        "type": "Polygon",
        "coordinates": [
          [
            [
              40998.0,
              20300.0
            ],
            [
              41622.0,
              20300.0
            ],
            [
              41622.0,
              20732.0
            ],
            [
              40998.0,
              20732.0
            ],
            [
              40998.0,
              20300.0
            ]
          ]
        ]
      },
      "properties": {
        "objectType": "annotation",
        "classification": {
          "name": "A | Moderate to marked mononuclear cell infiltrate",
          "color": [
            21,
            11,
            49
          ]
        },
        "case_key": "2224413",
        "source": "A",
        "orig_class": "Moderate to marked mononuclear cell infiltrate",
        "match": {
          "status": "unmatched"
        }
      }
    },
    {
      "type": "Feature",
      "id": "694f4954-70b2-47d8-8e23-d46bbfed18d5",
      "geometry": {
        "type": "Polygon",
        "coordinates": [
          [
            [
              44278.0,
              12748.0
            ],
            [
              44838.0,
              12748.0
            ],
            [
              44838.0,
              13036.0
            ],
            [
              44278.0,
              13036.0
            ],
            [
              44278.0,
              12748.0
            ]
          ]
        ]
      },
      "properties": {
        "objectType": "annotation",
        "classification": {
          "name": "A | Moderate to marked mononuclear cell infiltrate",
          "color": [
            21,
            11,
            49
          ]
        },
        "case_key": "2224413",
        "source": "A",
        "orig_class": "Moderate to marked mononuclear cell infiltrate",
        "match": {
          "status": "unmatched"
        }
      }
    },
    {
      "type": "Feature",
      "id": "adaa6bfc-f7e4-4020-a8ad-e120329ca895",
      "geometry": {
        "type": "Polygon",
        "coordinates": [
          [
            [
              46326.0,
              12172.0
            ],
            [
              46790.0,
              12172.0
            ],
            [
              46790.0,
              12860.0
            ],
            [
              46326.0,
              12860.0
            ],
            [
              46326.0,
              12172.0
            ]
          ]
        ]
      },
      "properties": {
        "objectType": "annotation",
        "classification": {
          "name": "A | Moderate to marked mononuclear cell infiltrate",
          "color": [
            21,
            11,
            49
          ]
        },
        "case_key": "2224413",
        "source": "A",
        "orig_class": "Moderate to marked mononuclear cell infiltrate",
        "match": {
          "status": "unmatched"
        }
      }
    },
    {
      "type": "Feature",
      "id": "a738a40f-0b36-4649-a719-9d51a30f1d6d",
      "geometry": {
        "type": "Polygon",
        "coordinates": [
          [
            [
              40038.0,
              11196.0
            ],
            [
              40630.0,
              11196.0
            ],
            [
              40630.0,
              11564.0
            ],
            [
              40038.0,
              11564.0
            ],
            [
              40038.0,
              11196.0
            ]
          ]
        ]
      },
      "properties": {
        "objectType": "annotation",
        "classification": {
          "name": "A | Moderate to marked mononuclear cell infiltrate",
          "color": [
            21,
            11,
            49
          ]
        },
        "case_key": "2224413",
        "source": "A",
        "orig_class": "Moderate to marked mononuclear cell infiltrate",
        "match": {
          "status": "unmatched"
        }
      }
    },
    {
      "type": "Feature",
      "id": "07f227d2-d4ad-49ea-8d8c-79bfcd3ec6b7",
      "geometry": {
        "type": "Polygon",
        "coordinates": [
          [
            [
              41270.0,
              13004.0
            ],
            [
              41590.0,
              13004.0
            ],
            [
              41590.0,
              13404.0
            ],
            [
              41270.0,
              13404.0
            ],
            [
              41270.0,
              13004.0
            ]
          ]
        ]
      },
      "properties": {
        "objectType": "annotation",
        "classification": {
          "name": "A | Moderate to marked mononuclear cell infiltrate",
          "color": [
            21,
            11,
            49
          ]
        },
        "case_key": "2224413",
        "source": "A",
        "orig_class": "Moderate to marked mononuclear cell infiltrate",
        "match": {
          "status": "unmatched"
        }
      }
    },
    {
      "type": "Feature",
      "id": "efe3b7d6-9270-4bb8-a59d-24dec17a7369",
      "geometry": {
        "type": "Polygon",
        "coordinates": [
          [
            [
              39974.0,
              14252.0
            ],
            [
              40486.0,
              14252.0
            ],
            [
              40486.0,
              15068.0
            ],
            [
              39974.0,
              15068.0
            ],
            [
              39974.0,
              14252.0
            ]
          ]
        ]
      },
      "properties": {
        "objectType": "annotation",
        "classification": {
          "name": "A | Moderate to marked mononuclear cell infiltrate",
          "color": [
            21,
            11,
            49
          ]
        },
        "case_key": "2224413",
        "source": "A",
        "orig_class": "Moderate to marked mononuclear cell infiltrate",
        "match": {
          "status": "unmatched"
        }
      }
    },
    {
      "type": "Feature",
      "id": "e1551adb-a5aa-4d07-a5b9-231d3e5ac26a",
      "geometry": {
        "type": "Polygon",
        "coordinates": [
          [
            [
              41430.0,
              11900.0
            ],
            [
              41894.0,
              11900.0
            ],
            [
              41894.0,
              12300.0
            ],
            [
              41430.0,
              12300.0
            ],
            [
              41430.0,
              11900.0
            ]
          ]
        ]
      },
      "properties": {
        "objectType": "annotation",
        "classification": {
          "name": "A | Moderate to marked mononuclear cell infiltrate",
          "color": [
            21,
            11,
            49
          ]
        },
        "case_key": "2224413",
        "source": "A",
        "orig_class": "Moderate to marked mononuclear cell infiltrate",
        "match": {
          "status": "unmatched"
        }
      }
    },
    {
      "type": "Feature",
      "id": "512ff2aa-79c5-4ebb-95a8-f65ec1b128ca",
      "geometry": {
        "type": "Polygon",
        "coordinates": [
          [
            [
              42374.0,
              4620.0
            ],
            [
              43334.0,
              4620.0
            ],
            [
              43334.0,
              5212.0
            ],
            [
              42374.0,
              5212.0
            ],
            [
              42374.0,
              4620.0
            ]
          ]
        ]
      },
      "properties": {
        "objectType": "annotation",
        "classification": {
          "name": "A | Moderate to marked mononuclear cell infiltrate",
          "color": [
            21,
            11,
            49
          ]
        },
        "case_key": "2224413",
        "source": "A",
        "orig_class": "Moderate to marked mononuclear cell infiltrate",
        "match": {
          "status": "unmatched"
        }
      }
    },
    {
      "type": "Feature",
      "id": "4c995f2c-5e4e-499e-b1c8-a935821d349b",
      "geometry": {
        "type": "Polygon",
        "coordinates": [
          [
            [
              43862.0,
              7276.0
            ],
            [
              44374.0,
              7276.0
            ],
            [
              44374.0,
              7708.0
            ],
            [
              43862.0,
              7708.0
            ],
            [
              43862.0,
              7276.0
            ]
          ]
        ]
      },
      "properties": {
        "objectType": "annotation",
        "classification": {
          "name": "A | Moderate to marked mononuclear cell infiltrate",
          "color": [
            21,
            11,
            49
          ]
        },
        "case_key": "2224413",
        "source": "A",
        "orig_class": "Moderate to marked mononuclear cell infiltrate",
        "match": {
          "status": "unmatched"
        }
      }
    },
    {
      "type": "Feature",
      "id": "6123af46-3da3-4c0e-bb33-2b2d7ddd22a6",
      "geometry": {
        "type": "Polygon",
        "coordinates": [
          [
            [
              40710.0,
              12380.0
            ],
            [
              41238.0,
              12380.0
            ],
            [
              41238.0,
              12748.0
            ],
            [
              40710.0,
              12748.0
            ],
            [
              40710.0,
              12380.0
            ]
          ]
        ]
      },
      "properties": {
        "objectType": "annotation",
        "classification": {
          "name": "A | Moderate to marked mononuclear cell infiltrate",
          "color": [
            21,
            11,
            49
          ]
        },
        "case_key": "2224413",
        "source": "A",
        "orig_class": "Moderate to marked mononuclear cell infiltrate",
        "match": {
          "status": "unmatched"
        }
      }
    },
    {
      "type": "Feature",
      "id": "48f4e2bd-e5c4-47af-bb54-217d6e13f13b",
      "geometry": {
        "type": "Polygon",
        "coordinates": [
          [
            [
              34886.0,
              6540.0
            ],
            [
              40678.0,
              6540.0
            ],
            [
              40678.0,
              9324.0
            ],
            [
              34886.0,
              9324.0
            ],
            [
              34886.0,
              6540.0
            ]
          ]
        ]
      },
      "properties": {
        "objectType": "annotation",
        "classification": {
          "name": "A | Focal (<50%) crypt distortion",
          "color": [
            0,
            255,
            0
          ]
        },
        "case_key": "2224413",
        "source": "A",
        "orig_class": "Focal (<50%) crypt distortion",
        "match": {
          "status": "unmatched"
        }
      }
    },
    {
      "type": "Feature",
      "id": "1fd7f4af-fab8-4c65-bc31-56e72a764d1c",
      "geometry": {
        "type": "Polygon",
        "coordinates": [
          [
            [
              33318.0,
              9548.0
            ],
            [
              35702.0,
              9548.0
            ],
            [
              35702.0,
              12364.0
            ],
            [
              33318.0,
              12364.0
            ],
            [
              33318.0,
              9548.0
            ]
          ]
        ]
      },
      "properties": {
        "objectType": "annotation",
        "classification": {
          "name": "A | Focal (<50%) crypt distortion",
          "color": [
            0,
            255,
            0
          ]
        },
        "case_key": "2224413",
        "source": "A",
        "orig_class": "Focal (<50%) crypt distortion",
        "match": {
          "status": "unmatched"
        }
      }
    },
    {
      "type": "Feature",
      "id": "269ef8ca-088f-4f44-a741-46888a5700dd",
      "geometry": {
        "type": "Polygon",
        "coordinates": [
          [
            [
              36822.0,
              11916.0
            ],
            [
              38486.0,
              11916.0
            ],
            [
              38486.0,
              12604.0
            ],
            [
              36822.0,
              12604.0
            ],
            [
              36822.0,
              11916.0
            ]
          ]
        ]
      },
      "properties": {
        "objectType": "annotation",
        "classification": {
          "name": "A | Focal (<50%) crypt distortion",
          "color": [
            0,
            255,
            0
          ]
        },
        "case_key": "2224413",
        "source": "A",
        "orig_class": "Focal (<50%) crypt distortion",
        "match": {
          "status": "unmatched"
        }
      }
    },
    {
      "type": "Feature",
      "id": "4d62e55a-5ed3-4fd6-a537-b3b9ce867a15",
      "geometry": {
        "type": "Polygon",
        "coordinates": [
          [
            [
              42294.0,
              3612.0
            ],
            [
              44358.0,
              3612.0
            ],
            [
              44358.0,
              5308.0
            ],
            [
              42294.0,
              5308.0
            ],
            [
              42294.0,
              3612.0
            ]
          ]
        ]
      },
      "properties": {
        "objectType": "annotation",
        "classification": {
          "name": "A | Focal (<50%) crypt distortion",
          "color": [
            0,
            255,
            0
          ]
        },
        "case_key": "2224413",
        "source": "A",
        "orig_class": "Focal (<50%) crypt distortion",
        "match": {
          "status": "unmatched"
        }
      }
    },
    {
      "type": "Feature",
      "id": "629d8f7f-2f79-405b-a5c6-efda4b46b894",
      "geometry": {
        "type": "Polygon",
        "coordinates": [
          [
            [
              38454.0,
              11836.0
            ],
            [
              40102.0,
              11836.0
            ],
            [
              40102.0,
              14028.0
            ],
            [
              38454.0,
              14028.0
            ],
            [
              38454.0,
              11836.0
            ]
          ]
        ]
      },
      "properties": {
        "objectType": "annotation",
        "classification": {
          "name": "A | Focal (<50%) crypt distortion",
          "color": [
            0,
            255,
            0
          ]
        },
        "case_key": "2224413",
        "source": "A",
        "orig_class": "Focal (<50%) crypt distortion",
        "match": {
          "status": "unmatched"
        }
      }
    },
    {
      "type": "Feature",
      "id": "26ce5354-3d28-4046-b8a8-63d4f897f82e",
      "geometry": {
        "type": "Polygon",
        "coordinates": [
          [
            [
              39766.0,
              13916.0
            ],
            [
              41350.0,
              13916.0
            ],
            [
              41350.0,
              15596.0
            ],
            [
              39766.0,
              15596.0
            ],
            [
              39766.0,
              13916.0
            ]
          ]
        ]
      },
      "properties": {
        "objectType": "annotation",
        "classification": {
          "name": "A | Focal (<50%) crypt distortion",
          "color": [
            0,
            255,
            0
          ]
        },
        "case_key": "2224413",
        "source": "A",
        "orig_class": "Focal (<50%) crypt distortion",
        "match": {
          "status": "unmatched"
        }
      }
    },
    {
      "type": "Feature",
      "id": "a686dbf5-5bae-4058-9f7f-4f7fce7f2bb0",
      "geometry": {
        "type": "Polygon",
        "coordinates": [
          [
            [
              44166.0,
              10940.0
            ],
            [
              48182.0,
              10940.0
            ],
            [
              48182.0,
              15036.0
            ],
            [
              44166.0,
              15036.0
            ],
            [
              44166.0,
              10940.0
            ]
          ]
        ]
      },
      "properties": {
        "objectType": "annotation",
        "classification": {
          "name": "A | Marked (>50%) crypt distortion",
          "color": [
            0,
            51,
            0
          ]
        },
        "case_key": "2224413",
        "source": "A",
        "orig_class": "Marked (>50%) crypt distortion",
        "match": {
          "status": "unmatched"
        }
      }
    },
    {
      "type": "Feature",
      "id": "d5d770ba-5fb0-448b-b0e3-9cda387241b9",
      "geometry": {
        "type": "Polygon",
        "coordinates": [
          [
            [
              44038.0,
              15484.0
            ],
            [
              47014.0,
              15484.0
            ],
            [
              47014.0,
              16844.0
            ],
            [
              44038.0,
              16844.0
            ],
            [
              44038.0,
              15484.0
            ]
          ]
        ]
      },
      "properties": {
        "objectType": "annotation",
        "classification": {
          "name": "A | Focal (<50%) crypt distortion",
          "color": [
            0,
            255,
            0
          ]
        },
        "case_key": "2224413",
        "source": "A",
        "orig_class": "Focal (<50%) crypt distortion",
        "match": {
          "status": "unmatched"
        }
      }
    },
    {
      "type": "Feature",
      "id": "1aea83ea-553e-416d-9988-a63e0e66e50f",
      "geometry": {
        "type": "Polygon",
        "coordinates": [
          [
            [
              39606.0,
              16332.0
            ],
            [
              43446.0,
              16332.0
            ],
            [
              43446.0,
              17740.0
            ],
            [
              39606.0,
              17740.0
            ],
            [
              39606.0,
              16332.0
            ]
          ]
        ]
      },
      "properties": {
        "objectType": "annotation",
        "classification": {
          "name": "A | Focal (<50%) crypt distortion",
          "color": [
            0,
            255,
            0
          ]
        },
        "case_key": "2224413",
        "source": "A",
        "orig_class": "Focal (<50%) crypt distortion",
        "match": {
          "status": "unmatched"
        }
      }
    },
    {
      "type": "Feature",
      "id": "90e41f5b-bc3c-497f-bedb-057d535c13fc",
      "geometry": {
        "type": "Polygon",
        "coordinates": [
          [
            [
              40070.0,
              18188.0
            ],
            [
              43414.0,
              18188.0
            ],
            [
              43414.0,
              20412.0
            ],
            [
              40070.0,
              20412.0
            ],
            [
              40070.0,
              18188.0
            ]
          ]
        ]
      },
      "properties": {
        "objectType": "annotation",
        "classification": {
          "name": "A | Architecture normal",
          "color": [
            0,
            255,
            255
          ]
        },
        "case_key": "2224413",
        "source": "A",
        "orig_class": "Architecture normal",
        "match": {
          "status": "unmatched"
        }
      }
    },
    {
      "type": "Feature",
      "id": "9a01487f-5a26-4755-817c-6b8822ae8fc9",
      "geometry": {
        "type": "Polygon",
        "coordinates": [
          [
            [
              40630.0,
              8716.0
            ],
            [
              42902.0,
              8716.0
            ],
            [
              42902.0,
              12796.0
            ],
            [
              40630.0,
              12796.0
            ],
            [
              40630.0,
              8716.0
            ]
          ]
        ]
      },
      "properties": {
        "objectType": "annotation",
        "classification": {
          "name": "A | Architecture normal",
          "color": [
            0,
            255,
            255
          ]
        },
        "case_key": "2224413",
        "source": "A",
        "orig_class": "Architecture normal",
        "match": {
          "status": "unmatched"
        }
      }
    },
    {
      "type": "Feature",
      "id": "2f61d677-29bd-43c5-b8d9-3cc63202443c",
      "geometry": {
        "type": "Polygon",
        "coordinates": [
          [
            [
              44102.0,
              5244.0
            ],
            [
              46982.0,
              5244.0
            ],
            [
              46982.0,
              9148.0
            ],
            [
              44102.0,
              9148.0
            ],
            [
              44102.0,
              5244.0
            ]
          ]
        ]
      },
      "properties": {
        "objectType": "annotation",
        "classification": {
          "name": "A | Architecture normal",
          "color": [
            0,
            255,
            255
          ]
        },
        "case_key": "2224413",
        "source": "A",
        "orig_class": "Architecture normal",
        "match": {
          "status": "unmatched"
        }
      }
    },
    {
      "type": "Feature",
      "id": "0fc9b55f-ae72-40c2-a921-4e517f75382a",
      "geometry": {
        "type": "Polygon",
        "coordinates": [
          [
            [
              41830.0,
              5340.0
            ],
            [
              43958.0,
              5340.0
            ],
            [
              43958.0,
              8076.0
            ],
            [
              41830.0,
              8076.0
            ],
            [
              41830.0,
              5340.0
            ]
          ]
        ]
      },
      "properties": {
        "objectType": "annotation",
        "classification": {
          "name": "A | Architecture normal",
          "color": [
            0,
            255,
            255
          ]
        },
        "case_key": "2224413",
        "source": "A",
        "orig_class": "Architecture normal",
        "match": {
          "status": "unmatched"
        }
      }
    },
    {
      "type": "Feature",
      "id": "449309ae-c60f-4d4b-8e79-dbe58a64e7f8",
      "geometry": {
        "type": "Polygon",
        "coordinates": [
          [
            [
              36566.0,
              3788.0
            ],
            [
              39350.0,
              3788.0
            ],
            [
              39350.0,
              6428.0
            ],
            [
              36566.0,
              6428.0
            ],
            [
              36566.0,
              3788.0
            ]
          ]
        ]
      },
      "properties": {
        "objectType": "annotation",
        "classification": {
          "name": "A | Architecture normal",
          "color": [
            0,
            255,
            255
          ]
        },
        "case_key": "2224413",
        "source": "A",
        "orig_class": "Architecture normal",
        "match": {
          "status": "unmatched"
        }
      }
    },
    {
      "type": "Feature",
      "id": "361c5869-e657-413e-b439-a7162e8f453a",
      "geometry": {
        "type": "Polygon",
        "coordinates": [
          [
            [
              39638.0,
              4284.0
            ],
            [
              40598.0,
              4284.0
            ],
            [
              40598.0,
              6316.0
            ],
            [
              39638.0,
              6316.0
            ],
            [
              39638.0,
              4284.0
            ]
          ]
        ]
      },
      "properties": {
        "objectType": "annotation",
        "classification": {
          "name": "A | Focal (<50%) crypt distortion",
          "color": [
            0,
            255,
            0
          ]
        },
        "case_key": "2224413",
        "source": "A",
        "orig_class": "Focal (<50%) crypt distortion",
        "match": {
          "status": "unmatched"
        }
      }
    },
    {
      "type": "Feature",
      "id": "6512926f-b048-434e-89af-26de4fff8617",
      "geometry": {
        "type": "Polygon",
        "coordinates": [
          [
            [
              36150.0,
              9420.0
            ],
            [
              38758.0,
              9420.0
            ],
            [
              38758.0,
              11692.0
            ],
            [
              36150.0,
              11692.0
            ],
            [
              36150.0,
              9420.0
            ]
          ]
        ]
      },
      "properties": {
        "objectType": "annotation",
        "classification": {
          "name": "A | Architecture normal",
          "color": [
            0,
            255,
            255
          ]
        },
        "case_key": "2224413",
        "source": "A",
        "orig_class": "Architecture normal",
        "match": {
          "status": "unmatched"
        }
      }
    },
    {
      "type": "Feature",
      "id": "64f26213-80f6-4937-920c-8b1dc073e836",
      "geometry": {
        "type": "Polygon",
        "coordinates": [
          [
            [
              39376.0,
              19513.0
            ],
            [
              39961.0,
              19513.0
            ],
            [
              39961.0,
              20191.0
            ],
            [
              39376.0,
              20191.0
            ],
            [
              39376.0,
              19513.0
            ]
          ]
        ]
      },
      "properties": {
        "objectType": "annotation",
        "classification": {
          "name": "A | Ulcer/ erosion",
          "color": [
            255,
            0,
            0
          ]
        },
        "case_key": "2224413",
        "source": "A",
        "orig_class": "Ulcer/ erosion",
        "match": {
          "status": "unmatched"
        }
      }
    },
    {
      "type": "Feature",
      "id": "36c82e8a-dade-4f8b-88c1-0b620890f191",
      "geometry": {
        "type": "Polygon",
        "coordinates": [
          [
            [
              32424.0,
              1426.0
            ],
            [
              32424.0,
              22947.0
            ],
            [
              48308.0,
              22947.0
            ],
            [
              48308.0,
              1426.0
            ],
            [
              32424.0,
              1426.0
            ]
          ]
        ]
      },
      "properties": {
        "objectType": "annotation",
        "case_key": "2224413",
        "source": "C",
        "orig_class": "unknown",
        "classification": {
          "name": "C | unknown"
        },
        "match": {
          "status": "unmatched"
        }
      }
    },
    {
      "type": "Feature",
      "id": "de3261c9-83e5-4095-a938-b4d3300efb1d",
      "geometry": {
        "type": "Polygon",
        "coordinates": [
          [
            [
              32963.0,
              1786.0
            ],
            [
              32963.0,
              12800.0
            ],
            [
              40755.0,
              12800.0
            ],
            [
              40755.0,
              1786.0
            ],
            [
              32963.0,
              1786.0
            ]
          ]
        ]
      },
      "properties": {
        "objectType": "annotation",
        "classification": {
          "name": "C | No ulcer/ mild activity",
          "color": [
            255,
            0,
            255
          ]
        },
        "case_key": "2224413",
        "source": "C",
        "orig_class": "No ulcer/ mild activity",
        "match": {
          "status": "unmatched"
        }
      }
    },
    {
      "type": "Feature",
      "id": "07d33b78-a99c-490b-9800-eb2fbb052d80",
      "geometry": {
        "type": "Polygon",
        "coordinates": [
          [
            [
              41281.0,
              3600.0
            ],
            [
              41281.0,
              9647.0
            ],
            [
              47923.0,
              9647.0
            ],
            [
              47923.0,
              3600.0
            ],
            [
              41281.0,
              3600.0
            ]
          ]
        ]
      },
      "properties": {
        "objectType": "annotation",
        "case_key": "2224413",
        "source": "C",
        "orig_class": "unknown",
        "classification": {
          "name": "C | unknown"
        },
        "match": {
          "status": "unmatched"
        }
      }
    },
    {
      "type": "Feature",
      "id": "e129742b-0bb7-4f99-bc5a-731631eb0402",
      "geometry": {
        "type": "Polygon",
        "coordinates": [
          [
            [
              38477.0,
              9621.0
            ],
            [
              38477.0,
              15432.0
            ],
            [
              42995.0,
              15432.0
            ],
            [
              42995.0,
              9621.0
            ],
            [
              38477.0,
              9621.0
            ]
          ]
        ]
      },
      "properties": {
        "objectType": "annotation",
        "classification": {
          "name": "C | No ulcer/ mild activity",
          "color": [
            255,
            0,
            255
          ]
        },
        "case_key": "2224413",
        "source": "C",
        "orig_class": "No ulcer/ mild activity",
        "match": {
          "status": "unmatched"
        }
      }
    },
    {
      "type": "Feature",
      "id": "6524d465-8a96-40a9-8dda-fcfe9791b3dc",
      "geometry": {
        "type": "Polygon",
        "coordinates": [
          [
            [
              43077.0,
              10515.0
            ],
            [
              43077.0,
              15448.0
            ],
            [
              48092.0,
              15448.0
            ],
            [
              48092.0,
              10515.0
            ],
            [
              43077.0,
              10515.0
            ]
          ]
        ]
      },
      "properties": {
        "objectType": "annotation",
        "case_key": "2224413",
        "source": "C",
        "orig_class": "unknown",
        "classification": {
          "name": "C | unknown"
        },
        "match": {
          "status": "unmatched"
        }
      }
    },
    {
      "type": "Feature",
      "id": "1bbf9b28-3929-4357-a45c-5ac8f9c91895",
      "geometry": {
        "type": "Polygon",
        "coordinates": [
          [
            [
              39149.0,
              15624.0
            ],
            [
              39149.0,
              21049.0
            ],
            [
              47579.0,
              21049.0
            ],
            [
              47579.0,
              15624.0
            ],
            [
              39149.0,
              15624.0
            ]
          ]
        ]
      },
      "properties": {
        "objectType": "annotation",
        "classification": {
          "name": "C | No ulcer/ mild activity",
          "color": [
            255,
            0,
            255
          ]
        },
        "case_key": "2224413",
        "source": "C",
        "orig_class": "No ulcer/ mild activity",
        "match": {
          "status": "unmatched"
        }
      }
    }
  ]
}